x,y,x,y,Name,Genes
2.725935,6.1239514,-0.9007872,8.992941,adenoma,LHCGR PLAG1 THRA ODC1 AIP HMGA2 GNAI2 TSHR APC HNF1A GNAS MUTYH MEN1 HRPT2 
1.4573961,4.806504,0.8161133,8.760594,alopecia,RBM28 AA1 AA2 APMR2 APMR1 AGA2 HR AGA3 AFA1 FOXN1 CLDN1 
-1.0967141,5.294641,0.583507,10.286717,alzheimer disease,ACE NOS3 SORL1 AD5 AD6 AD7 AD8 AD9 BLMH APP PACIP1 HFE MPO PSEN1 PLAU PSEN2 AD15 AD16 APOE AD13 APBB2 A2M AD14 AD11 AD12 AD10 
0.33384028,6.23482,-0.43151146,9.7649555,anemia,GPX1 G6PD TPI1 GSR PUS1 GSS RPS7 HBA1 HBA2 PALB2 SPTB IRF1 TF CDAN1 CDAN2 CDAN3 FANCD2 IFNG GPI SLEH1 RPL11 ABCB7 TMPRSS6 COX4I2 TERC HBB BRCA2 NT5C3 HK1 DBA2 TERT FAAP95 XRCC9 FANCI AMN CUBN FANCM GLRX5 RPL35A FANCA FANCC BPGM FANCF FANCE NRAMP2 DHFR GCLC PFKL RHAG RPS24 RPL5 MTRR ALAS2 AK1 SLC2A1 GATA1 PHF9 BRIP1 RPS17 RPS19 SLC19A2 
-0.43544304,5.1823816,1.2165469,9.2941475,aneurysm,AAT1 AAT2 ANIB7 ANIB8 ANIB9 AAA3 ACTA2 COL4A1 ANIB1 COL3A1 ANIB2 ANIB3 ANIB4 ANIB5 ANIB6 ANIB10 MYH11 FBN1 
1.5773402,5.0762796,1.6956899,8.845181,anomalies,EYA1 FOXC1 DNMT3B HOXD13 GLI2 TWIST RUNX2 JAWAD CODA VSX1 FOLR1 BMPR1B SLC29A3 
-0.9191921,5.027443,1.606893,10.280434,arrhythmogenic right ventricular dysplasia,RYR2 DSP TGFB3 JUP ARVD3 TMEM43 ARVD6 ARVD7 ARVD4 PKP2 DSG2 LAMR1 DSC2 
1.0599821,6.858259,-1.762758,10.196531,asthma,CCL11 PHF11 ASRT3 PTGER2 ASRT4 IL13 IGES TNF ADRB2 PLA2G7 HLA-G HNMT UGB IRAK3 ALOX5 TBX21 SCGB3A2 IL12B ASRT6 CHI3L1 PTGDR NPSR1 MUC7 
-0.26591232,5.8371024,1.4100043,9.713993,ataxia,IOSCA MRE11A SNAX1 CP APTX SATX2 SCAX1 ATM AXPC1 SCAX5 SCA23 SCA8 SCA25 ABCB7 SCA4 KCNC3 SCA29 SCA28 SLC1A3 FRDA2 ITPR1 ATXN2 ATXN7 TTPA EA3 C10ORF2 EA7 ATXN1 SPTBN2 SCA20 PLEKHG4 TBP SCAR3 PRKCG SCAR2 SCAR5 SCAR4 SCAR7 SCA15 SCAR6 SCA18 SCA19 SPAX1 PHARC CACNB4 SETX ATXN10 TDP1 FXN FGF14 CABC1 KCNA1 FMR1 CACNA1A SYNE1 PPP2R2B TTBK2 SACS POLG ATCAY 
2.3574662,5.8713846,-0.3717788,8.817724,autism,NLGN4 CNTNAP2 NLGN3 AUTS3 AUTS1 GLO1 NRXN1 EN2 PTEN MECP2 AUTS11 AUTS14 AUTS7 AUTS6 MET AUTS5 AUTS4 SHANK3 AUTS8 
-0.4101576,3.9675553,1.3824359,11.346313,bardet-biedl syndrome,BBS2 MKKS BBS1 ARL6 BBS10 BBS12 TTC8 TMEM67 BBS7 CEP290 PTHB1 TRIM32 BBS5 BBS4 MKS1 
-0.160895,6.6640472,-0.6252176,10.791857,blood,CR1 SLC14A1 KLF1 SELE ATP1B1 XG KEL RHCE CD44 ACHE GYPB GYPA CD151 GYPC GCNT2 SLC2A1 LU SLC4A1 LW AQP3 FUT3 RHD ABO AQP1 ART4 C4A RGS5 FY SF BSG B4GALGT2 B3GALT3 ERMAP A4GALT SEMA7A CD55 
-0.58321166,4.2875757,0.97249395,9.724608,bone mineral density,BMND11 BMND9 BMND14 BMND6 BMND13 BMND4 BMND5 BMND2 BMND3 LRP5 FBXO33 BMND10 
3.4272983,4.940257,-0.52359176,8.138658,breast cancer,NQO1 XRCC3 BRCD2 ESR1 PALB2 RAD51A PPM1D PIK3CA ATM SLC22A1L TP53 KRAS2 TSG101 HMMR PHB RB1CC1 BRCA2 BRCA3 BRIP1 CASP8 CDH1 RAD54L BRCD1 CHEK2 AKT1 BRCATA BCPR BARD1 
-1.6356277,4.6135364,2.3381886,10.561935,cardiomyopathy,DSP MYBPC3 ABCC9 CAV3 TNNC1 ACTN2 EYA4 DES MYL2 TNNT2 MYL3 TCAP MYH6 MYH7 VCL MYLK2 CMD1H CMD1K PRKAG2 PSEN1 LDB3 PSEN2 ACTC1 TTN CMD1Q TAZ LMNA PLN TMPO SGCD CSRP3 RCM2 MYO6 SCN5A TPM1 TNNI3 CMD1F COX15 DMD CMD1B FKTN CMD1C 
-1.6169739,4.460343,2.0680244,10.953055,"cardiomyopathy, dilated",DSP MYBPC3 ABCC9 TNNC1 ACTN2 EYA4 DES TNNT2 TCAP MYH7 VCL CMD1H CMD1K PSEN1 LDB3 PSEN2 ACTC1 TTN CMD1Q TAZ LMNA PLN TMPO SGCD CSRP3 SCN5A TPM1 TNNI3 CMD1F DMD CMD1B FKTN CMD1C 
-0.7112143,4.618275,1.801158,9.879354,"cardiomyopathy, hypertrophic",MYLK2 MYBPC3 CAV3 TNNC1 PRKAG2 ACTC1 TTN CSRP3 MYL2 TNNT2 MYL3 MYO6 TPM1 TNNI3 COX15 MYH6 MYH7 
0.07427224,4.590584,1.442705,9.607,cataract,CATCN1 LIM2 CRYGS EYA1 CRYBB2 CRYBB1 CTAA1 CRYBB3 SLC16A12 PAX6 SORD BFSP1 CTPP CCA1 CRYGD GALK1 MAF PHARC CCT MIP BFSP2 CRYGC DFCTRPS CCV CTPP5 CHMP4B CRYAB FTL CCNP CRYAA CCSSO CTDP1 ARCC1 CRYBA1 GCNT2 CATC2 CRYBA4 BEST1 CAAR GJA3 SIX6 CTAA2 OPA3 GJA8 HSF4 MCOPCT1 PITX3 
0.6213384,5.6859937,-0.43139836,11.3137665,cdeficiency,C8A C8B C2 C4A C3 C4B C5 C6 C7 C9 APOC3 CD8A CD59 
1.1374295,6.8714275,-2.0524907,10.14488,celiac disease,CELIAC2 CELIAC5 CELIAC7 CELIAC6 CELIAC9 CELIAC8 MYO9B CELIAC10 CELIAC11 CELIAC12 CELIAC13 HLA-DQB1 CTLA4 HLA-DQA1 
-1.573603,5.2546163,1.6822615,10.8696785,charcot-marie-tooth disease,YARS EGR2 CMT2G GDAP1 DNM2 CMT2C FIG4 PMP22 GARS MTMR2 RAB7 PRPS1 HSPB8 LITAF HOXD10 HSPB1 NDRG1 CMT2B2 LMNA FGD4 SH3TC2 MPZ MFN2 NEFL CMTDI2 KIF1B SBF2 
0.96329236,6.0078306,0.34914672,10.078648,cholesterol level,EDN1 CETP LPL HDLCQ5 HDLCQ6 PCSK9 HMGCR HDLCQ4 LIPC HDLCQ1 HDLCQ2 PLTP VNN1 CLQTL2 CLQTL1 
-0.5080264,5.0846148,0.6206405,9.778772,ciliary dyskinesia,RSPH4A DNAH5 CILD2 DNAH11 CILD5 RSPH9 CILD4 TXNDC3 KTU CILD8 DNAI1 DNAI2 
3.309336,5.053619,-0.467474,7.915097,colorectal cancer,CRCS6 CRCS7 DCC MLH1 CRCS5 CRCS2 PLA2G2A AXIN2 BRAF MSH2 SMAD7 MLH3 MCC TGFBR2 CRCS8 PDGFRL CRCS9 TLR2 HMPS1 APC PIK3CA DLC1 BUB1B MSH6 BAX TLR4 FGFR3 TP53 CTNNB1 CRCS11 CRCS10 FLCN NRAS CCND1 EP300 CHEK2 AKT1 BUB1 PMS2 PMS1 
0.38100922,3.6885357,0.66981184,11.786666,cone-rod dystrophy,GUCY2D SEMA4A ABCA4 CORD1 CRX CORD8 CORDX CACNA1F RPGR RAXL1 RPGRIP1 RIMS1 PITPNM3 AIPL1 PROM1 
0.055288855,5.9675517,0.17223212,10.473441,convulsions,BFIC GPR98 FEB1 FEB2 GABRG2 BFIC2 FEB5 FEB6 FEB7 FEB9 ICCA BFIC4 FEB10 SCN1A 
0.8580903,4.4231806,1.8942822,9.143752,corneal dystrophy,UBIAD1 KRT3 SLC4A11 TACSTD2 KRT12 PAX6 CDPD1 DCN CDB2 ZEB1 TGFBI COL8A2 VSX1 CHST6 
0.6299525,4.205417,0.92292476,11.20932,deafness,MYO7A CDPD1 GRHL2 POU4F3 DFNA49 DFNA41 DFNB62 DFNB63 DFNB65 DFNB66 MPDMRS DFNA59 DEL15Q15.3 MYH14 DFNB72 DFNA52 DFNA53 TECTA ESRRB JAG1 IGF1 POU3F4 COL2A1 DIAPH1 GJB3 TMIE GJB2 ADFN STRC GJB6 LRTOMT CD151 ACTG1 KIAA1199 PCDH15 PRES ESPN PJVK GATA3 FGF3 TRIOBP DFNB14 DFNM1 DFNB15 DFNB17 CDH23 DFNB13 TMC1 DFNB5 RDX SLC4A11 LHFPL5 PAX3 DFNB26 DFNB27 MYO3A CLDN14 SHFM1D MYH9 DFNB20 DFNA7 TMPRSS3 DFNA16 DFNB38 OTOA DFNA18 DFNB39 NEDE MARVELD2 MYO6 DFNB33 OTOF TIMM8A WHRN EYA4 ATP6B1 ATP2B2 DSPP DFNB47 DFNA27 DFCTRPS MYO1A MYO15A DFNX5 KCNQ4 DFNX4 DFNB40 DFNX3 DFNA21 DFNX1 DFNB44 DFNA24 DFNB45 DFNB46 DFNA5 TRMU COL11A2 OASD SIX1 RPGR USH1C COCH OPA1 DFNA30 DFNB51 SLC17A8 DFNA31 DFNY1 CRYM CCDC50 DFNB55 
-1.1354185,6.070743,0.51707655,10.883508,dementia,APP VCP MAPT CHMP2B PSEN1 TNF ALSFTD1 DJ1 TRPM7 ITM2B SNCA SNCB 
0.82087624,7.561059,-1.8371904,10.799943,diabetes,ACE KCNJ11 ABCC8 AVPR2 PAX4 OAS1 SPINK1 CDKAL1 MAPK8IP1 FOXP3 GCK IL6 IPF1 CAPN10 GPD2 PTF1A EPO FOXC2 HFE PTPN22 ITPR3 RETN AQP2 IDDM20 IDDM21 IDDM23 HNF4A UCP3 IDDMX AKT2 CTLA4 CCR5 NEUROD1 KLF11 SLC30A8 INSR TCF7L2 WFS1 VEGF GCGR CEL IDDM1 IDDM2 IDDM3 PBCA HNF1B IDDM4 IDDM11 HNF1A IL2RA IDDM13 IDDM6 IDDM7 IDDM15 IDDM8 PPARG IDDM17 AVP IDDM18 IDDM19 NIDDM3 NIDDM4 NIDDM2 IRS1 IRS2 SLC2A2 SLC2A4 LIPC GLIS3 ZFP57 ENPP1 SUMO4 PLAGL1 IGF2BP2 MBL2 
0.6853239,7.726419,-1.8846316,11.069575,diabetes mellitus,KCNJ11 ABCC8 PAX4 OAS1 CDKAL1 MAPK8IP1 FOXP3 GCK IPF1 CAPN10 PTF1A FOXC2 RETN IDDM20 IDDM21 IDDM23 HNF4A IDDMX AKT2 CTLA4 CCR5 NEUROD1 SLC30A8 INSR TCF7L2 WFS1 GCGR IDDM1 IDDM2 IDDM3 PBCA HNF1B IDDM4 IDDM11 HNF1A IDDM13 IDDM6 IDDM7 IDDM15 IDDM8 IDDM17 IDDM18 IDDM19 NIDDM3 NIDDM4 NIDDM2 IRS1 IRS2 SLC2A2 SLC2A4 LIPC GLIS3 ZFP57 ENPP1 SUMO4 PLAGL1 IGF2BP2 MBL2 
0.6102606,7.6175766,-2.0139902,10.882943,"diabetes mellitus, type 1",IDDM1 IDDM2 IDDM3 PBCA OAS1 IDDM4 FOXP3 IDDM11 HNF1A IL2RA IDDM13 IDDM6 IDDM7 IDDM15 IDDM8 IDDM17 IDDM18 IDDM19 PTPN22 ITPR3 IDDM20 IDDM21 IDDM23 SUMO4 IDDMX CTLA4 CCR5 
0.8687569,7.8264346,-1.6087773,10.884444,"diabetes mellitus, type 2",SLC30A8 INSR TCF7L2 KCNJ11 WFS1 ABCC8 GCGR PAX4 HNF1B CDKAL1 MAPK8IP1 GCK IPF1 CAPN10 HNF1A GPD2 PPARG NIDDM3 NIDDM4 NIDDM2 IRS1 IRS2 SLC2A2 RETN SLC2A4 LIPC ENPP1 HNF4A UCP3 IGF2BP2 AKT2 NEUROD1 
-0.14787108,4.9516883,1.0483978,9.919719,disorder of glycosylation,DPAGT2 B4GALT1 ALG9 COG8 SLC35C1 COG7 ALG8 SLC35A1 ALG6 ALG3 RTF1 COG1 ALG1 ALG2 ALG12 DPM1 TMEM15 RFT1 MPDU1 
-0.24561799,6.2990246,-0.17142664,10.228755,dystonia,DYT17 GCH1 DYT15 SLC2A1 DYT13 ATP1A3 EPRPDC THAP1 TAF1 ACTB DYT1 SGCE SPR SCP2 DYT7 PRKRA DRD2 DRD5 
1.8772645,4.4422297,0.94486254,8.261016,ectodermal dysplasia,ED1 NFKBIA EDARADD CDH3 GJB6 HVEC IKBKG PKP1 KRT85 EDAR TP63 
-0.14565948,5.300507,1.0688413,9.28382,ehlers-danlos,COL1A2 COL1A1 COL3A1 EDS8 COL5A2 TNXB COL5A1 ADAMTS2 PLOD SLC39A13 B4GALT7 
1.9606726,5.826008,-0.08867571,8.835905,encephalopathy,STXBP1 RANBP2 CDKL5 GLDC ARX AMT GCSH MECP2 MAPK10 ETHE1 SERPINI1 DNM1L SLC19A3 COX10 
-1.224165,4.699932,2.0267396,10.477642,epidermolysis bullosa,DSP COL17A1 KRT5 CD151 LAMA3 MMP1 LAMB3 ITGB4 KRT14 LAMC2 COL7A1 ITGA6 PLEC1 
0.11032008,5.728925,0.18677649,9.791871,epilepsy,CHRNB2 EPM2A GABRA1 STRADA OPRM1 SYN1 EFHC1 NHLRC1 ARHGEF9 CHRNA2 GABRB3 CHRNA4 CNTNAP2 JRK BAFME1 BAFME2 EJM2 EJM3 EJM4 EIG1 EPPS EIG2 EIG3 EIG4 EIG5 SRPX2 FPEVF ME2 FMTLE LGI1 ATP6AP2 EIM EPRPDC KCTD7 GABRG2 CACNB4 ALDH7A1 ETL2 EPOLM KCNQ2 KCNMA1 KCNQ3 SIAT9 CSTB GEFSP6 ARX PRICKLE1 CLN8 PCDH19 ECA1 CLCN2 CACNA1H ENFL2 SLC25A22 GEFSP4 POLG SCN1A SCN1B 
-0.07691025,4.8427157,0.2604987,9.633418,fanconi anemia,FAAP95 XRCC9 FANCI FANCM FANCA BRCA2 FANCC FANCF PALB2 FANCE PHF9 BRIP1 FANCD2 
0.4912599,5.830217,-0.4215091,10.042696,fibrosis,TGFB1 PHOX2A C5 TERT SM2 KIF21A CFM1 SFTPA1 SFTPA2 FEOM3A CFTR FEOM3 
2.9847147,4.9204545,-0.58267933,8.418708,gastric cancer,IL1RN IL1B IRF1 KLF6 APC PIK3CA CASP10 CDH1 ERBB2 MUTYH FGFR2 
1.0006695,5.037053,1.5109242,9.291683,glaucoma,GLC3B GLC1B FOXC1 GLC1C WDR36 JOAG2 LMX1B OPA1 GLC1M GLC1I CYP1B1 MYOC GLC1K GLC1D GLC1F OPTN 
-0.95029193,4.962408,1.5470682,10.013671,glycogen storage disease,G6PC AGL GBE1 GAA PRKAG2 PYGL GYS1 GYS2 PFKM PHKG2 LAMP2 SLC37A4 SLC17A3 
-0.123482816,7.34469,-1.2809603,11.198858,hypertension,PTGIS NOS3 AGT NOS2A CPS1 GNB3 CYP11B2 AGTR1 RFH1 PNMT BMPR2 ACSM3 NPR3 ECE1 RETN NR3C2 CYP3A5 HYT2 HYT3 HYT1 HSD11B2 HYT6 ADD1 HYT7 HYT4 HYT5 KCNMB1 HYT8 HTNB 
1.4615724,5.9145117,-0.9799407,9.614876,hypogonadism,LHCGR LHB TACR3 CHD7 DAX1 NELF LEP FGFR1 LEPR GNRHR KISS1R TAC3 PROK2 GNRH1 SLC29A3 
2.5018396,6.3539314,-1.1612755,9.169203,hypothyroidism,DUOX2 TG NKX2E PAX8 CHNG3 NKX2-1 CTLA4 SLC5A5 TSHR TSHB GLIS3 
0.95263475,4.685353,0.8747295,9.362416,ichthyosis,KRT1 FLG ST14 ICHYN KRT2 AREI CYP4F22 KRT10 CLDN1 LOR STS TGM1 ABCA12 GJB2 INLNE LI5 SNAP29 
1.6623303,4.7515845,1.1537244,8.447429,immunodeficiency,STAT5B AICDA SP110 DNMT3B FOXN1 IL2 NFKBIA PTPRC TNFSF5 CD247 ADA IL7R DCLRE1C MAPBPIP NP TNFRSF13B CD3G IL2RG UNG CD3E CD3D CD79B RAC2 IKBKG NHEJ1 TNFRSF5 RAG1 RAG2 
0.2798434,6.8358493,-0.71355313,10.367176,inflammatory bowel disease,ABCB1 IBD2 IBD3 IBD12 IBD23 IBD6 IBD22 IBD7 IBD21 IBD4 IBD20 IBD5 IBD16 IBD15 IBD26 IBD25 IBD8 IBD24 IBD9 IBD19 IBD18 IRF5 ATG16L1 
-1.1380608,5.9648056,1.0883615,10.608966,lateral sclerosis,DCTN1 DJ1 PLSA1 SOD1 FIG4 ALS7 ALS5 SETX ALS6 VAPB ALS3 ALS2 CHMP2B ANG ALSFTD1 NEFH PRPH TRPM7 TARDBP 
0.0708931,3.7351933,1.0622258,11.707656,leber amaurosis,GUCY2D RD3 CRB1 CRX LCA5 RPE65 SPATA7 LCA9 RPGRIP1 IMPDH1 RDH12 AIPL1 CEP290 
-0.81393707,4.680907,2.105215,9.940774,leigh syndrome,C8ORF38 SURF1 PDHA1 NDUFA2 BCS1L SDHA LRPPRC NDUFS8 NDUFS7 NDUFS4 NDUFS3 COX15 DLD NDUFV1 
2.7697933,5.1749325,-0.9209187,7.757669,leukemia,LMO2 LMO1 PDGFRB RBM15 MKL1 NUP214 ZBTB16 DEK RUNX1 PTPN11 ACSL6 MLF1 ARHGAP26 ETV6 PML IRF1 TCL4 NUP98 TAL2 TAL1 BCL3 BCL2 BAX ATM NF1 RARA HOXD4 TAM ZNF198 CHIC2 RAP1GDS1 GMPS BRCA2 MLL MYB NSD1 NBS1 AF10 WHSC1L1 ARHGEF12 NQO1 STAT5B NPM1 ARNT PBX1 BCR KIT SETBP1 TLX1 TCRA AF1Q TCF3 KRAS2 CEBPA CALM NOTCH1 FLT3 CBFB NUMA1 AMLCR2 IKZF1 LPP FVT1 GATA1 SEPT9 CLLS4 CLLS3 LYL1 TCL1B CLLS2 TCL1A CLLS1 CLLS5 LALL ABL2 ABL1 SH3GL1 JAK2 
-1.5157913,4.306636,2.2511284,10.709194,long qt syndrome,KCNE1 KCNE2 CAV3 KCNQ1 AKAP9 CACNA1C SCN5A SCN4B ANK2 KCNJ2 ALG10 KCNH2 
3.393911,5.184692,-1.0481833,7.999652,lung cancer,TSG11 CHRNA3 CHRNA5 DDX26 MPO BRAF DLEC1 LNCR1 EGFR RASSF1 IRF1 LNCR4 CASP8 LNCR3 CYP2A6 PIK3CA PPP2R1B SLC22A1L ERCC6 MAP3K8 KRAS2 
0.45822945,5.0433,0.4320498,9.165734,lymphoma,ZNF198 IL21R BCL10 PAX5 PRF1 RAD54B FVT1 MALT1 TCL4 TCL1B BCL8 TCL1A BCL7A BCL6 CASP10 RAD54L MYC BCL3 BCL2 ATM TCRA MAD1L1 
0.80383927,3.902383,0.15444362,11.578699,macular degeneration,ABCA4 CX3CR1 HTRA1 LOC387715 RPGR C2 FBLN5 C3 RAXL1 CST3 HF1 CNGB3 HMCN1 APOE ERCC6 TLR4 TLR3 CFB 
-0.27165464,6.948586,-0.9504943,11.075117,malaria,CR1 GYPA GYPC TIRAP SLC4A1 TNF ICAM1 NOS2A NCR3 FY FCGR2B MALS PFBI CD36 
3.6973236,5.455149,-1.0904583,8.154103,melanoma,CMM UVM1 CDKN2A XRCC3 BRAF CMM7 CMM4 STK11 MC1R CDK4 UBM2 SNAI2 NF1 
1.8817849,5.543001,0.19883789,8.588578,mental retardation,KIRREL3 APMR2 CRBN APMR1 CHMRQ2 ZBTB16 UBE2A UPF3B ACSL4 HUWE1 TM4SF2 WSN SLC9A6 AGTR2 BRWD3 ZNF674 MPDMRS SATB2 TUSC3 CTNND2 MRX52 FGD1 MRX50 SRPX2 ZNF81 MRX53 WTS PAK3 ATP6AP2 SMCX CASK AMMECR1 FTSJ1 IGF1 DLG3 MRX42 MRX49 IL1RAPL1 GNAS SMS CDH15 PGS MCPH1 GRIA3 MRXSA ARX FMR2 DOCK8 MRXSL PCDH19 SOX3 AP1S2 MRX1 MRX2 PYCS SYNGAP HBHR SHROOM4 PRSS12 MRXS11 CUL4B MRX23 MRX20 MRXS7 BDMR MRX29 MRXS9 CC2D1A MCS ARHGEF6 NLGN4 KCNK9 POMT1 GRIK2 VLDLR MRT12 MRT11 MRT10 MECP2 PRS MRXS12 MRXSAB MAGT1 ZNF41 MRX14 CAMR MRT4 MRSS MBD5 IGBP1 MRST MRT5 MRT7 ATRX MRX81 MRT8 MRT9 MRX84 ZDHHC15 MRX82 CVMRF RLGP GDI1 ZDHHC9 PHF8 HSD17B10 MRX72 MRX78 MRSD MRX77 RPS6KA3 MRSA OPHN1 DIP2B 
1.5594068,5.160284,1.3813387,8.680193,microcephaly,ARFGEF2 STIL CASK CLAM ASPM SLC25A19 MYCN JAWAD CEMPJ CDK5RAP2 MCPH4 NHEJ1 MCPH1 MCPH2 
-0.0111871,4.317972,0.64880115,8.922633,microphthalmia,CHX10 MCOP1 MCOPCB2 RAX MCOPCB1 CRYBA4 HCCS MCOPS4 MCOPS1 BMP4 MFRP SOX2 SHH SNX3 SIX6 OTX2 MCOPCT1 STRA6 BCOR 
-0.14692067,6.2289095,-0.17322828,10.895712,migraine,CACNA1A MGR12 TNF ATP1A2 ESR1 EDNRA EPOLM MGR5 MGR6 MGR7 MGR8 SCN1A MGR1 MGR2 MGR3 MGR4 
-1.6231803,4.656543,1.9253678,11.1323805,muscular dystrophy,MDC1B FKRP CAV3 COL6A1 COL6A3 COL6A2 LGMD1D TCAP LGMD1F LGMD1G TRIM32 TTID MDRV MYF6 LAMA2 POMT1 DYSF TTN LMNA FSHMD1A SGCG SEPN1 SGCD SGCB LARGE SGCA PABPN1 LGMD2L CAPN3 EMD DMD PLEC1 FKTN 
0.27490747,5.444544,0.02302832,11.139619,myocardial infarction,ACE MIAT ESR1 LRP8 F7 PSMA6 THBD GCLC LGALS2 HF1 TNFSF4 LTA APOE MCI2 GCLM OLR1 
-1.4947534,4.8820357,1.906952,10.892602,myopathy,CAV3 LGMBF TPM3 PGAM2 PUS1 TPM2 MEAX NEB DNM2 CFTD2 DES MYH2 ACTA1 TNNT1 COL6A1 MPD2 MPD3 BIN1 COL6A3 COL6A2 ISCU ITGA7 COL9A3 GNE CRYAB TTID PNPLA2 MYH7 MYF6 CNTN1 VCP RYR1 FHL1 MTMR14 DYSF MHB ATP2A1 LDB3 TTN MTM1 CPT2 CFL2 FLNC WDM 
0.42244688,4.5564775,0.4615782,9.666111,myopia,MYP15 MYP12 MYP10 MYP11 MYP1 MYP2 MYP3 MYP4 MYP16 COL2A1 MYP9 MYP5 MYP6 MYP7 MYP8 
-0.5883036,6.030986,1.250254,10.472581,neuropathy,EGR2 HMNJ SLC12A6 IOSCA GP1BA GJB1 GJB3 GAN WNK1 HMSNO TDP1 PMP22 NMSR GARS BSCL2 DHH CTDP1 HSPB8 SPOAN DCTN1 HSPB1 ELAVL4 NGFB CMTX3 SPTLC1 AUNA1 PRX SCP2 MPZ CMTX2 MFN2 C10ORF2 POLG SNAP29 CCT5 
1.1883324,7.64095,-1.4990735,10.476025,obesity,NTRK2 BMIQ8 BMIQ9 AOMS2 AOMS1 BMIQ7 AKR1C2 SLC6A14 NR0B2 BMIQ10 MC3R POMC LEP PPARG GHRL AGRP SIM1 CART FTO PCSK1 SDC3 UCP2 UCP1 ADRB2 ADRB3 WTS ENPP1 UCP3 MC4R LEPR PPARGC1B 
2.584106,4.392469,0.35021794,8.08603,orofacial cleft,OFC1 OFC2 OFC3 OFC4 SATB2 MTHFR HVEC MTR AOCH L1CAM BMP4 SUMO1 UBB CDH1 TBX22 IRF6 MSX1 HOXA2 TP63 
-0.26580843,4.4121346,0.78635865,9.4396515,osteoporosis,COL1A2 BMND8 COL1A1 CALCR VDR BMND7 CALCA RIL SLC34A1 LRP5 SLC9A3R1 
3.0730379,4.5937996,-0.23590422,7.933762,ovarian cancer,CTNNB1 OVCAS1 BRCA1 BRCA2 ARHI SEPT9 PIK3CA RRAS2 CDH1 ERBB2 ST8 AKT1 OPCML 
3.5919192,5.476895,-0.83633983,7.9673758,pancreatic cancer,ARMET MADH4 STK11 CDKN2A PALLD ST11 BRCA2 RBBP8 ACVR1B TP53 KRAS2 
-0.8946068,5.84572,0.8028908,10.518074,parkinson disease,TBP PRKN ATP13A2 ADH1C LRRK2 DBH HTRA2 DJ1 PARK3 GIGYF2 NR4A2 PINK1 UCHL1 SNCAIP MAPT PARK12 PARK10 FGF20 FBXO7 DRD4 NDUFV2 SNCA 
2.9479566,5.5041747,-0.6080731,8.678503,prostate cancer,MSR1 ZFHX3 ELAC2 HPCQTL19 AR EHBP1 KLF6 HPC3 HPC5 HPC4 HPC7 HPC6 HPC9 MAD1L1 HIP1 HPC11 HPC10 RNASEL PCAP CD82 HPC15 HPC14 HPCX2 PTEN BRCA2 HPCX1 MXI1 CHEK2 EPHB2 MSMB 
1.0133144,6.6774426,-2.1721582,10.062182,psoriasis,PSORS8 PSORS9 PSORS6 PSORS7 IL23R HLA-C PSORS11 PSORS4 PSORS5 PSORS2 PSORS10 PSORS3 
0.26662603,3.9170387,0.6738537,11.510098,retinitis pigmentosa,SEMA4A RDS RP29 RP28 ROM1 USH2A MERTK MFRP RP34 AIPL1 RP32 AXPC1 RP33 NRL PRCD SPATA7 CA4 RP23 RP24 RP22 CNGA1 EYS ABCA4 RPE65 TOPORS PHARC HPRP3 PRPF8 RP2 RP1 DFCTRPS IMPDH1 RP6 FSCN2 SAG PRPF31 RP9 RGR CNGB1 CERKL CRB1 CRX NR2E3 TULP1 RPGR RHO PDE6B RPY PDE6A PROM1 IDH3B 
0.78717273,7.1243796,-2.0502617,10.406758,rheumatoid arthritis,SLC22A4 IL10 STAT4 NFKBIL1 MIF RUNX1 PTPN22 MHC2TA RA IL6 PADI4 HLA-DR1B CD244 
2.9945486,4.470782,-0.07745591,7.9600897,schizophrenia,SCZD10 SCZD11 SCZD12 SCZD13 MTHFR NRG1 DTNBP1 SYN2 DAO CHI3L1 RTN4R SCZD2 CHRNA7 SCZD1 SCZD3 HTR2A SCZD6 SCZD5 SCZD8 COMT SCZD7 DAOA AKT1 DISC1 DRD3 DISC2 APOL2 PRODH APOL1 APOL4 
0.628006,5.162007,0.032298554,9.315504,skin/hair/eye pigmentation,OCA2 SLC24A2 SLC24A5 MC1R KITLG HERC2 SHEP8 SLC45A2 ASIP SHEP11 TYR TPCN2 
-0.6858196,5.5127435,0.9543596,10.504701,spastic paraplegia,SLC33A1 SPG29 NIPA1 CYP7B1 ZFYVE26 KIAA0196 REEP1 PGN SPG28 PLP1 SPG27 PNPLA6 SPG26 SPG25 SPG24 BSCL2 SPG3A SPG19 SPG9 SPOAN HSPD1 KIF5A SPAST ZFYVE27 SPG16 SPG37 SPG14 SPG35 SPG12 SPG34 SPG11 CCT5 
-0.49369127,5.5195494,0.90529734,10.065897,spinocerebellar ataxia,PLEKHG4 TBP SCAR3 PRKCG SCAR2 SCAR5 IOSCA SCAR4 SCAR7 SCA15 SCAR6 SCA19 ATXN10 TDP1 SCAX1 FGF14 SCAX5 CABC1 SCA23 SCA8 SCA25 SCA4 KCNC3 CACNA1A SCA29 SCA28 SYNE1 PPP2R2B TTBK2 ITPR1 ATXN2 ATXN7 C10ORF2 POLG ATXN1 SPTBN2 SCA20 
0.28542274,5.037565,0.29862404,8.986797,stature,MRSS STQTL1 STQTL2 STQTL3 STQTL4 STQTL5 STQTL6 STQTL7 STQTL8 SHOXY GH1 STQTL13 GHR STQTL12 STQTL15 STQTL14 LHX4 STQTL17 STQTL16 STQTL9 SHOX GHSR STQTL11 STQTL10 
0.26998964,6.9996767,-1.1323617,10.801882,systemic lupus erythematosus,CR1 CR2 SLEB13 STAT4 SLEB12 FCGR2B CD4 BANK1 DNASE1 SLEB8 IRF5 TNFSF6 SLEB7 PDCD1 TLR5 SLEH1 SLEN3 SLEB4 PTPN22 SLEB3 SLEB5 ITGAM C4A SLEB1 FCGR3A TREX1 SLEN2 SLEN1 
0.036307402,5.3672557,0.11074507,10.772773,thrombophilia,PROC FGB THBD FGG PROS1 HCF2 PLAT PLG HRG PAI1 F5 
2.6144414,6.1381583,-0.9484421,8.878773,thyroid carcinoma,RET NTRK1 NDUFA13 NCOA4 PTEN NMTC1 TSHR PTCPRN MINPP1 NRAS GOLGA5 PCM1 PRKAR1A HRAS TRIM33 TCO TRIM24 
0.5804133,4.5539627,0.5753877,11.099948,usher syndrome,USH3A WHRN SANS USH1H CDH23 PCDH15 GPR98 USH1E MYO7A USH2A USH1C 
-0.40752545,4.800969,1.1013671,9.8630905,zellweger syndrome,ABCD3 PEX5 PXMP3 PEX1 PEX10 PEX3 PEX13 PXF PEX14 ACAA1 PEX26 PEX16 
