x,y,x,y,Name,Genes
18.096783,3.186108,6.7363095,6.6594195,1-cysPrx C,PRDX4 PRDX3 PRDX6 PRDX2 PRDX1 
16.201174,4.604487,7.806394,6.705835,14-3-3,YWHAG YWHAE YWHAB YWHAQ SFN YWHAZ YWHAH 
16.644909,-0.46211526,8.674284,7.3041916,2OG-FeII Oxy 2,ALKBH3 ALKBH6 ALKBH5 ALKBH2 ALKBH1 ALKBH8 ALKBH7 
14.100162,3.8049169,4.846904,10.587119,2OG-FeII Oxy 3,EGLN2 EGLN1 P4HA1 EGLN3 P4HA2 P4HA3 OGFOD3 P3H3 P3H2 P4HTM P3H1 
17.49584,4.2200074,5.8423824,11.671268,4HBT,THEM4 ACOT11 ACOT12 ACOT13 THEM5 ACOT7L ACOT7 
14.928957,-0.75168425,9.496101,8.818039,A2M BRD,C4B C5 PZP OVOS1 CPAMD8 CD109 OVOS2 A2M A2ML1 C4B_2 C4A C3 
17.013113,-0.0031423438,9.541132,10.935283,A2M recep,C4B C5 PZP OVOS1 CPAMD8 CD109 OVOS2 A2M A2ML1 C4B_2 C4A C3 
16.768747,4.0212708,5.497696,7.1282063,AAA,ATAD2 NSF ATAD1 RFC4 RFC5 RFC2 ATAD5 IQCA1L RFC1 PEX1 KATNA1 ATAD3A NAV3 WRNIP1 ATAD3C BCS1L ATAD3B AFG3L2 PSMC6 PSMC4 KATNAL2 PSMC5 PSMC2 PSMC3 KATNAL1 PEX6 YME1L1 PSMC1 TRIP13 IQCA1 NVL VCP VPS4A VPS4B FIGN SPG7 SPATA5 ATAD2B CHTF18 SPAST SPATA5L1 ORC1 FIGNL2 FIGNL1 LONP2 LONP1 
17.364618,3.953194,8.864035,11.665355,AAA 6,DNAH14 DYNC2H1 DNAH5 DNAH12 DNAH2 DNAH11 DNAH3 DNAH8 DNAH9 DNAH17 DNAH6 DNAH7 DNHD1 DNAH10 DNAH1 DYNC1H1 
17.176529,-0.24172434,6.1628437,7.0635066,AAA 8,DNAH14 DYNC2H1 DNAH5 DNAH12 DNAH2 DNAH11 DNAH3 DNAH8 DNAH9 DNAH17 DNAH6 DNAH7 DNHD1 DNAH10 DNAH1 DYNC1H1 
17.49573,3.458979,6.441679,12.208415,AAA 9,DNAH14 DYNC2H1 DNAH5 DNAH2 DNAH11 DNAH3 DNAH8 DNAH9 DNAH17 DNAH6 DNAH7 DNAH10 DNAH1 DYNC1H1 
16.915607,4.485976,5.694922,7.0583177,AA permease C,SLC7A14 SLC7A1 SLC7A2 SLC7A3 SLC7A4 
14.093111,3.247117,8.682103,8.255582,ABC tran,ABCC4 ABCG8 ABCC5 ABCC2 ABCC3 ABCC8 ABCC9 ABCC6 TAP2 TAP1 ABCA10 ABCA12 ABCC10 ABCG1 ABCG4 ABCC1 ABCG5 ABCG2 ABCB4 ABCB1 ABCB7 ABCB8 ABCB5 ABCB6 ABCB9 ABCF3 ABCF1 ABCF2 ABCA2 ABCA3 ABCA1 ABCA6 ABCA7 ABCA4 ABCA5 ABCA8 ABCA9 ABCB10 ABCB11 ABCA11P CFTR ABCE1 ABCD3 ABCD4 ABCA13 ABCC11 ABCC12 ABCD1 ABCD2 
18.467333,2.7582772,4.936064,8.08529,ACBP,ACBD7 ACBD6 ACBD5 ECI2 DBI ACBD4 ACBD3 
16.9842,3.7712805,8.171718,7.303403,ADH N,MECR ADH1C ADH1B ADH1A SORD ADH6 ADH7 VAT1 CRYZ ADH4 ADH5 ZADH2 TP53I3 RTN4IP1 VAT1L 
12.929559,2.0068822,8.595261,7.7788954,AIG1,GIMAP1 GIMAP2 GIMAP4 GIMAP5 GIMAP6 GIMAP7 GIMAP8 GIMD1 
18.234962,1.8987199,9.67026,10.558244,AMP-binding C,SLC27A2 SLC27A1 ACSS3 ACSM4 ACSM3 ACSL1 ACSM1 ACSM2A ACSM2B ACSM5 ACSF3 ACSF2 ACSS2 SLC27A4 SLC27A3 ACSS1 SLC27A6 SLC27A5 
17.949148,1.4774214,9.153075,11.323237,ANATO,C4B C5 FBLN2 C4B_2 C4A C3 
16.675634,4.475873,7.083919,6.767445,ARID,KDM5B KDM5C KDM5D ARID5A ARID5B ARID4A ARID3A ARID4B ARID3B ARID1A ARID3C ARID1B JARID2 KDM5A ARID2 
16.354328,-0.24384908,9.563342,10.842937,ATP-gua Ptrans,CKMT2 CKM CKMT1B CKMT1A CKB 
18.181608,3.046441,9.111975,8.383362,ATP-gua PtransN,CKMT2 CKM CKMT1B CKMT1A CKB 
17.72734,1.7118224,4.6099524,10.088655,ATP-synt ab,ATP6V1A ATP5F1A ATP5F1B ATP6V1B1 ATP6V1B2 
18.307856,2.2144709,9.790159,9.838827,ATP-synt ab N,ATP6V1A ATP5F1A ATP5F1B ATP6V1B1 ATP6V1B2 
17.545923,3.5544174,9.365445,11.138242,AWS,NSD1 NSD2 NSD3 ASH1L SETD2 
17.98305,3.6647666,7.7194066,6.8756356,A deaminase,ADAL AMPD1 AMPD2 AMPD3 ADA ADA2 
13.244934,2.3522406,7.0430274,12.118688,Abhydrolase 1,ABHD1 ABHD5 ABHD4 ABHD3 ABHD2 EPHX2 EPHX4 ABHD8 ABHD6 BPHL LIPA SERHL LIPF LIPK ABHD16B ABHD10 ABHD16A LIPN SERHL2 LIPM MEST SPG21 
17.198458,4.252293,7.647081,12.193383,Abhydrolase 3,AADACL3 AADACL4 NCEH1 LIPE AFMID AADAC AADACL2 
17.862919,2.9208083,8.408306,11.881158,Abhydrolase 6,ABHD11 PPME1 EPHX3 ABHD14B ABHD14A 
17.841976,0.5796142,8.791304,7.260099,Activin recp,ACVR1 BMPR2 AMHR2 TGFBR1 ACVR1B ACVR2B BMPR1A ACVR2A BMPR1B 
17.460205,-0.09699047,8.74529,11.697952,Acyl-CoA dh 1,ACAD9 ACAD8 ACOXL ACADVL ACADM ACADL IVD ACAD10 ACADSB ACAD11 ACADS GCDH 
17.483732,3.3323462,8.92265,11.670775,Acyl-CoA dh M,ACAD9 ACAD8 ACADVL ACADSB ACOXL ACADM ACOX3 ACADL ACOX2 ACOX1 IVD ACAD10 ACAD11 ACADS GCDH 
18.409388,1.7478362,9.147416,11.236989,Acyl-CoA dh N,ACAD9 ACAD8 ACADVL ACADM ACADL IVD ACAD10 ACADSB ACAD11 ACADS GCDH 
17.434402,0.6835725,5.1486707,7.733299,AhpC-TSA,PRDX4 PRDX3 PRDX6 PRDX2 PRDX1 
15.092106,-0.7470486,9.657301,9.293857,AlbA 2,SLFN13 SLFN14 SLFN11 SLFN12 SLFN5 SLFNL1 SLFN12L 
16.616056,3.8569703,8.7465315,11.606629,Aldo ket red,AKR1D1 AKR1E2 AKR1B1 AKR1C2 AKR1C1 AKR1C4 KCNAB1 AKR1C3 AKR1A1 KCNAB2 KCNAB3 AKR7L AKR7A2 AKR7A3 AKR1B15 AKR1C8P AKR1B10 GCLM 
17.842022,1.9430268,4.5264683,8.467692,Alpha-amylase,AMY2A AMY2B AMY1A AMY1B AMY1C GBE1 SLC3A1 SLC3A2 
18.272549,1.1995058,9.148348,11.45289,Alpha-amylase C,AMY2A AMY2B AMY1A AMY1B AMY1C GBE1 
15.473702,-0.7004368,9.204447,8.878614,Alpha-mann mid,MAN2A2 MAN2C1 MAN2B2 MAN2A1 MAN2B1 
13.0305605,2.1083171,4.721537,8.878364,Alpha adaptinC2,GGA3 GGA2 AP1G1 AP1G2 AP2B1 AP1B1 AP2A2 AP2A1 GGA1 
13.390182,2.7886264,5.046044,8.79962,Amidohydro 1,DPYSL2 GDA DPYSL5 CAD AMDHD1 DPYS AMDHD2 DPYSL3 DPYSL4 CRMP1 
13.865324,3.3747103,8.015642,11.886671,Amino oxidase,IL4I1 KDM1A KDM1B SMOX RNLS MAOB PYROXD2 MAOA PAOX PPOX 
12.681782,1.2472497,9.704481,9.9211035,Aminotran 1 2,GOT1L1 ALAS2 AADAT GOT2 ALAS1 GOT1 KYAT1 GPT2 TAT ACCSL GPT ACCS GCAT SPTLC1 SPTLC2 SPTLC3 KYAT3 
17.497536,0.22897874,5.3685594,10.984267,Aminotran 3,OAT PHYKPL AGXT2 ABAT ETNPPL 
13.895561,-0.4353319,5.851819,7.123335,Aminotran 5,NFS1 PSAT1 MOCOS KYNU SCLY AGXT 
13.846837,3.4764662,5.7881017,11.269271,An peroxidase,DUOX1 DUOX2 TPO PXDN PXDNL MPO LPO EPX PTGS1 PTGS2 
14.046007,-0.5346012,8.214501,11.850239,Anticodon 1,VARS LARS2 LARS IARS IARS2 VARS2 
15.883973,4.428166,8.9706335,11.399197,Arf,ARL11 ARL10 ARL15 ARL16 ARL14 ARL17A ARL4D ARL4C ARL8A ARL4A ARL8B ARF6 ARF4 ARF5 ARL9 SAR1A ARF3 SAR1B ARL6 ARF1 ARL2 ARL3 ARL1 ARL17B ARL5C ARFRP1 ARL13A ARL13B ARL5A ARL5B TRIM23 
17.620543,3.1044257,8.477047,11.74097,ArfGap,ARAP3 ARAP1 ARAP2 ADAP2 ADAP1 ARFGAP2 ARFGAP3 ARFGAP1 SMAP1 ACAP3 ACAP2 AGAP6 AGAP9 SMAP2 AGAP7P AGAP11 AGAP3 AGAP2 ASAP2 AGAP5 ASAP3 AGAP4 ACAP1 AGAP1 ASAP1 AGFG1 GIT2 AGFG2 GIT1 
13.20977,2.4712079,6.3323245,11.818072,Arfaptin,ICA1L PICK1 ARFIP2 ARFIP1 ICA1 
12.971078,0.23142941,9.234184,11.261903,ArgoL1,PIWIL2 AGO4 AGO2 AGO3 AGO1 PIWIL1 
15.00886,4.2534447,4.867553,9.80806,Arrestin C,ARRDC5 ARRDC1 ARRB1 ARRDC2 ARRDC3 ARRDC4 TXNIP SAG ARRB2 ARR3 
16.041988,-0.65080076,9.347287,9.030632,Arrestin N,ARRDC5 ARRDC1 ARRB1 ARRDC2 ARRDC3 ARRDC4 TXNIP SAG ARRB2 ARR3 
14.377926,-0.4631602,7.0180764,11.985489,Astacin,BMP1 MEP1B ASTL MEP1A TLL2 TLL1 
13.42182,2.2515168,4.7011685,9.504842,Atg8,MAP1LC3A GABARAP GABARAPL3 GABARAPL2 MAP1LC3C GABARAPL1 MAP1LC3B MAP1LC3B2 
16.41086,-0.4329583,5.552901,7.733954,BAAT C,ACOT2 ACOT1 ACOT6 BAAT ACOT4 
18.03773,2.3929906,6.260733,11.926761,BACK,KLHL26 BTBD19 KLHL28 BTBD17 KLHL29 KLHL2 BTBD6 KLHL22 KLHL23 KLHL3 KLHL4 KLHL24 KLHL5 KLHL25 BTBD7 BTBD9 KLHL20 KBTBD12 KLHL21 KLHL1 KBTBD4 KBTBD6 KBTBD7 KLHL6 KLHL7 KLHL8 KBTBD2 KLHL9 KBTBD3 KBTBD8 IVNS1ABP KLHL38 KEAP1 KLHL33 IPP KLHL34 KLHL35 KLHL36 KLHL30 KLHL31 KLHL32 CCIN KLHL40 KLHL41 KLHL42 GAN KLHL15 KLHL17 KLHL18 LGALS3BP KLHL11 KLHL12 KLHL13 KLHL14 GMCL1 KLHL10 BTBD2 BTBD1 ENC1 BTBD3 
17.366459,1.2202362,7.233707,11.9175005,BAH,BAHCC1 MTA1 RERE MTA2 BAHD1 PBRM1 ORC1 TNRC18 ASH1L MTA3 DNMT1 
14.680133,-0.6697893,5.836825,11.177556,BAR,SH3GLB2 BARGIN SH3GLB1 ARHGAP17 ARHGAP44 DNMBP BIN3 SH3BP1 BIN2 BIN1 SH3GL1 AMPH SH3GL3 SH3GL2 
17.997398,2.4837027,8.77283,11.548531,BEN,NACC1 NACC2 BEND4 BEND5 BEND2 BEND3 BEND6 BANP BEND7 
16.614927,-0.03659396,9.011422,11.353873,BIR,XIAP BIRC5 BIRC6 BIRC7 BIRC8 BIRC2 NAIP BIRC3 
15.09367,-0.5756325,4.9423847,10.300744,BRICHOS,SFTPC GKN2 GKN1 TNMD ITM2A ITM2B GKN3P ITM2C CNMD BRICD5 
17.824064,1.6794498,8.851586,11.815523,BRK,CHD9 CHD8 CHD7 SMARCA2 SMARCA4 
17.40088,1.8667816,5.7661157,11.338834,BRO1,BROX RHPN2 RHPN1 RHPN2P1 PTPN23 PDCD6IP 
15.279021,4.126606,4.9508104,9.50669,BTB,ZBTB18 KLHL26 BTBD18 BTBD19 ZBTB14 ZBTB17 ANKFY1 KLHL28 ZBTB16 BTBD17 KLHL29 BTBD6 KLHL22 ZBTB11 KLHL23 ZBTB10 KLHL24 BTBD8 KLHL25 BTBD7 ZBTB12 BTBD11 BTBD9 KLHL20 HIC2 KLHL21 HIC1 LZTR1 IVNS1ABP ZBTB26 ZBTB25 KLHL38 KEAP1 ZBTB22 IPP KLHL34 ZBTB21 KLHL35 ZBTB24 KLHL36 BACH1 KLHL30 BACH2 KLHL31 ZBTB20 KLHL32 SLX4 NACC1 NACC2 SPOP ZBTB7A IBTK ABTB2 ABTB1 ZBTB8B ZBTB8A ZNF131 KLHL15 KLHL17 KLHL18 ZBTB2 KLHL11 KLHL12 ZBTB1 KLHL13 KLHL14 ZBTB6 ZBTB5 GMCL1 RHOBTB1 RCBTB1 ZBTB4 RHOBTB2 RCBTB2 GMCL2 KLHL10 RHOBTB3 ZBTB3 BTBD2 BTBD1 BTBD3 ZBTB7C ZBTB7B PATZ1 KLHL2 KLHL3 KLHL4 KLHL5 KBTBD12 KBTBD11 KLHL1 KBTBD4 ZBTB9 KBTBD6 KBTBD7 KLHL6 KLHL7 BCL6 KLHL8 KBTBD2 KLHL9 KBTBD3 BCL6B SPOPL KBTBD8 MYNN KBTBD13 CCIN ZBTB37 ZBTB39 ZBTB38 ZBTB33 ZBTB32 ZBTB34 KLHL40 KLHL41 GAN GZF1 ZBTB48 ZBTB47 ZBTB49 ZBTB44 ZBTB43 ZBTB46 ZBTB45 ZBTB40 ZBTB42 ZBTB41 ENC1 
14.520915,4.0693393,6.259279,11.373793,BTB 2,KCNF1 KCNB1 KCNB2 KCNRG KCNS1 KCNS2 KCNS3 KCNG1 KCNG2 KCNG3 KCNG4 KCNC1 KCNC2 KCNC3 KCNC4 TNFAIP1 KCND1 KCND2 KCND3 KCTD1 KCTD2 KCTD3 KCTD4 KCTD5 KCTD6 KCTD7 KCTD8 KCTD9 KCTD10 KCTD11 SHKBP1 KCTD14 KCNA10 KCTD15 KCTD12 KCTD13 KCTD18 KCTD19 KCTD16 KCTD17 KCNA1 KCNA2 KCNA3 KCNA4 KCNA5 KCNA6 KCNA7 KCNV1 KCNV2 KCTD21 
17.47966,2.519956,8.240279,11.965505,Band 3 cyto,SLC4A8 SLC4A9 SLC4A1 SLC4A2 SLC4A3 SLC4A10 SLC4A4 SLC4A5 SLC4A7 
17.827572,2.5699143,8.911384,8.449664,Biotin carb C,PC PCCA MCCC1 ACACB ACACA 
17.650023,0.9110463,8.765207,11.379012,Biotin carb N,PC PCCA MCCC1 ACACB ACACA 
16.232927,-0.5373827,8.755229,11.285087,Biotin lipoyl,PC DBT PCCA MCCC1 PDHX DLST DLAT ACACB ACACA 
15.818027,-0.6463287,7.730951,11.956349,Brix,IMP4 PPAN BRIX1 RPF1 RPF2 
14.401489,3.133256,8.234297,11.525792,Bromodomain,BPTF ATAD2 BRD4 CREBBP BRD3 BRPF1 BRD2 BRD1 BRPF3 PBRM1 ASH1L BAZ1A BAZ1B SMARCA2 SMARCA4 TAF1 KAT2B KAT2A PHIP ZMYND11 BRWD1 SP140L TRIM33 BRWD3 BRDT ZMYND8 BAZ2A BAZ2B ATAD2B TAF1L CECR2 EP300 SP140 BRD9 BRD8 TRIM66 BRD7 TRIM24 
17.824352,1.6282831,6.8815722,11.635442,C1-set,TAPBP AZGP1 HLA-DRA IGHE HLA-DQB1 IGHD HLA-DQB2 HFE SIRPB1 TRBC1 IGKC TRBC2 TRDC B2M HLA-DOB IGHA2 MICA MICB HLA-DQA2 HLA-DOA IGHA1 HLA-DQA1 HLA-DRB5 IGLC6 IGLC7 HLA-C NCR3LG1 MR1 HLA-A HLA-B HLA-G HLA-H HLA-E HLA-F IGLL5 IGLL1 HLA-DPB1 HLA-DRB4 HLA-DRB3 HLA-DRB1 IGHM HHLA2 SIRPG TAPBPL CD1E CD1D CD1C CD1B CD1A IGHG4 TRGC1 TRGC2 FCGRT HLA-DMB IGHG2 IGHG3 IGHG1 SIRPA HLA-DPA1 IGLC2 IGLC3 HLA-DMA IGLC1 
16.81014,2.370231,8.5613985,11.13726,C1 1,UNC13C UNC13A UNC13B CDC42BPG ARHGAP29 BRAF CDC42BPB DEF8 CDC42BPA VAV1 VAV2 VAV3 RAF1 DGKH DGKG DGKE DGKD DGKB DGKA ARAF RACGAP1 PRKCH PRKCG PRKCI PRKCD STAC PRKCE PRKCB PRKCA DGKZ PRKCZ STAC2 DGKQ STAC3 PRKD1 PRKD3 PRKCQ PRKD2 DGKK DGKI ARHGEF28 RASGRP3 RASGRP2 RASGRP4 RASGRP1 RASSF5 CHN2 CHN1 PDZD8 
14.23837,-0.5285453,8.515837,11.363998,C1q,CBLN1 C1QL1 ADIPOQ C1QL4 C1QTNF9B C1QL3 OTOL1 C1QL2 MMRN2 MMRN1 CAPRIN2 COL8A1 COL8A2 CBLN4 CBLN3 CBLN2 C1QC C1QB C1QA C1QTNF5 C1QTNF4 C1QTNF3 C1QTNF2 C1QTNF9 C1QTNF8 C1QTNF7 C1QTNF6 COL10A1 EMILIN2 EMILIN1 C1QTNF1 
15.353494,-0.42620838,7.9487987,11.465392,C2,UNC13C PLCL1 UNC13D UNC13A UNC13B PLCL2 SYTL2 SYTL1 RPGRIP1L SYTL5 TC2N SYTL4 SYTL3 TOLLIP PLCD1 PLCD4 PLCD3 CPNE9 CPNE6 CPNE5 CPNE8 CEP120 CPNE7 HECW1 SYT14P1 RAB11FIP1 RAB11FIP2 CAPN6 CPNE2 PLCE1 CPNE1 CPNE4 CPNE3 RAB11FIP5 FER1L4 SYT6 PRKCH SYT5 PRKCG SYT4 FER1L6 SYT3 FER1L5 SYT2 PLA2G4E PLA2G4F SYT1 PLA2G4D PRKCE PLA2G4A PLA2G4B PRKCB PRKCA SYT9 SYT8 SYT7 BCR HECW2 DOC2B DOC2A ITSN1 ITSN2 NEDD4L PRF1 RIMS3 ABR RIMS2 RGS3 RIMS4 RIMS1 PLCG1 PLCG2 RPH3A RASA4B PLCH1 SMURF2 SMURF1 MYOF BAIAP3 RASA1 RPGRIP1 RASA4 RASA2 RASA3 PLCH2 CC2D1A CC2D1B MCTP1 MCTP2 C2CD5 C2CD3 C2CD2 RASAL1 C2CD4C RASAL2 C2CD4D PLCZ1 CCDC33 CC2D2A OTOF WWP1 SYT17 SYT16 SYT15 SYT14 ITCH DAB2IP PLCB4 SYT13 ESYT1 SYT12 SYT11 SYT10 ESYT3 ESYT2 PLCB2 PLCB3 DYSF PIK3C2G PIK3C2B PIK3C2A PCLO SYNGAP1 
17.66413,1.322205,7.5185313,11.788859,C2-set 2,CADM4 KIRREL2 CADM2 SIGLEC14 MCAM CADM3 KIRREL1 CRTAM CADM1 BTN1A1 PDCD1LG2 CD200R1 BCAM NPHS1 MAG SIGLEC1 NECTIN1 NECTIN4 NECTIN3 CD22 NECTIN2 CD274 CD80 PVR AGER ALCAM TMEM25 CD200R1L 
17.361746,0.911331,8.510774,11.435183,C4,COL4A1 COL4A3 COL4A2 COL4A5 COL4A4 COL4A6 
13.575918,-0.1640992,8.22995,11.42288,C8,MUC5B VWF MUC19 ZAN MUC5AC FCGBP OTOGL MUC2 BMPER SSPO OTOG MUC6 TECTA 
16.189226,-0.2897072,7.834248,12.047451,CAMSAP CH,CAMSAP1 VAV1 VAV2 CAMSAP2 VAV3 CAMSAP3 
17.182268,0.56741536,8.556487,11.404378,CAP,CRISP2 CRISP3 GLIPR1L1 CRISP1 R3HDML CLEC18C CLEC18B CLEC18A GLIPR2 GLIPR1 CRISPLD2 CRISPLD1 PI16 PI15 GLIPR1L2 
13.659306,2.6601994,8.309439,11.863921,CAP GLY,CLIP4 CLIP3 CLIP2 CYLD CLIP1 KIF13B TBCE CEP350 DCTN1 TBCB 
17.963678,0.86369,5.3527737,10.647301,CARD,CARD10 CARD11 APAF1 CARD9 CRADD CARD8 CARD6 CARD18 CARD16 CARD17 CARD14 BIRC2 BIRC3 NOL3 BCL10 NOD1 NOD2 NLRC4 PYCARD CASP9 CASP12 CASP4 CASP5 CASP2 RIPK2 NLRP1 CASP1 
16.64257,0.43000418,5.4442143,7.614225,CBFD NFYB HMF,CHRAC1 DR1 NFYB NFYC POLE3 POLE4 DRAP1 
13.620391,2.5515516,6.2181373,11.369704,CBM 21,PPP1R3G PPP1R3D PPP1R3C PPP1R3F PPP1R3E PPP1R3B PPP1R3A 
13.987965,2.433736,5.123752,10.78951,CBS,PRKAG2 CBSL PRKAG3 CLCNKB CLCNKA PRKAG1 CLCN4 CLCN3 CLCN7 CLCN6 CBS CNNM1 CLCN5 CNNM2 IMPDH1 IMPDH2 CNNM3 CNNM4 
17.521427,1.6582905,5.5458536,8.455175,CENP-B N,TIGD4 TIGD3 TIGD6 JRK TIGD5 TIGD7 JRKL CENPBD1 CENPB TIGD2 TIGD1 
17.303993,0.5625541,8.010261,7.5236273,CENP-T C,HIST1H4L HIST2H4B HIST1H4A HIST2H4A HIST1H4B HIST1H4C HIST4H4 HIST1H4H HIST1H4I HIST1H4J HIST1H4K HIST1H4D HIST1H4E HIST1H4F CENPT 
13.818371,2.5937274,8.0386,11.747696,CH,ACTN4 ACTN3 ACTN2 ACTN1 MICAL3 NAV2 PARVB NAV3 LMO7 SPTB PARVA LRCH1 LRCH3 LRCH2 LCP1 EHBP1L1 PARVG GAS2 PLEC LRCH4 UTRN ARHGEF6 ARHGEF7 SPTBN4 SPTBN5 TAGLN IQGAP1 IQGAP2 IQGAP3 MICALL1 MICALL2 FLNA FLNB FLNC GAS2L2 GAS2L3 SPTBN1 SPTBN2 GAS2L1 SPECC1 LIMCH1 DST ASPM EHBP1 SMTN SPECC1L TAGLN2 TAGLN3 MAPRE2 MAPRE3 SMTNL1 MAPRE1 SMTNL2 MACF1 SYNE1 DIXDC1 SYNE2 CNN3 CNN2 CNN1 CLMN MICAL2 MICAL1 DMD PLS1 PLS3 
14.43575,3.686458,8.289244,11.543803,CHCH,CHCHD5 NDUFA8 CHCHD4 COX19 CHCHD10 CHCHD1 CHCHD2 
14.388647,3.260506,7.0482993,7.2592893,CIDE-N,DFFB DFFA CIDEB CIDEC CIDEA 
16.011501,-0.27804342,7.5784364,11.802455,CLTH,RMND5A RMND5B GID8 MAEA RANBP9 RANBP10 
13.979322,2.5979338,6.0410523,11.447439,COMM domain,COMMD9 COMMD10 COMMD3 COMMD4 COMMD1 COMMD2 COMMD7 COMMD8 COMMD5 COMMD6 
14.72741,3.6818087,7.903354,11.686079,COesterase,ACHE CES1 BCHE NLGN2 NLGN4X NLGN3 NLGN4Y NLGN1 CES1P1 CEL CES5A CES4A TG CES3 CES2 
15.084661,3.7665625,5.85217,10.9869995,CPSase L D2,PC CAD CPS1 PCCA MCCC1 ACACB ACACA 
17.478226,1.4093003,8.176,11.340195,CRAL TRIO,TRIO MOSPD2 KALRN RLBP1 SEC14L3 SEC14L4 SEC14L1 SEC14L2 SEC14L5 TTPA SEC14L6 PTPN9 TTPAL CLVS1 CLVS2 
15.680458,-0.014092929,7.1079082,7.0324345,CRAL TRIO 2,ARHGAP8 MCF2L2 MCF2L MCF2 BNIP2 PRUNE2 NF1 SESTD1 ARHGAP1 ATCAY GDAP2 BNIPL 
14.320436,-0.35193768,8.617166,11.392842,CRAL TRIO N,SEC14L1 SEC14L5 TTPA TTPAL CLVS1 RLBP1 CLVS2 
13.669782,2.542106,8.0013275,11.473484,CS,NUDC CYB5R4 NUDCD3 CHORDC1 NUDCD2 DNAAF4 PTGES3 NUDCD1 SUGT1 CACYBP ITGB1BP2 USP19 
15.523604,-0.14661844,8.411725,11.372415,CSD,LIN28A LIN28B CSDC2 YBX1 CSDE1 YBX3 YBX2 CARHSP1 
14.04448,3.114982,6.7122035,11.644373,CTP transf like,PCYT1A PCYT1B NMNAT2 PCYT2 NMNAT1 NMNAT3 COASY 
16.850504,0.34359494,6.134455,8.207231,CUB,CUBN ATRNL1 OVCH2 ST14 OVCH1 KREMEN2 PCOLCE KREMEN1 DCBLD1 DCBLD2 TMPRSS15 SEZ6L ATRN MFRP CDCP2 BMP1 TLL2 MASP2 TLL1 PCOLCE2 MEGF8 LRP10 LRP12 NRP1 NRP2 C1R MASP1 C1S TMPRSS7 TNFAIP6 PDGFC LRP3 SEZ6L2 SEZ6 CUZD1 SCUBE3 SCUBE1 SCUBE2 NETO2 NETO1 ADGRG6 DMBT1 PDGFD C1RL PAMR1 CSMD3 CSMD2 CSMD1 
16.158422,1.2361914,6.6752186,7.4677987,CUT,CUX2 ONECUT3 SATB1 SATB2 CUX1 ONECUT1 ONECUT2 
15.3777275,-0.23867576,6.620733,11.412068,Ca chan IQ,CACNA1A CACNA1S CACNA1C CACNA1B CACNA1E CACNA1D CACNA1F 
15.228229,3.9277573,7.054439,11.797493,Cadherin,PCDH8 PCDH20 PCDH9 PCDHA13 PCDHA12 PCDHA11 PCDHA10 PCDHGA10 PCDHGA11 PCDHGA12 PCDHB3 PCDHB2 PCDHB1 PCDHB7 PCDHB6 PCDHB5 DCHS2 DCHS1 PCDHB4 DSC1 DSC2 DSC3 PCDHB9 PCDHB8 CELSR1 CELSR2 CELSR3 CDH9 CDH8 CDH7 CDH6 CDH5 CDH4 CDH3 CDH2 CDH1 CDHR1 CDH10 CDH11 CDHR2 FAT1 CDHR3 CDH12 CDH13 CDHR4 FAT2 FAT3 FAT4 CDH15 CDH16 CDH17 CDH18 CDH19 PCDHB18P CLSTN3 PCDH12 PCDH10 CLSTN1 PCDH11X CLSTN2 PCDH11Y PCDH15 PCDH19 PCDH18 PCDH17 PCDHAC1 CDH20 PCDHA2 PCDHA1 CDH22 CDH23 CDH24 PCDHA6 PCDHA5 CDH26 PCDHA4 PCDHA3 PCDHA9 PCDHA8 PCDHA7 PCDHAC2 PCDHGA9 PCDHGA8 PCDHGA7 PCDHGA6 PCDHGA5 PCDHGA4 PCDHGA3 PCDHGA2 PCDHGB2 DSG1 PCDHGB1 DSG2 DSG3 DSG4 RET PCDHGA1 PCDHGC5 PCDHGC4 PCDHB16 PCDHB15 PCDHB14 PCDHB13 PCDHB12 PCDHB11 PCDHB10 PCDHGB7 PCDHGB6 PCDHGB5 PCDHGB4 PCDHGB3 PCDHGC3 PCDH7 PCDH1 
14.572657,-0.3034907,6.993159,11.555031,Cadherin 2,PCDHGA9 PCDHGA8 PCDHGA7 PCDHGA6 PCDHGA5 PCDHGA4 PCDH8 PCDHGA3 PCDH9 PCDHGA2 PCDHA13 PCDHA12 PCDHA11 PCDHA10 PCDHGA10 PCDHGA11 PCDHGA12 PCDHB3 PCDHB2 PCDHB1 PCDHGB2 PCDHB7 PCDHGB1 PCDHB6 PCDHB5 PCDHB4 PCDHB9 PCDHB8 PCDHGA1 PCDHGC5 PCDHGC4 PCDHB16 PCDHB15 PCDHB14 PCDHB13 PCDHB12 PCDHB11 PCDHB10 PCDHGB7 PCDHB18P PCDHGB6 PCDH12 PCDHGB5 PCDH10 PCDH11X PCDHGB4 PCDH11Y PCDHGB3 PCDH19 PCDH18 PCDH17 PCDHAC1 PCDHA2 PCDHA1 PCDHA6 PCDHGC3 PCDH7 PCDHA5 PCDHA4 PCDHA3 PCDHA9 PCDHA8 PCDHA7 PCDHAC2 PCDH1 
15.620699,-0.35447678,6.485303,11.385411,Cadherin pro,CDH4 CDH2 CDH1 CDH13 DSC1 DSC2 DSC3 
15.723305,-0.1588792,6.624418,11.312377,Calpain III,CAPN14 CAPN12 CAPN9 CAPN13 CAPN10 CAPN7 CAPN8 CAPN11 CAPN5 CAPN6 CAPN3 CAPN1 CAPN2 
15.883885,-0.16186482,6.18264,7.5455093,Calx-beta,FRAS1 ADGRV1 ITGB4 FREM1 FREM2 SLC8A1 SLC8A2 FREM3 SLC8A3 
16.890333,-0.13177386,7.812813,11.702438,Carb anhydrase,CA13 CA12 CA11 CA10 CA5BP1 PTPRG CA2 CA1 CA4 PTPRZ1 CA5B CA3 CA5A CA6 CA8 CA7 CA9 CA14 
16.452898,0.2298914,6.432505,11.586775,Cation ATPase N,ATP2B4 ATP1A4 ATP2A3 ATP2A2 ATP1A3 ATP2B3 ATP2B2 ATP1A2 ATP2A1 ATP1A1 ATP2C2 ATP2B1 ATP2C1 ATP12A ATP4A ATP13A5 ATP13A3 ATP13A4 
14.609476,2.9905138,7.2419147,11.922028,Chromo,CBX8 CBX7 CBX6 CBX5 CBX4 CBX3 CBX2 CBX1 CDYL CDYL2 CDY2A CDY2B MPHOSPH8 SUV39H2 CHD9 SUV39H1 CHD8 CDY1 CHD7 CHD6 CHD5 CHD4 CHD3 CHD2 CHD1 CDY1B 
15.996659,0.1404245,5.7079477,10.299647,Clat adaptor s,AP1S1 ARCN1 COPZ2 COPZ1 AP4M1 AP3M2 AP1S3 AP3S1 AP2S1 AP1S2 AP4S1 AP3S2 AP3M1 AP1M2 AP2M1 
16.978031,1.1683016,5.0139666,8.40681,CobW C,CBWD6 CBWD5 CBWD3 CBWD2 CBWD1 
15.395557,-0.27291983,5.4684935,10.449549,Cofilin ADF,GMFB DBNL GMFG CFL2 DSTN CFL1 COTL1 TWF2 TWF1 DBN1 
16.998735,1.0397975,6.574288,11.1903925,Crystall,CRYBG1 CRYBG3 CRYGS CRYBG2 CRYGN CRYBB2 CRYBA1 CRYBB1 CRYBA2 CRYBB3 CRYBA4 CRYGD CRYGB CRYGC CRYGA 
14.027538,2.7711558,5.354021,8.6464405,Cu-oxidase 3,F8 HEPH HEPHL1 CP F5 
14.878,-0.432181,7.165851,11.455422,Cullin Nedd8,CUL4B CUL4A CUL5 CUL3 CUL2 CUL1 
14.659225,-0.21283418,7.228983,11.497552,Cyclin C,CCNJL CCNK CCNJ CCNF CCNA2 CCNB3 CCNA1 CCNB2 CCND3 CCNB1 CCND2 CCNE2 CCND1 CCNE1 CCNL2 CCNL1 CCNO 
16.607653,0.16050683,5.7844877,10.639228,Cyclin N,CCNJL CNTD2 CCNYL1 CABLES1 CABLES2 CCNA2 CCNA1 CCNE2 CCNY CCNE1 CCNG2 CCNG1 CCNYL3 CCNI2 CCNQ CCNO CCNK CCNT2 CCNJ CCNI CCNT1 CCNH CCNF CCNC CCNB3 CCNB2 CCND3 CCNB1 CCND2 CCND1 CCNL2 CCNL1 
14.677947,3.626822,6.5173755,7.0302305,Cys knot,LHB CGB8 FSHB CGB7 CGB5 CGB3 CGB2 WISP1 CGB1 CYR61 WISP3 CTGF NDP CCN3 GPHB5 TSHB 
14.907536,-0.16366202,7.2647724,11.451361,Cystatin,CST9L CSTB CSTA AHSG CST9LP1 CST8 CST7 CST6 KNG1 CST5 CST4 CST3 CST2 CST1 CST11 FETUB HRG CSTL1 
17.007196,0.19600797,5.1889668,9.793648,Cyt-b5,CYB5B NENF FADS2P1 CYB5D1 PGRMC1 SUOX CYB5A CYB5D2 FA2H FADS3 PGRMC2 CYB5R4 HERC2 FADS2 FADS1 
14.635815,-0.44702074,6.2475414,11.175067,DAN,GREM2 GREM1 NBL1 DAND5 CER1 
16.138468,0.120997876,7.1978135,11.380972,DAO,DAO PDPR DMGDH PIPOX GPD2 SARDH L2HGDH FOXRED1 DDO 
15.925819,0.50960624,5.7677712,10.9802885,DDE Tnp 1 7,PGBD2 PGBD3 PGBD4 PGBD5 CSB-PGBD3 PGBD1 
17.064629,0.9140808,5.0408335,10.131391,DEAD,HFM1 RECQL DDX31 DHX40 DDX19A DDX19B DDX39A DDX39B DDX49 DDX3X DDX3Y DHX9 DDX47 YTHDC2 DDX46 DDX43 DDX41 DDX42 DHX30 DHX33 DHX36 DHX37 DHX38 ASCC3 DDX18 HELQ DDX17 DDX58 DDX59 DDX56 POLQ DDX54 DDX10 DDX55 TDRD9 DDX52 DDX53 DDX50 DDX51 TDRD12 DHX29 SKIV2L SNRNP200 EIF4A3 EIF4A2 DDX27 DDX6 EIF4A1 BLM DDX28 DDX5 DDX25 DDX4 DDX23 DDX1 DDX24 DDX21 DDX60L DDX20 DDX60 RECQL5 RECQL4 WRN DHX57 DHX15 DHX16 MTREX 
15.0640135,-0.23680662,6.102584,8.2708645,DED,CASP8 CASP10 CFLAR PEA15 FADD DEDD2 DEDD 
17.538055,2.1422164,5.1250534,8.694142,DEP,PLEK PLEK2 PREX2 RGS6 GPR155 DEPDC7 DEPDC1B PIKFYVE DVL1 PREX1 DVL2 DVL3 RGS11 RAPGEF3 DEPDC1 RGS9 DEPTOR DEPDC5 RGS7 RAPGEF4 DEPDC4 DVL1P1 
16.61219,0.8165451,5.8492413,10.620872,DMAP binding,GNPTAB DIP2A DIP2B DIP2C DNMT1 
15.152696,0.053586196,5.7199006,8.077025,DNA pol A exo1,EXD2 EXD3 EXOSC10 WRN EXD1 
16.522514,2.319693,5.3893614,8.58254,DOMON,MOXD1 FRRS1 DBH FRRS1L MOXD2P 
15.776104,0.08160034,6.0391827,7.7948937,DSPc,DUSP5 EPM2A DUSP6 TPTE2 RNGTT DUSP3 DUSP4 DUSP1 DUSP2 DUSP27 DUSP9 SSH3 DUSP28 DUPD1 SSH1 DUSP7 DUSP8 DUSP26 SSH2 DUSP23 PTP4A3 DUSP21 DUSP22 PTP4A1 CDC14A PTEN DUSP18 DUSP19 TPTE DUSP16 PTPDC1 DUSP14 CDC14B DUSP15 STYXL1 CDC14C DUSP12 DUSP13 DUSP10 DUSP11 PTPMT1 STYX 
14.675688,-0.0768411,7.6619453,11.670249,DTC,DTX3L DTX1 DTX2 DTX3 DTX4 
16.460447,0.9483594,7.9458227,11.469914,DUF1041,CADPS2 UNC13C UNC13A UNC13B CADPS 
17.199743,1.2812946,6.6313167,7.365606,DUF1899,CORO2A CORO7 CORO6 CORO1A CORO2B CORO1B CORO1C 
16.629932,3.6144767,5.557282,10.489752,DUF3398,DOCK7 DOCK11 DOCK6 DOCK10 DOCK9 DOCK8 
16.346943,1.1357652,5.316998,10.3703,DUF3585,EHBP1 MICALL1 EHBP1L1 MICALL2 MICAL1 MICAL3 MICALCL C16ORF45 
16.474054,0.6840321,5.4259205,9.310301,DUSP,USP15 USP32 USP33 USP11 USP4 USP20 
16.691832,0.7476063,7.5320034,7.1560273,DZF,ZFR2 ZFR STRBP ILF2 ILF3 
16.618084,0.47873706,5.6610727,9.370907,Death,NGFR EDARADD UNC5B DAPK1 UNC5C UNC5CL CRADD UNC5A THOC1 UNC5D ANK3 TNFRSF10B TNFRSF10A ANK1 NFKB1 ANK2 TNFRSF1A NFKB2 MYD88 TNFRSF21 FAS TNFRSF25 DTHD1 TRADD TNFRSF11B IRAK2 IRAK3 IRAK1 FADD RIPK1 PIDD1 
17.144552,2.0459108,5.003022,9.90719,Defensin 1,DEFA5 DEFA6 DEFA3 DEFA4 DEFA1B DEFA1 
16.940212,0.9861828,6.933321,11.679459,Defensin beta,DEFB103B DEFB103A DEFB130A DEFB130B DEFB4B DEFB1 DEFB4A 
17.1431,2.537237,7.8814263,7.829969,Defensin beta 2,DEFB104A DEFB104B DEFB119 DEFB118 DEFB116 DEFB114 DEFB135 DEFB113 DEFB134 DEFB112 DEFB108C DEFB133 DEFB106A DEFB106B DEFB132 DEFB110 DEFB108A DEFB108B DEFB105B DEFB131A DEFB131B DEFB129 DEFB128 DEFB127 DEFB126 DEFB125 DEFB124 DEFB123 DEFB107B DEFB121 DEFB105A DEFB107A 
16.839481,1.6321057,5.526879,9.480443,Dimer Tnp hAT,ZMYM1 ZBED1 ZBED6 ZNF862 ZBED4 THAP12 
17.11089,3.9010117,5.2074847,9.421119,Disintegrin,ADAM12 ADAM23 ADAM33 ADAM22 ADAM11 ADAM21 ADAM10 ADAM32 ADAM20 ADAM30 ADAM2 ADAM19 ADAM18 ADAM29 ADAM28 ADAM17 ADAM7 ADAM15 ADAM9 ADAM8 
17.151257,3.033189,6.1310163,7.470192,DnaJ,DNAJC5B DNAJB13 DNAJC12 DNAJB14 DNAJC13 DNAJC14 DNAJC16 DNAJC17 DNAJC18 DNAJC19 DNAJC4 DNAJA2 DNAJA1 DNAJC3 DNAJC2 DNAJC1 DNAJC30 DNAJC8 DNAJC7 DNAJB11 DNAJC10 DNAJC6 DNAJA4 DNAJC11 DNAJC5 DNAJB12 DNAJA3 DNAJC9 DNAJC24 DNAJC25 DNAJC27 DNAJC28 DNAJB3 DNAJB2 DNAJB1 DNAJB7 DNAJB6 DNAJC21 DNAJB5 DNAJC22 DNAJB4 DNAJC5G DNAJB9 DNAJB8 SEC63 
16.88178,3.3005924,5.4476957,10.154045,DnaJ C,DNAJA2 DNAJA1 DNAJB1 DNAJB11 DNAJB5 DNAJA4 DNAJA3 DNAJB4 DNAJB13 
17.57826,2.1683202,6.6724844,7.797335,Dynamin N,MX1 MX2 NUGGC SRL DNM1 DNM2 EHD1 DNM3 EHD2 EHD3 EHD4 OPA1 MFN2 MFN1 DNM1L 
15.469876,2.3296983,7.792487,9.0607605,Dynein heavy,DNAH5 DYNC2H1 DNAH2 DNAH12 DNAH11 DNAH3 DNAH8 DNAH17 DNAH9 DNAH6 DNAH7 DNHD1 DNAH10 DNAH1 DYNC1H1 
13.297174,2.3355207,8.290426,10.840083,E2F CC-MB,E2F1 E2F2 E2F3 E2F4 E2F5 E2F6 
14.958975,3.4936922,7.487494,7.4968357,E2F TDP,TFDP1 TFDP2 TFDP3 E2F1 E2F2 E2F3 E2F4 E2F5 E2F6 E2F7 E2F8 
15.481074,3.8258867,6.3162527,8.077987,ECH 1,ECI1 ECH1 ECI2 CDY1 EHHADH CDYL ECHS1 CDYL2 AUH HADHA CDY2A ECHDC1 CDY2B ECHDC2 CDY1B ECHDC3 
13.258918,0.2914784,8.374438,10.148268,EF-hand 1,S100G HPCA S100A1 NCALD CABP4 S100B CABP2 HPCAL4 DUOX1 DUOX2 NCS1 VSNL1 S100A11 
13.394656,0.8409851,8.600946,9.447409,EF-hand 2,DTNA DTNB DMD UTRN DYTN DRP2 
14.843155,-0.46423537,8.990743,8.604983,EF-hand 3,DTNA DTNB DMD UTRN DYTN DRP2 
16.371794,4.2397523,5.1886544,9.686727,EF-hand 5,NECAB3 FKBP10 PRKCSH USP32 PDCD6 GUCA1B RASGRP3 SCGN FKBP9P1 RCN2 MYL7 RCN3 RCN1 CAPN3 SDF4 CALU CHP2 PLCD4 SLC25A23 MICU1 FKBP7 
16.486147,1.6022187,8.427884,7.7538977,EF-hand 6,SRI MYL12B MYL5 MYL6 MYL12A CALB1 MYLPF CALB2 MYL1 MYL2 MYL10 EFHD2 NOX5 PEF1 MYL9 
15.867289,3.934955,7.142953,7.849545,EF-hand 7,KCNIP1 KCNIP2 KCNIP3 KCNIP4 HPCAL1 HPCAL4 LCP1 RCN1 GPD2 VSNL1 OCM CALM2 CALM3 CALM1 CAPS MCFD2 HPCA CETN1 CALML6 CETN2 DGKB CETN3 PDCD6 CIB4 CIB3 CALML3 NCALD CIB2 CALML4 CIB1 CALML5 EFCAB11 CRACR2A CALB1 CALB2 CHP2 CHP1 CALN1 PPEF1 RCVRN DST TNNC1 TNNC2 PPP2R3A PPP2R3B NUCB1 NUCB2 PEF1 EFHB PPEF2 OCM2 PVALB MACF1 CABP7 CAPSL RASEF FKBP14 CABP5 LPCAT2 GUCA1C GUCA1B CABP4 CABP1 EFCAB6 EFCAB7 CABP2 RASGRP2 GUCA1A PVALEF SCGN PPP3R1 PPP3R2 EFCAB1 NCS1 SDF4 SLC25A24 PLS1 P4HTM SPTAN1 RHBDL3 SLC25A23 EFHD1 PLS3 SLC25A25 
16.398426,0.45381588,6.6087794,8.024435,EF-hand 8,KCNIP1 RCVRN KCNIP2 GCA KCNIP3 TNNC1 TNNC2 KCNIP4 ACTN2 HPCAL1 MYL7 RCN3 CAPN11 CALU NOX5 MICU3 MYL9 MICU2 MICU1 RYR2 NECAB2 RYR1 CALML6 NECAB1 SRI GUCA1C LPCAT1 EFCAB6 EFCAB11 GUCA1A CAPN9 CAPNS2 CAPNS1 EFCAB3 CAPN3 CAPN1 CAPN2 NINL SLC25A25 
16.75589,1.3267323,7.449045,7.576825,EF-hand like,PLCL1 PLCB4 PLCH1 PLCL2 PLCZ1 PLCE1 PLCD1 PLCH2 PLCD4 PLCB2 PLCB3 PLCB1 
12.770815,0.6361439,9.628794,10.482182,EFG C,GFM2 GFM1 EFL1 GUF1 EEF2 EFTUD2 
13.035968,0.6070628,9.141519,10.611374,EFhand Ca insen,SPTA1 ACTN4 ACTN3 ACTN2 ACTN1 SPTAN1 
15.334915,3.6193173,7.1079173,8.276445,EGF,EGF EGFL8 F10 F12 HEG1 NRG1 NOTCH2NLB NOTCH2NLA LRP1B NOTCH2NLC VCAN NRG4 MMRN1 VWA2 AGRN FBLN7 CELSR1 PROS1 NRXN1 PROZ NRXN3 CELSR2 DLL1 CELSR3 DLL3 DLL4 SLIT2 SLIT1 MALRD1 SLIT3 PAMR1 HGFAC HABP2 EYS CUBN JAG1 JAG2 SELE DLK1 VASN DLK2 F7 PROC BCAN HSPG2 F9 FAT1 FAT2 MEP1A HBEGF MFGE8 SNED1 NOTCH3 CRB2 NOTCH4 CRB1 NOTCH1 NOTCH2 NCAN PLAT LTBP2 PTGS1 PTGS2 EGFLAM DNER SVEP1 EDIL3 
16.240702,3.8692322,8.264166,8.185074,EGF 2,ITGB1 ATRNL1 EGFL7 TENM4 ITGB6 TNXB ITGB4 ITGB3 ADAM11 TNC ADAM22 TNR ITGBL1 ITGB8 ITGB7 
14.139924,2.556055,7.0867543,9.1842165,EGF 3,SCUBE3 CUBN NELL1 SCUBE1 SCUBE2 NID1 STAB1 STAB2 UMOD NID2 MEGF8 THBS2 
17.30284,3.0869625,7.5387506,11.415891,EGF CA,EGFL6 EGF EGFL8 EGFL7 NPNT HEG1 NOTCH2NLB NOTCH2NLA LRP1B NOTCH2NLC BMP1 CRELD1 CRELD2 MEGF8 GAS6 ADGRL4 FBN3 FBLN7 NID1 LRP2 LRP1 PROS1 VWCE FBLN2 UMOD FBLN1 VLDLR NID2 FBLN5 SCUBE3 ADGRE2 COMP ADGRE3 SCUBE1 SCUBE2 ADGRE1 HMCN1 HMCN2 LDLR ADGRE4P CD97 CUBN JAG1 CCBE1 JAG2 SUSD1 CD93 NELL2 NELL1 MATN2 FAT4 TLL2 MASP2 TLL1 UMODL1 FBN1 FBN2 NOTCH3 NOTCH4 NOTCH1 NOTCH2 MEGF6 LTBP3 LTBP4 THBS3 LTBP1 LTBP2 THBS2 THBS4 EFEMP1 THBD TPO EFEMP2 CRTAC1 SVEP1 
15.592027,3.7205186,7.3963876,7.9619083,EMI,EGFL8 EGFL7 MMRN2 MMRN1 COL26A1 EMILIN3 EMILIN2 EMILIN1 EMID1 
16.150946,0.7618586,5.201502,9.025957,EMP24 GP25L,TMED10 TMED9 TMED4 TMED3 TMED2 TMED1 TMED7 TMED6 TMED5 
17.727663,2.8684015,7.8554325,8.148753,ENTH,TEPSIN ENTHD1 CLINT1 EPN1 EPN2 EPN3 
13.033462,0.16472456,8.725016,11.156618,ERAP1 C,ENPEP ANPEP ERAP1 LVRN ERAP2 LNPEP TRHDE NPEPPS 
16.6126,3.273431,7.915345,8.38095,ERCC4,EME1 ERCC4 EME2 FANCM MUS81 
14.856122,3.1749725,7.8379803,8.534766,Endonuclease NS,ENDOG ENPP1 ENPP3 ENDOD1 ENPP2 EXOG 
13.544535,2.2440605,9.272937,10.105708,EphA2 TM,EPHA6 EPHA5 EPHB6 EPHA8 EPHA7 EPHA10 EPHB1 EPHA2 EPHB3 EPHB2 EPHA1 EPHA4 EPHB4 EPHA3 
16.184988,1.8941224,5.4005322,8.129687,Ephrin,EFNA2 EFNB3 EFNA1 EFNB2 EFNA4 EFNA3 EFNB1 EFNA5 
13.18036,0.92738205,9.163164,9.546643,Ephrin lbd,EPHA6 EPHA5 EPHB6 EPHA8 EPHA7 EPHA10 EPHB1 EPHA2 EPHB3 EPHB2 EPHA1 EPHA4 EPHB4 EPHA3 
13.788745,2.2868323,5.991157,10.156427,EpoR lig-bind,CRLF1 GHR PRLR MPL EPOR 
16.516727,2.8925304,6.247635,10.780625,Ets,ETV1 ETV2 ETV3 ETV4 ETV5 FLI1 ETV6 ETV7 ELF1 ELF2 ELF3 ELF4 ELF5 FEV ERG ERF SPI1 EHF ETS1 ELK1 ETV3L ETS2 ELK3 ELK4 SPIC SPDEF SPIB GABPA 
15.777344,3.6579213,5.9056396,9.508358,Exo endo phos,CNOT6L ANGEL2 OCRL INPPL1 INPP5D CNOT6 INPP5A INPP5B DNASE1 SYNJ2 SYNJ1 NOCT INPP5E APEX2 SMPD2 PDE12 TDP2 APEX1 INPP5K ANGEL1 INPP5J DNASE1L3 DNASE1L1 DNASE1L2 
14.197229,2.567105,7.2791324,8.758218,F-box,KDM2A KDM2B FBXO28 FBXO2 FBXL18 CCNF FBXO27 FBXL19 FBXO38 FBXO36 FBXO47 FBXO22 FBXL15 FBXO5 FBXO4 FBXL4 
13.90764,1.9608754,8.439422,8.610421,F-box-like,FBXW5 FBXW4 FBXW7 ECT2L FBXW9 FBXW11 FBXW12 FBXW8 FBXO3 FBXO17 FBXO39 FBXO15 FBXO16 FBXL17 FBXL14 FBXO33 FBXO11 FBXO31 FBXL12 FBXW2 FBXO10 FBXL2 FBXL3 FBXL6 FBXL5 FBXL8 FBXL7 FBH1 FBXO48 FBXO24 FBXO46 FBXO44 FBXO45 FBXO42 FBXL21P FBXO41 FBXL22 FBXL20 FBXO7 FBXO6 FBXO9 FBXO8 BTRC SKP2 
14.023725,2.667284,6.0464044,8.844473,F5 F8 type C,DDR2 CNTNAP4 NRP1 NRP2 CNTNAP3 DDR1 CNTNAP2 CNTNAP1 AEBP1 DCBLD1 BTBD9 F5 RS1 DCBLD2 HSPB11 F8 CNTNAP3B SSPO CPXM2 CPXM1 EDIL3 MFGE8 CNTNAP5 
16.963923,1.4038011,8.09559,8.048494,FAD binding 1,MTRR POR NOS3 NOS1 NOS2 NDOR1 
14.303221,2.735652,6.957104,7.8897047,FAD binding 6,CYB5R3 CYB5R2 CYB5R4 CYB5RL CYB5R1 
16.358534,2.9042444,6.7395577,10.075002,FAD binding 8,DUOX1 DUOX2 NOX4 NOX5 CYBB NOX1 NOX3 
15.764151,0.47172675,7.7113442,8.13308,FA desaturase,FADS3 FADS6 SCD5 DEGS2 FADS2P1 DEGS1 FADS2 FADS1 
16.153969,1.0569917,6.101058,8.505436,FERM C,MYLIP FARP2 RDX MSN FRMD4B PTPN13 PTPN14 FARP1 FRMD3 FRMD5 FRMD6 FRMD7 FRMD4A NF2 EZR PTPN3 PTPN4 EPB41 FRMPD2 PTPN21 EPB41L5 EPB41L4B EPB41L4A EPB41L1 EPB41L2 EPB41L3 
15.826651,1.3242753,7.18535,7.620987,FERM M,MYLIP FARP2 RDX MSN MYO10 FRMD4B MYO7A PTPN13 MYO7B FRMD8P1 PTPN14 FRMD1 FARP1 FRMD3 PTK2 FERMT1 FRMD5 FERMT2 FRMD6 FRMD7 FRMD8 FRMD4A MYO15A NF2 TLN2 TLN1 EZR PTPN3 FERMT3 PTPN4 FRMPD1 PLEKHH3 EPB41 FRMPD4 FRMPD2 FRMPD3 PTPN21 EPB41L5 EPB41L4B EPB41L4A EPB41L1 EPB41L2 EPB41L3 PTK2B KRIT1 PLEKHH1 PLEKHH2 
14.360637,0.05835084,8.7016945,10.917361,FERM N,MYLIP FARP2 RDX MSN FRMD4B PTPN13 PTPN14 FRMD1 FARP1 FRMD3 FRMD5 FRMD6 FRMD7 FRMD4A NF2 TLN2 TLN1 EZR PTPN3 PTPN4 EPB41 FRMPD2 PTPN21 EPB41L5 EPB41L4B EPB41L4A EPB41L1 EPB41L2 EPB41L3 
15.850776,0.915624,7.4932046,8.17647,FGF,FGF1 FGF2 FGF3 FGF4 FGF5 FGF6 FGF18 FGF17 FGF7 FGF16 FGF8 FGF9 FGF19 FGF21 FGF10 FGF20 FGF14 FGF13 FGF23 FGF12 FGF22 FGF11 
16.836594,1.9508982,5.8916583,10.18132,FGGY C,GK5 GK3P FGGY GK GK2 XYLB 
15.38796,0.16217491,7.970806,7.9238234,FGGY N,GK3P GK5 FGGY GK SHPK GK2 XYLB 
16.377575,1.6282742,6.2181344,7.7017584,FKBP C,FKBP11 FKBP3 FKBP10 FKBP2 FKBP15 FKBP14 AIP FKBP1B FKBP9P1 FKBP1A FKBP9 FKBP8 AIPL1 FKBP5 FKBP4 FKBP7 FKBP6 
16.449398,0.57786477,6.427535,8.523979,FOLN,SPARC FST SPARCL1 FSTL1 FSTL3 
16.537487,0.9621369,6.105232,9.250779,FYVE,ANKFY1 ZFYVE21 RBSN ZFYVE26 RUFY2 RUFY1 ZFYVE19 ZFYVE16 HGS PIKFYVE WDFY2 WDFY1 WDFY3 MTMR3 PLEKHF1 MTMR4 PLEKHF2 ZFYVE9 ZFYVE1 FGD1 FGD2 FGD3 EEA1 FGD4 FGD5 FYCO1 ZFYVE27 FGD6 ZFYVE28 
16.187428,0.38134268,6.4960914,7.8845773,FerB,FER1L4 FER1L6 FER1L5 MYOF DYSF OTOF 
15.759761,0.19859229,5.6193075,9.603951,FerI,FER1L4 FER1L6 MYOF DYSF OTOF 
16.255333,0.8852942,6.2618375,10.865094,Ferritin,FTHL17 FTMT FTH1 FTH1P19 FTL 
16.554834,1.871516,7.276016,8.203961,Fibrinogen C,FCN2 FCN3 FGB ANGPT4 TNXB FGG ANGPT2 ANGPT1 FGL1 FIBCD1 FGL2 TNC TNN ANGPTL7 MFAP4 TNR ANGPTL4 ANGPTL3 ANGPTL6 ANGPTL5 FGA ANGPTL2 ANGPTL1 FCN1 
16.17264,1.5088137,7.628266,7.9904723,Filamin,AREL1 KDELC2 TRIM3 KDELC1 TRIM71 FLNA FLNB TRIM2 FLNC TRIM45 
15.059706,3.328071,7.4222765,8.308602,Flavodoxin 1,MTRR POR NOS3 TYW1 NOS1 NOS2 TYW1B NDOR1 
17.188547,1.5277282,6.594553,8.618125,Folate rec,RTBDN HHIP HHIPL2 IZUMO1R FOLR3 FOLR2 FOLR1 HHIPL1 
16.07523,0.5528765,5.6631694,9.993372,Forkhead,FOXD4 FOXD3 FOXD2 FOXD1 FOXH1 FOXL2 FOXL1 FOXP4 FOXP3 FOXP2 FOXP1 FOXD4L6 FOXD4L1 FOXD4L4 FOXD4L5 FOXD4L3 FOXC2 FOXC1 FOXG1 FOXO6 FOXK2 FOXK1 FOXO4 FOXO3 FOXO1 FOXS1 FOXB2 FOXB1 FOXF2 FOXF1 FOXJ3 FOXJ2 FOXJ1 FOXN4 FOXN3 FOXN2 FOXN1 FOXR2 FOXR1 FOXA3 FOXA2 FOXA1 FOXE3 FOXE1 FOXI3 FOXI2 FOXI1 FOXM1 FOXQ1 
16.450832,1.6268431,6.802998,7.8999023,Furin-like,INSR INSRR ERBB4 ERBB2 ERBB3 EGFR IGF1R 
16.725378,1.7977829,6.0991488,10.789041,Fz,COL18A1 FZD2 FZD1 FZD4 FZD3 FZD6 FZD5 FZD8 FZD7 FZD9 FZD10 CPZ SFRP1 SFRP4 SFRP5 FRZB SFRP2 MFRP SMO ROR2 MUSK ROR1 CORIN 
15.267556,0.10633063,5.574363,10.114696,G-alpha,GNAI1 GNAI2 GNAI3 GNAL GNA14 GNA15 GNAT3 GNA11 GNA12 GNAO1 GNA13 GNAQ GNAS GNAT1 GNAT2 GNAZ 
17.00272,2.436325,5.6520267,8.590724,G-gamma,GNG13 GNG12 GNGT2 GNG2 GNGT1 RGS6 GNG11 GNG4 GNG10 GNG3 GNG5 GNG8 GNG7 RGS11 RGS9 RGS7 
17.087395,2.1171498,5.7718873,8.855094,GAF,PDE10A PDE2A PDE6C PDE5A PDE6B PDE6A PDE11A 
16.734259,2.2210405,6.053922,8.9815,GAIN,ADGRE3 CELSR1 ADGRB3 ADGRB1 ADGRB2 ADGRL1 ADGRL2 CELSR2 CELSR3 ADGRL3 ADGRL4 
16.541626,1.4647783,5.2034354,9.00655,GAT,TOM1L2 GGA3 GGA2 TOM1L1 TOM1 GGA1 
16.052895,3.3789942,5.82736,9.82527,GATA,RERE GATAD2A TRPS1 GATA6 GATA5 ZGLP1 GATA4 GATA3 GATA2 GATA1 GATAD2B MTA1 MTA2 MTA3 
16.985804,1.9403543,7.5564747,11.497315,GATase,CAD CPS1 GMPS CTPS2 CTPS1 
17.201653,2.728417,7.8415165,8.345723,GBP,GBP7 GBP6 ATL2 ATL3 ATL1 GBP1 GBP3 GBP2 GBP5 RNF112 GBP4 
14.348993,2.7517061,6.211724,10.246235,GBP C,GBP7 GBP6 ATL2 ATL3 GBP1 GBP3 GBP2 GBP5 GBP4 
16.036533,2.3132427,6.870466,8.185638,GCP C terminal,TUBGCP2 TUBGCP3 TUBGCP6 TUBGCP4 TUBGCP5 
16.361698,2.5783126,5.694731,8.625223,GDNF,GFRAL GAS1 GFRA2 GFRA1 GFRA4 GFRA3 
16.11944,2.6977596,5.909879,10.084541,GF recep IV,ERBB4 ERBB2 ERBB3 PCSK6 EGFR PCSK5 
16.528427,2.480762,5.881112,9.881191,GLTP,GLTPD2 GLTP PLEKHA8P1 CPTP PLEKHA8 
16.217415,1.7555306,6.26439,8.349246,GRAM,MTMR1 MTMR2 GRAMD1C GRAMD1B TBC1D9B GRAMD1A TBC1D8B GRAMD2B WBP2 GRAMD2A TBC1D9 GRAMD4 MTM1 WBP2NL TBC1D8 SBF2 NSMAF SBF1 
16.59595,2.285539,5.7693043,8.846318,GST C,GSTM5 GSTM3 GSTM2 VARS GSTT4 GSTT2 EPRS GSTT1 AIMP2 MARS EEF1G GSTA1 GSTT2B EEF1E1 
16.700075,2.8432164,7.541307,8.49483,GST C 3,GSTZ1 GSTM4 HPGDS GSTM1 GSTA5 GSTA4 GSTA3 GSTO1 GSTA2 GSTP1 
16.011547,3.3698971,6.521935,8.391417,GST N,GSTM5 GSTM4 GSTM3 GSTM2 GSTM1 GSTP1 GSTT2 HPGDS GSTA5 GSTA4 GSTA3 GSTA2 EEF1G GSTA1 GSTT2B 
16.403254,2.1157508,5.608307,9.020368,GST N 3,GSTZ1 CLIC5 PTGES2 GDAP1L1 GSTO2 GSTO1 GSTT4 GSTT1 GDAP1 CLIC3 
16.468794,3.6104996,6.6737967,8.763346,GTP EFTU,EIF5B TUFM EEFSEC GFM2 GFM1 EIF2S3B EFL1 HBS1L MTIF2 EEF2 EIF2S3 GTPBP2 GSPT2 EFTUD2 GSPT1 EEF1A2 EEF1A1 GTPBP1 GUF1 EEF1A1P5 
14.904028,2.8911033,5.414768,9.245715,GTP EFTU D2,EIF5B TUFM GFM2 GFM1 EIF2S3B HBS1L EEF2 EIF2S3 GSPT2 EFTUD2 GSPT1 EEF1A2 EEF1A1 GUF1 EEF1A1P5 
15.800535,2.2959526,6.176885,9.314698,GTP EFTU D3,EEF1A2 TUFM EEF1A1 HBS1L EEF1A1P5 GSPT2 GSPT1 
16.849497,1.7695394,6.2704463,9.74393,Gal-bind lectin,GRIFIN LGALS16 LGALSL LGALS9B LGALS7B LGALS9C LGALS4 LGALS3 LGALS2 LGALS1 LGALS12 LGALS14 LGALS13 CLC LGALS9 LGALS8 LGALS7 
16.926037,3.0348523,6.5071635,10.614892,Gal Lectin,EVA1C ADGRL1 PKD1L2 ADGRL2 ADGRL3 
16.295668,3.530439,8.648063,11.0689125,Gasdermin,GSDME GSDMD GSDMC GSDMB GSDMA PJVK 
16.530926,3.1550076,6.661326,11.150169,Gelsolin,GSN SEC24A SEC23B SEC24C SVIL SEC24B SEC23A FLII AVIL CAPG SCIN VILL SEC24D VIL1 
16.845938,2.3765023,6.724065,8.423347,Gla,F7 PROC PRRG4 F9 PRRG1 F10 PRRG3 PRRG2 PROS1 PROZ F2 GAS6 
14.740028,3.0274763,6.918916,8.821098,Globin,HBG1 HBE1 HBG2 HBB HBD HBA1 NGB HBA2 CYGB HBM MB HBQ1 HBZ 
13.015419,1.8560368,7.094025,8.402239,Glutaredoxin,GRXCR1 TXNRD3 GLRX5 TXNRD1 GLRX2 GLRX3 GLRX 
15.458765,3.0648272,6.0498414,8.676168,Glyco hydro 1,KL KLB LCT LCTL GBA3 
16.614872,1.2806399,6.5919347,8.648002,Glyco hydro 18,CHID1 CHIT1 OVGP1 CHIA CHI3L2 CHI3L1 CTBS 
15.106805,3.2021406,6.541804,9.068896,Glyco hydro 38C,MAN2A2 MAN2C1 MAN2B2 MAN2A1 MAN2B1 
16.058136,1.8327227,6.8038096,8.74072,Glyco hydro 38N,MAN2A2 MAN2C1 MAN2B2 MAN2A1 MAN2B1 
16.225908,2.4732358,7.2195964,8.567618,Glyco hydro 47,EDEM1 EDEM2 EDEM3 MAN1B1 MAN1C1 MAN1A2 MAN1A1 
17.062445,2.81979,6.5821548,8.19565,Glyco hydro 56,SPAM1 HYAL1 HYAL2 HYAL3 HYAL4 
13.639977,-0.037166547,8.102612,11.241652,Glyco tran 10 N,FUT7 FUT10 FUT6 FUT9 FUT11 FUT3 FUT5 FUT4 
15.32948,3.3595352,7.475948,11.372184,Glyco transf 64,EXT2 EXTL1 EXTL3 EXTL2 EXT1 
16.431004,3.2284002,6.2571945,9.884416,Glyco transf 7N,B4GALT3 B4GALT4 B4GALT1 B4GALT2 B4GALT7 B4GALT5 B4GALT6 
16.478186,2.672894,6.438786,9.562055,Guanylate cyc,GUCY2D GUCY2C GUCY1A2 GUCY2F GUCY1B2 GUCY1A1 NPR1 ADCY1 GUCY1B1 NPR2 ADCY5 ADCY4 ADCY3 ADCY2 ADCY9 ADCY8 ADCY7 ADCY6 ADCY10 
16.01102,1.9402313,5.94049,9.92942,Guanylate kin,MAGI2 MPP2 MAGI1 MPP3 MPP4 MPP5 MAGI3 MPP1 CASK MPP6 MPP7 CACNB2 TJP2 TJP1 CACNB3 DLG1 CACNB4 DLG2 DLG3 DLG4 DLG5 CARD14 TJP3 CACNB1 LRGUK GUK1 
13.815729,-0.14087714,6.377921,9.140928,HA2,DHX8 DHX9 DQX1 YTHDC2 TDRD9 DHX40 DHX30 DHX32 DHX33 DHX34 DHX35 DHX57 DHX36 DHX15 DHX37 DHX38 DHX16 DHX29 
16.041958,2.8948033,6.6773763,10.523942,HATPase c,TOP2B HSP90AB2P HSP90AB4P HSP90AA1 HSP90AB3P HSP90AA2P HSP90AB1 TOP2A HSP90B1 BCKDK PDK4 PDK1 PDK3 PDK2 
15.76824,2.9265091,7.015054,8.833921,HECT,HACE1 AREL1 SMURF2 SMURF1 WWP1 WWP2 HUWE1 ITCH HECW2 NEDD4 TRIP12 G2E3 HECW1 UBR5 NEDD4L UBE3A UBE3B UBE3C HERC6 HERC5 HERC4 HECTD1 HERC3 HECTD2 HECTD3 HERC2 HERC1 HECTD4 
15.7069645,3.2496731,5.9292474,9.220603,HERV-K env 2,ERVK-6 HERVK_113 ERVK-7 ERVK-5 ERVK-8 ERVK-9 ERVK-19 ERVK-18 ERVK11-1 ERVK13-1 ERVK-11 ERVK-21 ERVK-10 ERVK-24 ERVK-25 
15.273741,3.0472152,6.977818,8.548526,HGTP anticodon,TARSL2 HARS2 HARS PARS2 TARS EPRS GARS POLG2 TARS2 
15.475803,-0.20822626,6.1249504,9.947657,HLH,HES7 MGA MITF MYCL MYCN PTF1A ASCL4 ASCL5 SCX AHR NPAS1 ASCL2 NPAS2 ASCL3 ARNTL ASCL1 ATOH8 ATOH7 BHMG1 NHLH2 MXI1 NHLH1 MYC HES2 HES1 HES4 HES3 HES6 HES5 ATOH1 SREBF1 SREBF2 BHLHA9 HELT BHLHA15 MXD1 MLXIPL TCF4 TCF3 MXD3 MXD4 MYF5 SIM1 MYF6 MAX TWIST2 BHLHE22 TWIST1 BHLHE23 SOHLH2 SOHLH1 MSC MSGN1 NCOA1 FIGLA TCF15 MYOG TCF12 TFEC TFEB MYOD1 OLIG1 OLIG2 OLIG3 TFAP4 ID1 TAL2 TAL1 ID3 BHLHE40 BHLHE41 ID2 ID4 MESP2 MESP1 NEUROD2 NEUROD4 NEUROD6 TFE3 MLX NEUROD1 MYCLP1 TCFL5 ARNT2 ARNT USF3 HEYL USF2 USF1 HAND1 HAND2 AHRR NEUROG1 NEUROG2 CLOCK NEUROG3 TCF24 TCF23 TCF21 FERD3L ARNTL2 LYL1 MNT HEY2 HEY1 MLXIP 
16.058208,3.0301957,7.356048,9.058913,HMG box,SMARCE1 SOX14 SOX15 SOX12 SOX13 SOX10 SOX11 TOX4 TOX3 TOX2 TFAM LEF1 SP100 HMGB3 HMGB4 HMGB1 HMGB2 BHMG1 BBX NSD2 HMGXB4 CIC PMS1 TCF7L2 TCF7L1 PBRM1 SSRP1 SOX30 UBTFL1 TCF7 HBP1 TOX UBTFL6 SOX21 SOX3 SOX4 SOX1 SOX2 SOX18 SOX17 SRY UBTF HMG20B SOX9 HMG20A SOX7 HMGB1P1 SOX8 SOX5 SOX6 
15.810219,2.3211205,6.9422946,9.02463,HMG box 2,SP100 HMGB3 MAEL HMGB4 UBTF TFAM HMGB1 HMGB2 HMGB1P1 HMGXB3 
14.0405855,-0.1552364,7.4378095,8.569837,HNOBA,GUCY2D GUCY1A2 GUCY2F GUCY1B2 GUCY1A1 GUCY1B1 
15.860822,3.0006473,7.4462476,8.96527,HSF DNA-bind,HSF1 HSF2 HSF5 HSFX3 HSF4 HSFX2 HSFX4 HSFY2 HSFX1 HSFY1 
13.497131,0.17406525,7.373112,8.72417,HSR,SP110 AIRE SP100 SP140 SP140L 
15.254079,2.7979796,6.842291,9.741239,HTH Tnp Tc5,TIGD4 TIGD3 TIGD6 JRK TIGD5 TIGD7 POGK JRKL CENPB POGZ CENPBD1 TIGD2 TIGD1 
14.067576,-0.18696286,6.9625916,8.90629,Hairy orange,HEY2 HEY1 HELT BHLHE40 BHLHE41 HES2 HES1 HES4 HES6 HEYL HES5 
16.196909,1.5320256,6.2199616,9.233658,Helicase C 2,BRIP1 DDX11L8 ERCC2 DDX12P DDX11 RTEL1 
15.264179,2.054022,6.6467514,9.305423,Hexokinase 1,HKDC1 HK1 HK3 HK2 GCK 
14.522518,2.6107535,6.5679526,9.373846,Hexokinase 2,HKDC1 HK1 HK3 HK2 GCK 
15.488909,2.9075391,7.454465,11.210895,His Phos 1,PFKFB3 PFKFB2 PFKFB4 TIGAR PGAM1 PGAM2 PGAM4 PGAM5 UBASH3A UBASH3B BPGM PFKFB1 
15.333143,2.7996376,6.805209,9.178693,Hist deacetyl,HDAC5 HDAC6 HDAC3 HDAC4 HDAC1 HDAC11 HDAC2 HDAC10 HDAC9 HDAC7 HDAC8 
15.894907,2.5909567,6.330305,9.502025,Histone,H3F3C H3F3A H3F3B H2BFS HIST3H2A HIST3H3 H2BFWT SOS2 SOS1 HIST2H2AA4 HIST2H2AA3 HIST2H2AC HIST2H2AB H2AFJ HIST1H2AE HIST1H2AH HIST1H2AG HIST1H2AB HIST1H2AA HIST1H2AD HIST1H2AC HIST1H2AM H2AFZ HIST1H2AJ HIST1H2AI H2AFX HIST1H2AL H2AFY HIST1H2AK H2AFV HIST2H2BD HIST2H2BC HIST2H2BF HIST2H2BE HIST2H3A HIST1H2BA HIST2H3C HIST1H2BG HIST1H2BF HIST1H2BI H2AFY2 HIST1H2BH HIST1H2BC HIST1H2BB HIST2H3D HIST1H2BE HIST1H2BD HIST1H2BO HIST1H2BN HIST1H2BK HIST1H2BJ HIST1H2BM HIST1H2BL CENPA H2BFM HIST1H3A HIST1H3B HIST1H3G HIST1H3H HIST1H3I HIST3H2BB HIST1H3J HIST1H3C HIST1H3D HIST1H3E HIST1H3F 
14.891599,2.6128845,6.3998775,9.484291,Homeodomain,NKX2-8 ESX1 ISL1 ISL2 NOBOX ARGFX HOXB1 SATB1 SATB2 RAX HOXA9 NKX2-2 HOXA4 HOXA3 NKX2-1 HOXA2 HOXA1 NKX2-6 HOXA7 NKX2-5 NKX2-4 HOXA6 DRGX HOXA5 NOTO NKX2-3 BSX PBX4 PBX3 PBX2 PBX1 HOXB5 HOXB4 HOXB3 NANOG HOXB2 HOXB9 VSX1 HOXB8 HOXB7 VSX2 HOXB6 HOXD3 HOXD1 ARX DMBX1 ALX4 NKX3-1 HOXC6 HESX1 HOXC5 HOXC4 ALX3 GSC2 MNX1 ALX1 HOXC9 HOXC8 NKX3-2 POU5F1B ZHX3 PAX4 SEBOX PAX7 PAX6 ISX ZHX1 ZHX2 PAX3 POU6F1 POU6F2 PHOX2B PHOX2A HOXD4 HMX1 HOXD9 HMX3 MIXL1 HOXD8 HMX2 BARHL2 BARHL1 NANOGNB HOXC13 MEOX2 HOXC12 HOXC11 HOXC10 MEOX1 VENTX GSX2 GSX1 EN1 EN2 UNCX VAX1 LBX2 VAX2 POU5F1 LBX1 POU5F2 NANOGP1 NANOGP8 HOXD13 HOXD12 HOXD11 HOXD10 CUX2 CUX1 GSC NKX1-2 NKX1-1 NKX6-3 CDX4 PRRX2 PRRX1 CDX2 CDX1 POU4F1 POU4F2 POU4F3 RHOXF2B OTP HOXA13 HOXA11 HOXA10 GBX1 GBX2 MSX1 PITX1 MSX2 SHOX NKX6-2 PITX3 PITX2 NKX6-1 CERS4 CERS5 CERS6 POU3F1 EVX1 EVX2 POU3F2 POU3F3 POU3F4 RAX2 HOPX LHX4 LHX3 TLX3 LHX2 TLX2 LHX1 TLX1 LHX8 LHX6 ADNP LHX5 CERS2 LHX9 CERS3 DUX1 DUX3 DUX4 HOXB13 DUX5 DUXA EMX1 ZFHX2 EMX2 POU2F1 ZFHX4 POU2F2 ZFHX3 POU2F3 DUX4L2 DUX4L3 DUX4L4 DUX4L5 DUX4L6 DUX4L7 DUX4L9 DLX1 SHOX2 RHOXF1 DLX2 DLX3 DLX4 RHOXF2 DLX5 ONECUT3 DLX6 ONECUT1 ONECUT2 HMBOX1 OTX1 OTX2 PROP1 POU1F1 PDX1 LEUTX DPRX LMX1B LMX1A SIX1 DBX2 CRX DBX1 SIX2 BARX1 BARX2 HLX HHEX SIX5 SIX6 SIX3 SIX4 
15.59059,2.3573005,7.995401,11.147165,Hormone 1,GH2 CSH2 CSH1 PRL CSHL1 GH1 
13.543324,0.16175443,6.445573,10.372272,Hormone recep,ESRRB ESRRA VDR PPARA NR1H3 NR1H2 NR2F2 NR1D1 NR1H4 NR2F1 NR0B2 ESRRG NR0B1 NR1D2 NR2F6 ESR1 ESR2 NR5A2 NR6A1 NR4A3 AR NR5A1 NR4A2 RARB PPARG RARA PGR PPARD THRB NR1I2 THRA RARG NR1I3 NR2E1 HNF4G NR2E3 NR2C1 RORB RORC NR3C2 NR3C1 NR2C2 RORA NR4A1 RXRA RXRB HNF4A RXRG 
15.562917,3.1340404,6.0973854,9.435592,Hydrolase 6,LHPP PGP HDHD5 PDXP HDHD2 
13.70881,-0.05427003,6.8252306,9.835188,I-EGF 1,ITGB1 ITGB6 ITGB5 ITGB4 ITGB3 
14.469451,0.0028828136,6.309604,11.013509,I-set,CDON PDGFRB PDGFRA KIRREL2 KIRREL3 CNTN6 LRRN3 KIRREL1 VCAM1 L1CAM LRFN4 LRFN3 OBSCN LRFN5 LRFN2 LRFN1 CNTN2 CNTN3 LRRN2 CNTN4 ROR2 LRRN1 ALPK3 CNTN5 ALPK2 OBSL1 MXRA5 ROR1 CNTN1 NEXN PRTG ADGRA3 KDR HMCN1 MUSK DSCAM HMCN2 PTK7 IGSF10 SDK1 SDK2 HSPG2 FGFR1 FGFR4 FGFR3 FGFR2 MYOM1 MYOM2 TRIO NTM LRIT1 ISLR MYOM3 MYLK IGFBP7 LRRC4B MFAP3L LRRC4C LINGO3 LINGO2 MYBPC2 SIGLEC16 MYBPC3 LINGO4 SIGLEC11 NRG1 LSAMP PXDNL NRG2 IGFN1 MYBPC1 LINGO1 PTPRF PTPRD SIGLEC1 PXDN MYOT TMIGD1 MDGA2 SIGLEC6 IGSF9 PTPRS WFIKKN2 NCAM1 IGSF5 LRRC4 PTPRK KALRN IGSF22 BOC CHL1 EMB NCAM2 OPCML NTRK2 NTRK3 DCC UNC5B NEGR1 UNC5C UNC5A KAZALD1 UNC5D MYBPH NFASC PALLD IGDCC3 IGDCC4 TYRO3 DSCAML1 CD101 ROBO3 AMIGO1 ROBO4 FLT1 FLT4 PAPLN SEMA3C TTN FGFRL1 MYPN ROBO1 ROBO2 IL1RL1 ADAMTSL1 IGFBPL1 MYBPHL ADAMTSL3 SPEG LRIG2 LRIG1 LRIG3 NRCAM NEO1 
16.130495,2.6580908,6.2504883,10.336122,IBR,ANKIB1 CUL9 PRKN RNF14 RNF31 RNF144B RNF144A RNF217 RNF19B RNF19A RBCK1 ARIH1 ARIH2 
15.493703,2.6060631,7.5385222,11.304819,ICAM N,ICAM3 ICAM4 ICAM5 ICAM1 ICAM2 
14.795424,2.6253953,6.683531,9.682359,IGFBP,IGFBP2 IGFBP1 IGFBP5 IGFBP4 HTRA4 IGFBP3 HTRA3 KAZALD1 HTRA1 CRIM1 WISP1 WISP2 CYR61 WISP3 CTGF ESM1 IGFBPL1 IGFBP7 CCN3 
15.314199,2.6803377,7.842723,9.089829,IL1,IL1A IL1RN IL1B IL36A IL37 IL36G IL36RN IL18 IL1F10 
16.1209,2.4732726,7.119043,9.769676,IL6Ra-bind,IL3RA IL31RA IL5RA IL2RG IL6ST CSF2RA IL6R CSF2RB IL13RA1 IL13RA2 
15.080793,2.659411,6.7921267,10.321728,IL8,CCL26 CCL25 CCL24 CCL23 CCL22 CCL21 CCL20 XCL1 PPBP CXCL10 CXCL11 CXCL12 CXCL13 XCL2 PF4 CCL28 CCL27 CCL15 CXCL8 CCL14 CCL13 CXCL9 CCL3L1 CCL11 CCL4L1 CCL4L2 CCL3L3 CXCL2 CXCL1 CXCL14 CXCL3 CX3CL1 CXCL6 CXCL5 CCL8 CCL7 CCL5 CCL4 CCL3 CCL2 CCL1 CCL19 CCL18 CCL17 CCL16 PF4V1 
15.190713,2.2193055,6.808146,9.490082,ILEI,CEMIP FAM3A FAM3C FAM3B CEMIP2 FAM3D POMGNT1 
15.636139,2.0928297,7.062732,9.072574,ING,ING5 ING3 ING4 ING1 ING2 
14.030469,-0.099790916,6.4839683,9.045883,IN DBD C,ERVK-6 ERVK-11 HERVK_113 ERVK-7 ERVK-10 ERVK-8 ERVK-25 ERVK-19 
13.501043,0.6311228,6.788678,9.772742,IRF,IRF1 IRF4 IRF5 IRF2 IRF3 IRF8 IRF9 IRF6 IRF7 
14.24359,2.1848638,7.846455,8.460142,IRK,KCNJ5 KCNJ6 KCNJ10 KCNJ8 KCNJ11 KCNJ12 KCNJ9 KCNJ13 KCNJ14 KCNJ15 KCNJ16 KCNJ18 KCNJ1 KCNJ2 KCNJ3 KCNJ4 
15.057657,2.3752635,7.159189,10.236112,IRS,DOK1 DOK2 DOK3 DOK4 IRS1 DOK5 IRS2 DOK6 DOK7 FRS3 IRS4 FRS2 
15.266267,2.4492204,6.9447594,9.429943,Ig 2,FCRL2 FCRL3 FCRL1 KIRREL3 IL1R1 FCRL6 SIGLEC14 FCRL4 FCRL5 SIGLEC10 PSG2 LILRB1 PSG1 LILRB2 PSG4 LILRB3 PSG3 LILRB4 MERTK GP6 LILRB5 OSCAR PSG9 FCGR2A FCGR2B CEACAM1 SIGLEC1 CEACAM8 PSG6 PSG5 PSG8 CEACAM6 CEACAM5 PSG7 PECAM1 FCGR2C SIGLEC7 CD244 CD22 CD86 VSIG10L FCGR3A FCGR3B FCER1A CEACAM16 HSPG2 BCAM TARM1 IL1RAPL2 IGSF9B IGSF1 CD48 ICAM5 A1BG LILRA1 LILRA2 AGER LILRA3 LILRA4 PSG11 LILRA5 LILRA6 MALT1 FCRLB IL1RL2 IL18RAP FCRLA FCGR1A CLMP VSTM1 NEO1 FCGR1B SEMA7A LAIR2 LAIR1 
15.211913,2.0005136,7.021646,9.137033,Inhibitor I29,CTSL CTSK CTSH CTSW CTSF CTSV CTSS 
13.760591,-0.04240129,8.385815,10.488391,Ins145 P3 rec,RYR2 RYR3 RYR1 ITPR2 ITPR3 ITPR1 
14.844129,-0.13401237,8.34862,10.918027,Insulin,INS-IGF2 RLN3 IGF1 RLN1 IGF2 RLN2 INS INSL3 INSL6 INSL5 
14.108342,-0.0002914918,7.6541657,9.321369,Integrase Zn,ERVK-6 ERVK-11 HERVK_113 ERVK-7 ERVK-10 ERVK-8 ERVK-25 ERVK-19 ERVK-18 
13.814754,1.9236101,6.8564434,9.103586,Integrin B tail,ITGB2 ITGB1 ITGB6 ITGB5 ITGB4 ITGB3 
13.986131,2.0854948,8.467273,10.709636,Integrin b cyt,ITGB2 ITGB1 ITGB6 ITGB5 ITGB3 ITGB7 
15.773178,2.33462,8.295606,11.088007,Integrin beta,ITGB2 ITGB1 ITGB6 ITGB5 ITGB4 ITGB3 ITGB8 ITGB7 
14.794848,2.3633106,6.937732,9.819822,Interfer-bind,IL22RA2 IFNGR2 IL10RB IL20RA IL20RB F3 CSF2RB IFNAR1 IFNAR2 
15.150122,2.373105,7.392768,10.723228,Interferon,IFNA6 IFNA13 IFNA5 IFNA14 IFNA8 IFNA7 IFNA2 IFNA16 IFNA1 IFNA17 IFNA4 IFNW1 IFNE IFNB1 IFNK IFNA21 IFNA10 
15.04968,2.4860442,8.781682,8.816128,Iso dh,IDH1 IDH3G IDH2 IDH3A IDH3B 
14.4817505,2.2567332,7.897406,10.667735,JmjC,KDM5B KDM4A JMJD4 KDM4B KDM3A KDM5C KDM4C KDM5D KDM3B KDM4D KDM4E PHF2 JMJD1C HR PHF8 JMJD6 UTY JARID2 KDM7A KDM6A KDM6B KDM5A 
15.47657,2.5119975,7.155826,10.421638,KA1,MELK MARK1 MARK4 MARK3 MARK2 
13.611006,0.7068521,7.907741,10.592355,KH 1,PNPT1 ASCC1 DDX53 BICC1 MEX3D ANKHD1 QKI MEX3A FUBP1 HNRNPK MEX3C MEX3B NOVA1 NOVA2 FUBP3 SF1 KHDRBS1 AKAP1 KHDRBS2 TDRKH KHDRBS3 ANKRD17 FMR1 DDX43 PCBP1 HDLBP FXR2 FXR1 KHSRP PCBP4 PCBP2 PCBP3 IGF2BP2 IGF2BP1 IGF2BP3 
15.914833,2.0543263,8.589096,10.770848,Kazal 1,SPINK5 SPINK4 SPARC SPINK2 SPINK9 SPINK8 SPINK7 SPINK6 SPINK1 SPINK13 SPINK14 SPARCL1 AGRN 
14.905005,2.6099596,7.6581244,10.4481535,Kazal 2,FST KAZALD1 SLCO1B7 TMEFF1 TMEFF2 SLCO1C1 SLCO4A1 SLCO5A1 SLCO4C1 SLCO2A1 SMOC2 SLCO1A2 SLCO3A1 SMOC1 RECK AGRN HTRA4 HTRA3 FSTL1 SLCO6A1 HTRA1 FSTL3 FSTL5 FSTL4 SLCO1B1 IGFBPL1 CPAMD8 SPOCK3 SLCO1B3 SPOCK1 SPOCK2 IGFBP7 
14.726378,2.1250994,7.755924,10.833744,Kinesin,KIF22 STARD9 KIF25 KIF24 KIF23 KIF7 KIF6 KIF27 CENPE KIF18A KIF18B KIF9 KIFC3 KIF16B KIF2B KIF26A KIF26B KIF2A KIFC2 KIFC1 KIF4B KIF4A KIF20A KIF2C KIF20B KIF28P KIF11 KIF15 KIF14 KIF12 KIF19 KIF17 KIF5A KIF1A KIF3C KIF3B KIF5C KIF3A KIF13A KIF13B KIF5B KIF21A KIF21B KIF1C KIF1B 
15.630247,1.8150074,8.32414,10.794294,Kringle,MST1 HGF F12 KREMEN2 KREMEN1 PLAU F2 PLAT PLG PRSS12 MST1L PIK3IP1 LPAL2 ROR2 ROR1 LPA HGFAC HABP2 
16.27738,1.1384581,7.4448695,10.597075,Kunitz BPTI,APP WFDC8 COL28A1 WFIKKN2 WFIKKN1 TFPI2 PAPLN AMBP APLP2 SPINT4 SPINT3 TFPI WFDC6 SPINT2 SPINT1 COL6A3 COL7A1 EPPIN 
14.741851,2.1932774,8.506321,10.676868,L27,MPP2 MPP3 MPP4 MPP5 LIN7B CASK LIN7A MPP6 MPP7 LIN7C 
14.432851,2.3222392,7.1131897,10.721774,LBP BPI CETP C,BPIFB1 BPIFC PLTP CETP BPIFB3 BPIFB2 BPIFB4 BPIFB6 LBP BPI 
13.480424,0.15074426,8.024548,10.733032,LCCL,VIT CRISPLD2 CRISPLD1 DCBLD1 DCBLD2 COCH 
14.740405,2.5113087,7.313012,10.157565,LEM,ANKLE1 TMPO ANKLE2 EMD LEMD3 LEMD2 LEMD1 
14.504021,-0.14819176,6.543048,9.135415,LIM,LMO2 LMO1 LIMS4 LIMK1 LMO4 LMO3 LIMK2 MICAL3 LMO7 ISL1 ISL2 TRIP6 ZYX LIMS1 AJUBA LIMS3 LIMS2 TES FBLIM1 LIMD2 LIMD1 PDLIM2 ABLIM1 PDLIM1 ABLIM2 PDLIM4 CSRP3 PDLIM3 LASP1 ABLIM3 CSRP2 CSRP1 MICALL1 NRAP MICALL2 LPXN LMCD1 PDLIM5 PDLIM7 LIMCH1 WTIP LIMA1 LHX4 LMX1B LMX1A LHX3 LHX2 LHX1 LHX8 LHX6 LHX5 LHX9 PXN TGFB1I1 FHL1 FHL2 FHL3 PRICKLE3 PRICKLE4 FHL5 PRICKLE1 LPP CRIP3 PRICKLE2 LDB3 CRIP1 CRIP2 MICAL2 MICAL1 
14.570932,1.9322174,8.301908,10.416432,LRAT,PLA2G16 HRASLS2 RARRES3 FAM84B FAM84A HRASLS5 LRAT HRASLS 
13.6687565,0.26444238,8.174823,11.004921,LSM,SNRPN LSM2 LSM1 LSM6 LSM5 LSM4 LSM3 LSM10 LSM8 LSM7 SNRPD3 SNRPD2 SNRPD1 SNRPGP15 SNRPF NAA38 SNRPG SNRPE SNRPB 
14.103925,2.2052054,7.4384203,10.901997,LTD,LMNA LMNTD1 LMNTD2 LMNB1 LMNB2 
14.219293,2.0574195,7.723855,10.794215,La,SSB LARP1 LARP1B LARP4B LARP4 LARP7 LARP6 
14.91844,2.198239,8.040542,10.670696,Lactamase B,MBLAC2 PNKD HAGHL LACTB2 ETHE1 CPSF3 HAGH ELAC1 MBLAC1 
14.429061,1.9593968,8.371334,10.8899145,Laminin EGF,NTNG2 NTNG1 LAMB4 LAMB3 LAMB2 LAMB1 USH2A HSPG2 MEGF9 MEGF8 AGRN MEGF6 CELSR1 MEGF11 LAMA3 LAMA2 LAMA5 LAMA4 MEGF10 LAMC1 NTN5 LAMC3 LAMA1 LAMC2 CELSR2 NTN1 PEAR1 CELSR3 NTN3 NTN4 SCARF1 
14.318425,0.42015436,8.347428,10.951661,Laminin G 1,HSPG2 EGFLAM LAMA2 PROS1 SLIT2 LAMA1 CSPG4 GAS6 AGRN SHBG 
15.467977,2.482475,8.055234,10.940363,Laminin G 2,COL24A1 USH2A NELL2 FAT1 FAT2 FAT3 FAT4 CSPG4 GAS6 CNTNAP5 CNTNAP4 CRB2 CNTNAP3 CRB1 CNTNAP2 CNTNAP1 CELSR1 LAMA3 LAMA2 LAMA5 NRXN2 COL11A2 LAMA4 PROS1 NRXN1 NRXN3 CELSR2 CELSR3 EGFLAM CNTNAP3B COL11A1 SLIT1 SLIT3 EYS 
15.069343,2.195175,7.8159647,10.960245,Ldh 1 C,LDHC LDHB LDHA UEVLD MDH2 MDH1 LDHAL6A LDHAL6B 
14.422703,1.8684397,7.083002,10.868873,Lectin C,DGCR2 CD72 KLRC3 SFTPD CLEC17A CLEC4C VCAN CLEC4D CLEC4E CD209 CLEC4A CD207 KLRD1 CD248 CLEC4M CLEC4F CD69 CLEC4G FCER2 REG3A CLEC2L REG3G CLEC10A CLEC18C CLEC18B CLEC18A CLEC3A CLEC3B CLEC7A ATRNL1 CLEC11A CD93 PRG3 PRG2 LAYN SELE CLEC19A ATRN CLEC2A BCAN CLEC2B SELP CLEC6A SELL KLRF2 SFTPA1 PLA2R1 SFTPA2 KLRB1 CLEC2D CD302 FREM1 KLRF1 REG1A COLEC12 COLEC11 PKD1 COLEC10 CHODL CLEC12B CLEC12A NCAN CLEC20A REG1B LY75 PKD1L2 ASGR1 CLEC9A PKD1L3 ASGR2 ACAN THBD CLEC1A KLRK1 CLEC1B MRC1 CLEC5A MRC2 REG4 KLRC1 KLRC2 KLRG1 OLR1 MBL2 KLRG2 
13.743824,0.35307083,5.924223,8.491301,Lig chan-Glu bd,GRIA2 GRIA3 GRIA1 GRID1 GRID2 GRIK4 GRIK5 GRIK2 GRIK3 GRIN2D GRIN2C GRIK1 GRIN1 GRIN3A GRIN2B GRIN3B GRIN2A GRIA4 
15.947017,1.9867541,6.5303836,10.245431,Linker histone,HP1BP3 HILS1 H1FOO SHPRH H1F0 HIST1H1E H1FX HIST1H1A HIST1H1B HIST1H1C HIST1H1D HIST1H1T 
14.611077,2.3381155,7.3543916,10.762581,Lipase,LIPG PNLIPRP2 PNLIPRP3 PNLIPRP1 LPL LIPI LIPH LIPC PLA1A PNLIP 
15.395538,1.9906722,8.067345,10.901647,Lipocalin,AMBP FABP2 RBP7 FABP3 FABP4 RBP5 FABP5 FABP7 RBP4 RBP1 FABP9 RBP2 LCN2 LCN1 PMP2 LCN6 PAEP LCN1P1 LCN9 ORM2 LCN8 ORM1 CRABP1 CRABP2 FABP5P3 FABP12 C8G OBP2A OBP2B LCN15 LCNL1 LCN12 PTGDS 
15.582665,1.8820553,7.849201,10.7216835,Lipoxygenase,ALOX5 ALOX15 ALOX12B ALOX12 ALOXE3 ALOX15B 
14.161087,1.4573092,6.890733,10.379936,LisH,TBL1XR1 KATNAL2 GID8 PAFAH1B1 TBL1X TBL1Y RANBP9 RANBP10 
14.734091,1.9120743,6.3178253,10.513339,Longin,SEC22A VAMP7 YKT6 SEC22C SEC22B 
14.858647,2.0253274,7.639984,10.596275,Lys,SPACA5B SPACA3 LALBA LYZL1 SPACA5 LYZL2 LYZL4 LYZ LYZL6 
14.813383,1.8203459,9.012243,9.108239,LysM,OXR1 NCOA7 LYSMD3 LYSMD2 LYSMD1 
15.4204,1.7172239,6.009677,10.408393,M20 dimer,PM20D2 ACY1 CNDP1 CNDP2 PM20D1 
15.576165,2.041611,7.866468,10.882253,MACPF,BRINP1 C6 BRINP3 C7 BRINP2 C9 MPEG1 PRF1 C8A C8B ASTN2 
14.940068,0.25054902,7.857561,11.337139,MAM,PTPRU NRP1 EGFL6 NRP2 MDGA1 PTPRT NPNT MAMDC2 MAMDC4 ZAN PTPRM PTPRK TMPRSS15 MEP1B MEP1A MALRD1 MDGA2 ALK 
16.074345,1.6794643,8.241368,11.092947,MARVEL,CMTM8 CMTM4 CMTM5 CMTM6 CMTM7 SYP SYNGR4 MALL OCLN SYPL2 SYPL1 MAL PLP2 CMTM2 MYADM CMTM3 MYADML2 SYNGR1 SYNGR2 SYNPR MARVELD1 SYNGR3 MARVELD2 MAL2 PLLP 
15.225298,0.43297568,7.7153735,10.547931,MBD,MBD4 MECP2 SETDB2 SETDB1 MBD1 MBD2 MBD3 BAZ2A BAZ2B 
14.853423,1.6470708,8.588373,10.818299,MBDa,MBD3L2B MBD2 MBD3 MBD3L5 MBD3L3 MBD3L4 MBD3L1 MBD3L2 
15.116035,0.1430822,8.3006735,8.836154,MBT,L3MBTL2 PHF20L1 L3MBTL1 L3MBTL4 SCML2 L3MBTL3 SCMH1 SFMBT1 SFMBT2 MBTD1 
15.449342,1.9859707,7.8483524,10.926661,MCM,MCMDC2 MCM8 MCM9 MCM4 MCM5 MCM6 MCM7 MCM2 MCM3 
13.906752,0.9157137,7.445702,11.096972,MCM N,MCM4 MCM5 MCM6 MCM7 MCM2 MCM3 
14.121239,0.1611034,7.5430317,9.420013,MCM OB,MCM8 MCM9 MCM4 MCM5 MCM6 MCM7 MCM2 MCM3 
15.093756,1.0548314,7.9796214,10.971976,MG2,C4B C5 PZP CPAMD8 CD109 A2M A2ML1 C4B_2 C4A C3 
14.433687,1.6240834,8.406367,10.937885,MH1,SMAD3 SMAD2 NFIX SMAD5 SMAD4 NFIB NFIC SMAD1 NFIA SMAD7 SMAD6 SMAD9 
15.112985,1.4136279,7.1850853,10.863594,MHC I,HFE HLA-C MR1 HLA-A HLA-B HLA-G HLA-H HLA-E HLA-F RAET1E FCGRT RAET1G AZGP1 RAET1L ULBP1 ULBP3 MICA ULBP2 MICB 
15.004332,1.4191765,7.6141095,10.776748,MHC II alpha,HLA-DRA HLA-DPA1 HLA-DMA HLA-DQA2 HLA-DOA HLA-DQA1 
13.803709,0.48388878,8.476446,9.120095,MHC II beta,HLA-DMB HLA-DRB5 HLA-DQB1 HLA-DPB1 HLA-DOB HLA-DRB4 HLA-DRB3 HLA-DQB2 HLA-DRB1 
14.653082,1.8877853,6.0802717,9.845663,MHC I 3,PROCR CD1E CD1D CD1C CD1B CD1A 
14.6243,1.5685068,7.313598,10.542835,MIB HERC2,HECTD1 HERC2 HERC2P3 MIB1 MIB2 
15.156237,1.970882,7.9754114,11.123047,MIR,RYR2 SDF2L1 RYR3 RYR1 POMT1 POMT2 ITPR2 ITPR3 SDF2 ITPR1 
15.352535,1.5885727,7.5142837,10.967681,MIT,RPS6KL1 VPS4A CAPN7 SNX15 VPS4B ULK3 RPS6KC1 MITD1 
15.703209,1.0969466,6.706769,11.036089,MOEP19,DPPA5 KHDC3L KHDC1 KHDC1L OOEP 
15.03439,1.1289581,6.5815063,10.760172,MT,DNAH14 DYNC2H1 DNAH5 DNAH2 DNAH11 DNAH3 DNAH8 DNAH9 DNAH17 DNAH6 DNAH7 DNHD1 DNAH10 DNAH1 DYNC1H1 
15.257592,1.4886732,6.9872627,10.589075,Macro,OARD1 H2AFY MACROD2 MACROD1 H2AFY2 PARP15 GDAP2 PARP14 PARP9 
15.280958,1.4304659,6.338501,10.824389,Med26,ELOA2 IWS1 ELOA3 MED26 ELOA3B TCEA3 TCEANC ELOA TCEA2 TCEA1 PPP1R10 TCEANC2 ELOA3D 
15.881022,1.1336334,6.787996,10.766899,Metallophos,PPEF1 TMEM62 TMPPE PPP1CA PPP2CA PPP1CB CPPED1 PPP5C ADPRM MPPED2 MPPED1 SMPDL3A MPPE1 PPEF2 MRE11 SMPDL3B DBR1 PPP6C PPP3CA PPP1CC PPP2CB NT5E PPP3CB PPP4C PPP3CC ACP7 SMPD1 ACP5 
15.021574,1.9814867,6.7151504,11.11263,Metallothio,MT1L MT1M MT1X MT3 MT4 MT2A MT1DP MT1A MT1B MT1G MT1H MT1E MT1HL1 MT1F 
15.726636,1.7114729,6.178722,8.77654,Methyltransf 11,TRMT9B EEF1AKNMT NDUFAF5 METTL7A BUD23 CIAPIN1 METTL7B ALKBH8 EEF1AKMT4 
15.039324,1.8412256,7.351749,11.071074,Motile Sperm,VAPA VAPB MOSPD3 MOSPD2 MOSPD1 
16.073092,1.101932,6.5818005,10.705446,MutS III,MSH3 MSH4 MSH5 MSH6 MSH2 
15.611125,1.7014279,7.7458644,10.97574,MutS V,MSH3 MSH4 MSH5 MSH6 MSH2 
15.24315,1.8214828,8.171334,8.238277,Myb DNA-bind 5,MYPOP MSANTD3 NAIF1 MSANTD4 FSBP TSNARE1 
15.369305,2.0173783,7.799541,9.627674,Myb DNA-binding,SMARCC1 SMARCC2 TERF1 TERF2 TERB1 ZZZ3 DNAJC2 NCOR1 TADA2A NCOR2 TADA2B DNAJC1 DMTF1 RCOR3 RCOR2 RCOR1 MYSM1 MTA1 MYB MIS18BP1 SNAPC4 MIER3 MIER2 MIER1 MYBL1 MTA3 MYBL2 
15.5339775,0.49675807,8.169402,8.643215,Myosin N,MYH7B MYH1 MYH2 MYH3 MYH4 MYH14 MYH9 MYH15 MYH13 MYH10 MYH6 MYH11 MYH7 MYH8 
16.013987,1.2381111,9.2863,9.41363,Myosin head,MYH7B MYO16 MYO10 MYO5A MYO5B MYO7A MYO7B MYO9A MYO19 MYO9B MYO1E MYH1 MYH2 MYO1F MYH3 MYO1C MYO1D MYH4 MYO1A MYO1B MYO15B MYO3A MYO5C MYO15A MYO3B MYH9 MYH6 MYO1G MYH7 MYO1H MYH8 MYO6 MYO18B MYH14 MYO18A MYH15 MYH13 MYH10 MYH11 
15.063326,0.99305826,7.3098173,11.028724,Myotub-related,MTMR1 MTMR2 MTMR11 MTMR3 MTMR10 MTMR4 MTMR12 MTMR9 MTMR6 MTMR7 MTM1 MTMR8 SBF2 SBF1 
15.452565,1.0296916,7.3913436,11.144894,NACHT,NLRP14 NLRP13 NLRP12 NLRP11 NLRP10 TEP1 NAIP NLRX1 NOD1 NOD2 NLRC4 NLRC5 NLRC3 NWD1 NLRP9 NWD2 NLRP7 NLRP8 NLRP5 NLRP6 NLRP3 NLRP4 NLRP1 NLRP2 CIITA 
15.69947,1.4540117,7.2506943,11.1615305,NAD binding 1,CYB5R3 CYB5R2 MTRR POR CYB5R4 OXNAD1 NOS3 NOS1 CYB5RL NOS2 NDOR1 CYB5R1 
15.440589,1.2334863,6.9717016,10.948004,NAD binding 6,DUOX1 DUOX2 NOX4 NOX5 CYBB NOX1 NOX3 
15.776733,1.6695874,6.9429073,9.497828,NDK,NME7 NME8 NME9 NME3 NME4 NME5 NME2P1 NME6 NME1 NME2 
14.615243,2.7933762,6.315705,10.578169,NTF2,NXF1 NXF2 NXT1 NXF3 NXT2 G3BP1 G3BP2 NUTF2 NXF2B 
14.854683,1.6168917,7.03297,10.603253,NTR,WFIKKN2 NTN5 PCOLCE C4B_2 NTN1 SFRP1 NTN3 C4A C3 NTN4 SFRP4 SFRP5 C5 C4B FRZB SFRP2 ADAMTSL5 PCOLCE2 
14.999071,0.58336455,8.6391,8.559654,NUDIX,IDI1 IDI2 NUDT4B NUDT2 NUDT3 NUDT1 NUDT6 NUDT7 NUDT4 NUDT5 NUDT12 NUDT11 NUDT8 NUDT10 NUDT9 NUDT18 NUDT17 NUDT16 NUDT15 NUDT14 NUDT13 DCP2 
14.702814,2.2537782,8.453336,8.480447,Neuralized,NEURL1B NEURL3 NEURL4 NEURL1 NEURL2 
15.521553,1.4111549,6.342601,10.203527,Nore1-SARAH,RASSF1 RASSF2 RASSF3 RASSF4 RASSF5 RASSF6 
14.436486,0.0038119443,6.8872924,10.988725,Notch,NOTCH3 NOTCH4 NOTCH1 GNPTAB NOTCH2 PAPPA2 
15.48074,0.93619454,7.5202737,10.774005,OAR,SHOX2 PRRX2 PRRX1 ARX RAX OTP DMBX1 ALX4 PITX1 SHOX PITX3 ALX1 PITX2 VSX2 DRGX 
14.8829155,1.5383358,7.0857177,10.796671,OB NTP bind,DHX8 DHX9 YTHDC2 DQX1 DHX40 DHX30 DHX32 DHX33 DHX34 DHX57 DHX35 DHX36 DHX15 DHX37 DHX38 DHX16 DHX29 
15.796567,1.7739165,6.8808527,9.790267,OSR1 C,WNK1 WNK2 WNK3 STK39 WNK4 OXSR1 
14.903253,0.52301806,8.218496,11.034886,Occludin ELL,OCLN ELL MARVELD2 ELL2 ELL3 OCEL1 
15.470921,0.6863454,7.0288663,10.260423,Olduvai,NBPF6 NBPF3 NBPF4 NBPF9 NBPF5P PDE4DIP NBPF20 NBPF7 NBPF8 NBPF11 NBPF10 NBPF12 NBPF1 NBPF15 NBPF26 NBPF14 NBPF19 
15.554011,1.6068757,7.1233387,11.127546,PAD M,PADI4 PADI3 PADI6 PADI2 PADI1 
15.085221,1.6523281,6.7952785,10.522088,PAD N,PADI4 PADI3 PADI6 PADI2 PADI1 
14.011319,0.12498342,7.2290106,8.411053,PAN 1,F11 PLGLB2 PLGLA MST1 HGF PLG PLGLB1 KLKB1 MST1L 
15.4342785,0.57954025,6.980983,10.923329,PAS,NCOA2 ARNT2 NCOA3 EPAS1 NCOA1 ARNT HIF3A AHR NPAS1 HIF1A NPAS2 ARNTL NPAS3 ARNTL2 AHRR SIM2 CLOCK PDE8A SIM1 
15.583563,1.0523214,7.710664,9.640531,PAS 3,ARNT2 EPAS1 HIF3A AHR NPAS1 HIF1A NPAS3 NPAS4 PER3 PER2 PER1 SIM2 SIM1 
15.572702,0.54248005,6.65883,10.068106,PAS 9,KCNH3 KCNH4 KCNH5 KCNH6 KCNH7 KCNH8 PASK PDE8B KCNH1 KCNH2 
15.849695,0.5759683,7.333723,8.868403,PAX,PAX9 PAX8 PAX5 PAX4 PAX7 PAX6 PAX1 PAX3 PAX2 
15.438467,1.0107622,7.942305,8.957843,PAZ,PIWIL3 PIWIL2 PIWIL4 AGO4 AGO2 AGO3 DICER1 AGO1 PIWIL1 
14.887822,0.30225027,7.096933,10.558962,PB1,MAP3K3 MAP2K5 PRKCI MAP3K2 NCF2 NCF4 PARD6G PARD6A PRKCZ PARD6B TFG NOXA1 NBR1 SQSTM1 
14.354017,2.3843565,6.7869854,10.193743,PBD,CDC42SE2 WAS WASL PAK2 PAK1 CDC42EP5 CDC42EP4 CDC42EP3 CDC42EP2 CDC42EP1 PAK4 PAK3 PAK6 PAK5 
15.190964,0.8416277,8.369178,8.614756,PCI,PSMD11 EIF3A PSMD13 PSMD12 PCID2 GPS1 COPS7B COPS7A COPS4 EIF3M PSMD6 COPS3 PSMD3 COPS2 EIF3CL EIF3E EIF3C 
15.850046,0.9807607,7.8012676,8.622333,PDEase I,PDE1C PDE1B PDE1A PDE4D PDE11A PDE10A PDE3B PDE2A PDE4C PDE4B PDE3A PDE4A PDE6C PDE5A PDE6B PDE7B PDE6A PDE7A PDE8B PDE8A PDE9A 
15.681254,1.2784418,7.352071,8.98249,PDGF,PDGFD PDGFC VEGFC PDGFB VEGFD PDGFA VEGFA PGF VEGFB 
15.568816,1.481971,6.572325,9.974185,PDZ,LMO7 SCRIB PTPN3 GRID2IP PTPN4 FRMPD1 FRMPD4 STXBP4 FRMPD2 SYNPO2 FRMPD3 PARD6G PARD6A GRIP1 GRIP2 SLC9A3R2 PARD6B ARHGEF11 PARD3 CASK PDZK1 SDCBP CNKSR3 CNKSR2 DLG1 DLG2 DLG3 DLG4 RADIL DLG5 DVL1P1 PATJ LIN7B LIN7A PPP1R9B LIN7C PPP1R9A CNK3/IPCEF1 PDZD4 PDZD3 PDZD2 RIMS1 PDZD9 PDZD7 LIMK1 IL16 LIMK2 SHROOM3 SHROOM4 PTPN13 SHROOM2 PARD3B AFDN GIPC1 SYNPO2L GIPC2 GIPC3 RAPGEF2 MAGIX TAX1BP3 PDZRN3 RAPGEF6 PDZRN4 FRMPD2B LRRC7 PDLIM2 PDLIM1 PDLIM4 PDLIM3 SNTG1 SNTG2 DVL1 PDZD11 DVL2 DVL3 RHPN1 MPDZ GRASP CYTIP PDLIM5 PDLIM7 PDZK1P1 MAGI2 MPP2 MAGI1 MPP3 MPP4 MPP5 WHRN PICK1 MAGI3 MPP1 ERBIN MPP6 MPP7 TIAM1 SYNJ2BP TJP2 TJP1 SNTB1 TIAM2 LNX2 LNX1 APBA2 RGS12 GOPC APBA1 APBA3 SIPA1 SNTB2 TJP3 LDB3 USH1C PCLO SIPA1L2 NOS1 SNTA1 
13.854944,2.660929,7.699499,8.822224,PET,TES PRICKLE3 PRICKLE4 PRICKLE1 PRICKLE2 LMCD1 
15.598692,0.64263684,8.220523,8.768474,PGM PMM I,PGM3 PGM5 PGM2 PGM1 PGM2L1 
15.501271,0.97435707,7.2911363,9.478985,PG binding 1,MMP7 MMP8 MMP1 MMP2 MMP3 MMP9 MMP20 MMP21 MMP10 MMP24 MMP13 MMP12 MMP15 MMP14 MMP25 MMP17 MMP28 MMP16 MMP27 MMP19 
15.506031,1.4434134,7.7855587,8.726065,PH,PLEKHA2 PLEKHA3 TBC1D2B PLEKHA1 PLEKHA6 AFAP1 PLEKHA7 PLEKHA4 PLEKHA5 ARHGAP27 ARHGAP26 ARHGAP25 PLEKHA8 ARHGAP24 DEF6 TEC DOK1 ACAP3 ACAP2 SPATA13 PLCD4 NGEF SKAP1 SKAP2 OSBP2 DGKH PHLDB2 PHLDB1 DGKD PLEKHB1 PLEKHB2 ASAP2 ASAP3 ACAP1 FGD1 FGD2 FGD3 DOCK11 FGD4 PREX2 FGD5 FGD6 DOCK10 ARHGAP42 SH3BP2 ASAP1 AKT3 GRB14 AKT1 SH2B1 AKT2 GRB10 SH2B3 PLEKHJ1 SH2B2 AFAP1L1 CADPS2 OSBPL9 SWAP70 OSBPL8 AFAP1L2 ARHGEF16 OSBPL5 IPCEF1 ADAP2 ADAP1 FERMT1 ARHGAP12 CNKSR2 FERMT2 PLEKHS1 CNKSR1 ARHGAP10 NET1 PRKD1 BTK PRKD3 PHLDB3 DGKK GRB7 FERMT3 PLEKHD1 RTKN ARHGAP9 IRS1 TRIO IRS2 PLEK2 RTKN2 DOCK9 RAPH1 ARHGAP15 TRIOBP DAPP1 CNK3/IPCEF1 OSBPL11 ABR ARHGAP22 OSBP COL4A3BP RALGPS1 SBF2 RALGPS2 SBF1 RASA4B CADPS GAB2 ARAP3 GAB1 ARAP1 GAB4 ARAP2 GAB3 PHETA1 DNM1 BMX VAV1 PHETA2 VAV2 DNM2 DNM3 VAV3 ANLN APBB1IP RASA1 RASA4 VEPH1 RASA2 RASA3 ARHGEF4 PLEKHM2 PLEKHM3 SOS2 ARHGEF9 ARHGEF6 ITK ARHGEF7 SOS1 PLEKHF1 PLEKHF2 RASGRF1 RASGRF2 RASAL1 PLD1 KALRN GRK2 GRK3 KIF1A MCF2L STAP1 KIF1B FARP2 PLEKHG2 PLEKHG3 MCF2 MYO10 CIT FARP1 TIAM1 TBC1D2 SNTB1 TIAM2 PLEKHO1 PLEKHO2 PHLPP1 PLEK CYTH4 CYTH3 OPHN1 MPRIP PLEKHH1 APPL1 PLEKHH2 SNTA1 CYTH2 APPL2 CYTH1 
15.208062,1.5185765,7.5887876,8.732188,PHD,PHF10 PHF13 PHF12 MTF2 KAT6B KAT6A PHF14 PHF19 KDM5A KDM5B INTS12 KDM5C KDM5D PHF23 CHD5 CHD4 CHD3 PHRF1 PYGO1 BPTF BAZ1A BAZ1B PYGO2 SP140L TRIM33 KDM7A TAF3 DIDO1 PHF3 KMT2E AIRE KMT2B UHRF2 KMT2A PHF2 UHRF1 KMT2D PHF1 KMT2C BAZ2A PHF21A CXXC1 BAZ2B PHF8 RSF1 PHF21B DPF1 DPF2 DPF3 TRIM28 TRIM66 TRIM24 
15.177034,1.8841296,7.471544,9.149037,PHR,BTBD2 BTBD1 MYCBP2 BTBD3 BTBD6 
15.70229,0.5465117,7.666544,9.144404,PH 12,PLCL1 PLCL2 ELMO1 ELMO2 ELMO3 PLCH2 
15.771142,0.8222642,6.7353597,9.875899,PH BEACH,LRBA NBEAL1 NBEAL2 NBEA WDFY3 LYST 
15.203616,1.4417498,6.81734,10.452002,PI3K C2,PIK3CB PIK3CA PIK3CD PIK3C3 PIK3C2B PIK3C2A PIK3CG 
15.093581,1.3749276,7.1940584,9.5904455,PID,GULP1 MAPK8IP1 MAPK8IP2 TBC1D1 TBC1D4 DAB2 NOS1AP DAB1 APBA2 APBA1 APBA3 NUMB RABGAP1 SHC3 SHC4 SHC1 SHC2 APBB1 APBB3 LDLRAP1 APBB2 ANKS1B APPL1 NUMBL ANKS1A APPL2 
14.00384,0.27580646,7.2815337,9.582622,PKD,PKD1 PMEL GPNMB PKD1L1 SORCS2 SORCS1 SORCS3 
12.75153,1.3967066,9.376978,11.026956,PLAC,ADAMTSL2 ADAMTSL1 ADAMTS16 ADAMTS6 ADAMTSL4 PAPLN ADAMTS18 ADAMTSL3 PCSK6 THSD4 ADAMTS10 
13.777492,0.42696512,7.415237,9.996107,PLAT,PNLIPRP2 PNLIPRP3 PKD1 PNLIPRP1 LPL ALOX15 PKD1L1 PKD1L2 PKDREJ PKD1L3 ALOX12B ALOX12 LIPC LOXHD1 ALOX15B LIPG ALOX5 DENND5B DENND5A ALOXE3 PNLIP 
15.258966,0.49429417,7.794272,8.805065,PP-binding,ALDH1L2 ALDH1L1 AASDH FASN NDUFAB1 
13.357186,1.8002329,9.264608,9.710523,PSI integrin,ITGB2 ITGB1 ITGB6 ITGB5 ITGB4 ITGB3 ITGB8 ITGB7 
14.863351,0.70608944,7.8885236,10.626261,PWWP,ZMYND8 MBD5 BRPF1 HDGFL1 BRD1 BRPF3 DNMT3A DNMT3B PSIP1 ZCWPW2 NSD1 ZCWPW1 NSD2 MSH6 NSD3 PWWP2A PWWP3B PWWP2B HDGF ZMYND11 HDGFL2 HDGFL3 GLYR1 
14.186698,0.17997102,7.876541,9.140875,PX,NISCH ARHGAP32 KIF16B NCF1 SGK3 NCF1C NOXO1 SNX33 NCF1B PLD2 SNX31 PLD1 SNX32 SNX30 SNX4 SNX5 SNX2 SNX3 SH3PXD2B SNX1 SNX29 SH3PXD2A SNX27 PXDC1 RPS6KC1 SNX8 SNX9 SNX6 SNX7 SNX24 SNX25 SNX22 SNX20 SNX21 SNX19 SNX17 SNX18 SNX15 SNX16 PXK NCF4 SNX13 SNX14 SNX11 PIK3C2G SNX12 PIK3C2B SNX10 PIK3C2A HS1BP3 
14.440881,0.53853357,6.722214,10.474509,PYRIN,MEFV PYHIN1 PYCARD NLRP14 AIM2 NLRP13 NLRP9 NLRP12 NLRP7 NLRP11 NLRP10 IFI16 NLRP8 NLRP5 NLRP6 NLRP3 PYDC1 MNDA NLRP4 PYDC2 NLRP1 NLRP2 
14.541422,0.36306188,7.537031,10.03517,Pentaxin,APCS ADGRG4 CRP ADGRD2 ADGRG6 NPTX1 PTX4 PTX3 SVEP1 NPTX2 NPTXR MPTX1 
13.057223,-0.11631286,9.231563,11.126106,Pepdidase M14 N,AGBL5 AGTPBP1 AGBL2 AGBL1 AGBL4 AGBL3 
15.095191,1.1476984,7.2724724,9.39769,Peptidase C1,CTSB TINAGL1 CTSZ CTSW CTSV CTSS CTSO CTSL CTSK CTSH TINAG CTSF CTSC 
14.561047,0.37889883,6.7169127,9.999588,Peptidase C48,SENP7 SENP8 SENP5 SENP6 SENP3 SENP1 SENP2 
15.29448,0.7557595,6.811619,9.744453,Peptidase M1,ENPEP RNPEPL1 ERAP1 LVRN ERAP2 LNPEP TRHDE NPEPPSL1 NPEPPS ANPEP AOPEP RNPEP LTA4H 
15.433909,0.6272009,7.195189,10.42953,Peptidase M10,MMP7 MMP8 MMP1 MMP2 MMP3 MMP9 MMP20 MMP11 MMP21 MMP10 MMP24 MMP13 MMP12 MMP15 MMP26 MMP14 MMP25 MMP17 MMP28 MMP16 MMP27 MMP19 MMP23B 
13.044962,0.81185347,7.26514,10.024535,Peptidase M14,CPA4 CPO CPA3 CPA2 AGTPBP1 CPA1 CPB2 CPB1 AEBP1 CPZ CPN1 AGBL5 AGBL2 AGBL1 AGBL4 CPE AGBL3 CPD CPXM2 CPXM1 CPA6 CPM CPA5 
15.104854,0.81747574,7.2374477,9.279075,Peptidase M16 C,PITRM1 NRDC UQCRC2 IDE UQCRC1 PMPCB PMPCA 
14.833282,0.43955877,7.055259,9.355588,Peptidase M24,METAP1D SUPT16H XPNPEP1 XPNPEP2 XPNPEP3 PA2G4 METAP1 PEPD METAP2 
15.66324,0.8851599,7.091927,9.869306,Peptidase S24,IMMP1L SEC11A IMMP2L SEC11C SEC11B 
13.039691,1.0521172,7.0199113,10.352101,Peptidase S8,MBTPS1 PCSK2 PCSK1 FURIN TPP2 PCSK9 PCSK7 PCSK6 PCSK5 PCSK4 
13.395138,1.8911444,7.494149,9.261522,Peptidase S9,DPP10 DPP6 DPP8 PREPL DPP9 FAP PREP DPP4 APEH 
14.924432,0.65963566,8.203716,10.565644,Phospholip A2 1,PLA2G2E PLA2G2F PLA2G2C PLA2G1B PLA2G2D PLA2G2A PLA2G10 PLA2G5 OC90 
15.257105,1.1221129,7.398099,10.082966,Pkinase,CDK18 CDK19 DCLK3 MAPK15 PASK DCLK2 MAPK13 DCLK1 MAPK14 MAPK11 MAPK12 MAPK10 CDK10 ULK4 ULK3 SIK2 ULK2 CDK12 ULK1 SIK3 CDK13 CDK14 SIK1 CDK15 CDK16 CDK17 PRKAA2 PRKAA1 UHMK1 NUAK2 CHEK1 CSNK1D AKT3 CHEK2 CDK20 AKT1 STK38L AKT2 SRPK3 PRKCH PLK4 PRKCG PRKCI DMPK PRKCD PLK1 PLK3 PLK2 PRKCE PRKCB CSNK1E PRKCA MASTL NUAK1 SRPK1 SRPK2 LATS2 LATS1 PRKCZ WNK1 WNK2 WNK3 WNK4 PRKD1 PRKD3 PRKCQ PRKD2 TTBK1 TRIO NLK TTBK2 MYLK PRKACG TBK1 PRKACB PRKACA CSNK1A1 RPS6KL1 STRADA RIPK4 STRADB RIPK3 CDC7 ICK PDIK1L CAMK4 CAMK1 SGK2 SGK3 STK40 SGK1 KALRN STK33 STK35 STK36 STK38 CAMKV STK39 PBK STK31 CDKL3 MAP4K2 MAP4K3 CDKL4 CDKL5 MAP4K1 CSNK2A2 CSNK2A1 CSNK2A3 CIT GAK STK17A STK17B TAOK2 TAOK3 TSSK6 PKN1 NEK11 TAOK1 NEK10 PKN3 TSSK4 PKN2 TSSK2 TSSK3 CDKL1 CDKL2 RNASEL CAMKK1 CAMKK2 IKBKB IKBKE MAP4K4 MAP4K5 MAP3K3 MAP3K4 MAP3K1 MAP3K2 VRK1 PRPF4B MOK VRK2 VRK3 HIPK2 HIPK1 HIPK4 NRBP2 HIPK3 ERN1 ERN2 MOS MELK OBSCN PINK1 MAPKAPK5 MAPKAPK2 MAPKAPK3 TNIK PNCK ROCK1 ROCK2 PRAG1 NRK AURKA PRKY PRKX AURKC AURKB SLK PAK2 PAK1 MAP3K9 PAK4 PAK3 MAP3K8 MAP3K5 PAK6 PSKH1 MAP3K6 PSKH2 PAK5 MAP2K4 NEK9 MAP2K5 MAP2K2 MAP2K3 NEK5 NEK6 MAP2K1 NEK7 NEK8 DYRK1B MINK1 CASK DYRK1A MAP3K19 TBCK STK24 STK25 STK26 MAK BMP2K MAP3K14 MAP3K15 BRSK1 BRSK2 DYRK4 DYRK3 AMHR2 DYRK2 PKMYT1 STK10 STK11 STK16 SIK1B MARK1 NEK1 PIM2 NEK2 PIM1 NEK3 PIM3 NEK4 MARK4 MAP2K6 MARK3 MAP2K7 MARK2 EIF2AK2 CDC42BPG EIF2AK1 EIF2AK4 EIF2AK3 HUNK CDC42BPB CDC42BPA TGFBR1 ACVR2B CLK4 ACVR2A CLK3 CLK2 CLK1 CDK9 CDK8 CDK7 CDK6 CDK5 MYO3A CDK4 MYO3B CDK3 CDK2 CDK1 AAK1 MAST1 RSKR BMPR2 GSK3B GSK3A LRRK1 MAST4 MAST3 NIM1K MAST2 LRRK2 TSSK1B PIK3R4 STK3 STK4 GRK2 GRK1 GRK4 GRK3 GRK6 IRAK2 MKNK1 IRAK3 GRK5 MKNK2 IRAK1 GRK7 RPS6KC1 PRKG2 PRKG1 CAMK1D CDK11B CDK11A DAPK2 DAPK1 CHUK PDPK1 DAPK3 OXSR1 PDPK2P SBK3 WEE1 CSNK1A1L SBK1 WEE2 SBK2 RPS6KB2 RPS6KB1 SNRK PEAK1 CSNK1G1 TRIB2 CAMK1G TRIB3 CSNK1G3 CSNK1G2 TRIB1 MYLK2 CAMK2D MYLK3 CAMK2A CAMK2B TTK STKLD1 TTN ACVR1B MYLK4 RPS6KA5 RPS6KA4 MAPK9 RPS6KA6 MAPK8 STK32A RPS6KA1 PHKG2 PHKG1 RPS6KA3 RPS6KA2 SPEG MAPK3 TLK2 TLK1 MAPK1 SCYL1 STK32B MAPK7 CAMK2G STK32C MAPK6 BUB1 SCYL2 MAPK4 
14.757931,0.8656531,7.764447,9.463655,Pkinase Tyr,EPHA6 ACVR1 EPHA5 PDGFRB EPHA8 PDGFRA RYK EPHA7 MATK NRBP1 TEC AXL TEK ROR2 ANKK1 EPHA2 ROR1 EPHA1 EPHA4 RAF1 FRK EPHA3 TESK1 TESK2 MST1R ARAF EGFR KDR MUSK MAP3K7 YES1 INSR SRMS TNK2 TEX14 PTK7 PTK6 PTK2 MAP3K10 FGFR1 BTK MAP3K11 FGFR4 FGFR3 MAP3K12 FGFR2 MAP3K13 CSF1R BLK EPHA10 TXK IGF1R DSTYK ABL2 TNK1 ABL1 MLKL ROS1 LYN INSRR KSR2 LIMK1 KSR1 LIMK2 IRAK4 BRAF TYK2 MERTK BMX TGFBR2 FES FER ITK BMPR1A BMPR1B ALK GUCY2D DDR2 GUCY2C RET ACVRL1 DDR1 GUCY2F NPR1 NPR2 ILK AATK ERBB4 ERBB2 ERBB3 MAP3K21 RIPK2 RIPK1 MAP3K20 NTRK2 NTRK3 NTRK1 STYK1 SYK TIE1 LMTK3 TNNI3K LMTK2 HCK FGR ZAP70 LCK KIT TYRO3 POMK MET EPHB6 SRC FLT1 LTK FLT3 FLT4 ACVR1C PTK2B EPHB1 CSK FYN JAK3 EPHB3 EPHB2 JAK1 EPHB4 JAK2 
13.171765,2.0521607,9.780091,10.054154,Pou,POU1F1 POU2F1 POU2F2 POU3F1 POU3F2 POU2F3 POU4F1 POU3F3 POU4F2 POU5F1 POU3F4 POU5F2 POU6F1 POU4F3 POU6F2 POU5F1B 
13.584875,-0.13396777,8.954161,11.0489025,Pribosyl synth,PRPSAP2 PRPS2 PRPSAP1 PRPS1 PRPS1L1 
15.113209,0.49981934,7.2654963,10.069195,Pribosyltran,PPAT HPRT1 UMPS PRTFDC1 APRT 
14.495554,1.6797223,7.5716124,10.2191515,Pribosyltran N,PRPSAP2 PRPS2 PRPSAP1 PRPS1 PRPS1L1 
14.851195,1.4087927,7.3550434,10.027953,Pro isomerase,RANBP2 PPIL1 PPIL2 PPIL3 CWC27 PPWD1 PPIA PPIG PPIF PPIAL4A PPIAL4D PPIH PPIAL4C PPIL4 PPIC PPIAL4F PPIB PPIAL4E PPIE NKTR PPIL6 PPIAL4H PPID PPIAL4G 
14.631497,0.67181176,7.1858296,9.779393,Propep M14,CPA4 CPA3 CPA2 CPA1 CPB2 CPB1 CPA6 CPA5 
14.672235,1.2129194,7.845309,10.094097,Prot ATP ID OB,PSMC6 PSMC4 PSMC5 PSMC3 PSMC1 
14.495019,1.6389227,7.4031262,10.46151,Proteasome,PSMB11 PSMB9 PSMA8 PSMB10 PSMB7 PSMA6 PSMA7 PSMB8 PSMA4 PSMB5 PSMA5 PSMB6 PSMB3 PSMA2 PSMB4 PSMA3 PSMB1 PSMB2 PSMA1 
15.268403,1.2993193,8.154114,10.347428,Proteasome A N,PSMA6 PSMA7 PSMA4 PSMA5 PSMA2 PSMA3 PSMA1 PSMA8 
14.580793,0.43169606,7.4742455,10.271802,Pyr redox 2,PYROXD1 GSR AIFM2 TXNRD3 AIFM3 DPYD TXNRD2 SQOR AIFM1 TXNRD1 FDXR DLD 
14.419437,1.0201997,8.067287,10.182348,Pyr redox dim,GSR TXNRD3 TXNRD2 TXNRD1 DLD 
14.004692,0.522952,7.763152,9.560174,Pyridoxal deC,SGPL1 DDC PDXDC2P GAD2 PDXDC1 GAD1 HDC GADL1 CSAD 
13.902454,0.5264553,7.7177243,9.358495,R3H,NFX1 NKRF R3HCC1 SPAG7 YTHDC2 PARN IGHMBP2 ARPP21 R3HDM2 R3HDM1 R3HDM4 
14.802803,0.42744035,7.6547823,10.245388,RA,MYO10 RASSF8 ARAP3 ARAP1 ARAP2 MYO9A MYO9B AFDN APBB1IP RADIL DGKQ RAPGEF2 RIN2 RAPGEF6 RGL2 RGL3 GRB7 RGL1 RIN1 PLEKHH3 RAPH1 RASIP1 RASSF1 RASSF2 ARHGAP20 RASSF3 RASSF4 RASSF5 RASSF6 GRB14 SNX27 RASSF7 PLCE1 GRB10 RALGDS 
14.333412,0.40044534,7.3096633,10.32014,RAP,FASTKD1 FASTKD2 FASTKD3 FASTK FASTKD5 TBRG4 
14.505707,2.075163,7.707878,10.349331,RAWUL,RNF2 PCGF5 RING1 PCGF3 PCGF1 PCGF2 BMI1 
14.711233,1.4737197,7.5719423,9.562678,RBD,RGS14 RGS12 BRAF ARAF TIAM1 RAF1 
14.944588,0.9553662,7.6951966,10.113448,RDM,RFPL4A RFPL1 RFPL2 RFPL3 RFPL4AL1 
14.888965,0.36906043,7.4989023,9.451724,RFX DNA binding,RFX7 RFX8 RFX5 RFX6 RFX3 RFX4 RFX1 RFX2 ARID2 
14.378988,0.42791358,7.324532,9.997196,RGS,AXIN2 SNX25 AXIN1 RGS11 RGS10 RGS13 RGS12 RGS19 RGS18 RGS14 RGS17 RGS16 RGSL1 SNX13 SNX14 RGS5 GRK2 GRK1 RGS6 RGS3 GRK4 RGS4 GRK3 GRK6 RGS1 RGS2 GRK5 GRK7 RGS22 RGS21 RGS9 AKAP10 RGS7 RGS20 RGS8 
14.614925,0.9545895,7.397099,9.776052,RHD DNA bind,RELA NFAT5 NFATC4 NFATC3 REL NFATC2 NFATC1 NFKB1 RELB NFKB2 
14.138621,0.7224561,7.599309,9.829114,RHD dimer,RELA NFAT5 NFATC4 NFATC3 REL NFATC2 NFATC1 NFKB1 RELB NFKB2 
14.701921,1.3833915,7.7177787,9.67468,RIIa,CABYR PRKAR1B PRKAR1A PRKAR2B PRKAR2A SPA17 RIIAD1 
14.529424,0.7814537,8.30348,10.26823,RINGv,MARCH3 MARCH2 MARCH1 MARCH9 MARCH8 MARCH7 MARCH10 MARCH6 MARCH5 MARCH4 MARCH11 
14.808,0.72045845,7.9733353,10.702716,RNase H,ERVK-6 ERVK-11 HERVK_113 ERVK-7 ERVK-10 ERVK-8 ERVK-25 ERVK-19 ERVK-18 RNASEH1 
14.763338,1.8669412,7.7678037,10.271137,RNase PH,EXOSC8 EXOSC7 EXOSC6 PNPT1 EXOSC5 EXOSC9 EXOSC4 
15.134599,0.8640229,7.9736295,10.323461,RNase PH C,EXOSC8 EXOSC7 PNPT1 EXOSC5 EXOSC9 EXOSC4 
14.982231,0.68476856,8.478253,10.365408,RNase Zc3h12a,ZC3H12D ZC3H12A ZC3H12C ZC3H12B NYNRIN KHNYN N4BP1 
14.723367,0.4186015,7.4538946,9.964584,RRM 1,SSB RBMY1A1 RBFOX1 RBFOX2 RBFOX3 LARP7 HNRNPM HNRNPL HNRNPF HNRNPC HNRNPD SF3B6 SF3B4 EWSR1 HNRNPR UHMK1 TIAL1 MTHFSD RBM15B SCAF8 PABPN1 PPARGC1A RALY PPARGC1B RNPS1 HNRNPA1L2 DAZ4 DAZ3 DAZ2 PABPN1L DAZ1 HTATSF1 HNRNPLL SYNCRIP RAVER2 RAVER1 SNRNP70 CSTF2 ZRSR2 RBMY1F PABPC5 RBMY1J A1CF RBM12B DAZL NCBP2L SLTM PABPC3 PABPC4 PABPC1 TUT1 RBMY1E RBMY1D RBMY1C RBMY1B HNRNPCL1 HNRNPCL2 DAZAP1 HNRNPCL3 HNRNPCL4 RBM8A BOLL PPRC1 DND1 SAFB2 MYEF2 SCAF4 HNRNPA2B1 HNRNPH1 HNRNPH2 HNRNPH3 SRSF10 SRSF11 SRSF12 RBPMS2 CPSF6 CPSF7 ALYREF HNRNPAB SNRPA RBMXL3 RBMXL2 CNOT4 SRSF3 SRSF4 SRSF5 SRSF6 PPIL4 SRSF7 SREK1 TARDBP SRSF8 PPIE SRSF9 SRSF1 SRSF2 NOL8 RBM4B RBMXL1 ZRSR2P1 PABPC1L2A PABPC1L2B TIA1 ZCRB1 NONO RBPMS DNAJC17 RALYL PSPC1 NCL TDRD10 MSI1 MSI2 RDM1 RBMX2 G3BP1 G3BP2 HNRNPDL NELFE PABPC4L RBM17 RBM18 RBM15 FUS SETD1A NCBP2 RBM19 SETD1B TRNAU1AP REXO5 SAFB SFPQ ZNF638 RBMS1 RBMS2 RBM24 GRSF1 RBM25 RBMS3 RBM22 TNRC6C RBM23 EIF4B CELF1 CELF2 CELF3 CELF4 CELF5 CELF6 RNPC3 ELAVL1 ELAVL2 U2AF1L4 ELAVL3 ELAVL4 U2AF1L5 PTBP1 PTBP2 RBM10 EIF4H RBM14 RBM11 RBM12 RBM39 TAF15 RBM38 SPEN CIRBP ENOX1 PTBP3 ENOX2 U2SURP RBM42 SLIRP PABPC1L EIF3G RBM41 RBM46 RBMX RBM47 RBM44 EIF3B RBM45 RBM28 POLDIP3 U2AF2 U2AF1 CSTF2T RBM4 RBM5 SART3 RBM3 TRA2A PUF60 TRA2B IGF2BP2 IGF2BP1 SNRPB2 IGF2BP3 NIFK HNRNPA3 SNRNP35 HNRNPA0 RBM34 RBM7 HNRNPA1 
13.853468,0.5031448,8.327931,10.255667,RRM 8,PTBP1 PTBP2 HNRNPL PTBP3 HNRNPLL 
14.609864,0.95385844,8.110099,8.815507,RVP,ERVK-6 HERVK_113 ERVK-7 ERVK-21 ERVK-10 ERVK-8 ERVK-24 ERVK-9 ERVK-25 ERVK-19 HERV-K104 ERVK-18 
14.486912,1.6143528,8.324888,10.257776,RVT thumb,ERVK-6 ERVK-11 HERVK_113 ERVK-7 ERVK-10 ERVK-8 ERVK-25 ERVK-19 ERVK-18 
14.412955,1.2876141,7.84205,9.190989,RWD,RWDD3 IMPACT RWDD4 RWDD2B RNF25 RWDD2A RNF14 DHX57 RWDD1 EIF2AK4 
14.961234,1.1406754,7.8404446,10.204842,Rab bind,RGPD1 RGPD6 GCC2 RGPD8 RGPD3 RGPD2 RGPD5 RGPD4 
14.584451,1.1951545,7.9418883,10.198029,Rad51,RAD51C RAD51B RAD51 RAD51D XRCC3 DMC1 XRCC2 
14.064441,0.84168476,8.258043,10.633415,Radical SAM,RSAD1 RSAD2 CDK5RAP1 TYW1 ELP3 TYW1B MOCS1 LIAS CDKAL1 
14.3974,0.47716826,8.097162,10.399482,Ras,RAB2B RAB2A RASL10B RASL10A RAB30 RAB34 RAB31 RAB32 RHEBL1 RAB37 RAB38 RAB35 RAB36 RAN RAB1A RAB1B RALB RALA RASL11A RAB1C RASL11B DNAJC27 ARHGAP35 REM1 RAB23 NRAS REM2 RAB40A RAB20 RASD1 RAB40B RASD2 RAB21 RAB40C RAB26 RAB24 RAB25 RAB28 RAB29 RAB4B RABL2A RAB39A RAB27A RAB39B RABL2B RAB27B GEM RHEB RAB5A RAB5B RAB40AL IFT27 RAB3C RAB3D RAB3A RAB3B RASEF RERGL RHOBTB1 RAB41 RHOBTB2 ARHGAP5 RHOBTB3 RAB44 RAB42 RAB43 RAB4A RHOA RAB6D RHOH RHOF CPLANE2 RHOG RHOD RAB33A RAP2A RAB33B RHOB RHOC RHOQ RAP2B MRAS RAP2C RHOJ RHOV RHOU ERAS RAB7A RAB7B RASL12 RAB5C RRAD AGAP3 AGAP2 AGAP1 RHOT1 RAP1A RAP1B RHOT2 NKIRAS1 NKIRAS2 RRAS2 RRAS RAB6B RAB6C RAB6A RAB11A RAB11B CDC42 RAB12 RIT2 RAB10 RAB15 RIT1 RAB13 RAB14 RAB19 RAB9A RAB9B RAB17 KRAS RAB18 RERG DIRAS1 DIRAS2 DIRAS3 RND3 RAB22A RND1 RND2 RAC3 RAB8A RAC1 HRAS RAC2 RAB8B 
14.494217,1.1880417,8.451247,10.566242,RasGEF N,RASGRF1 RASGRF2 KNDC1 RASGRP2 RASGRP1 RASGEF1A RASGEF1B RASGEF1C RAPGEF2 RAPGEF3 RAPGEF1 RALGDS RAPGEF6 SOS2 RGL2 RGL3 RAPGEF4 RGL1 RAPGEF5 SOS1 
13.885349,0.546521,8.665315,8.970515,Recep L domain,INSR INSRR ERBB4 ERBB2 ERBB3 EGFR IGF1R 
13.461474,1.8996364,8.324038,10.938383,Reprolysin,ADAM12 ADAMTS20 ADAM11 ADAM33 ADAM32 ADAM30 ADAM19 ADAM2 ADAM18 ADAM7 ADAM15 ADAM9 ADAM8 ADAMDEC1 ADAM23 ADAM22 ADAM21 ADAM20 ADAMTS13 ADAMTS12 ADAMTS10 ADAMTS17 ADAMTS5 ADAMTS16 ADAMTS6 ADAMTS3 ADAM29 ADAMTS15 ADAMTS4 ADAMTS14 ADAM28 ADAMTS1 ADAMTS2 ADAMTS19 ADAMTS18 ADAMTS9 ADAMTS7 ADAMTS8 
14.374881,0.75840324,7.998548,10.583571,RhoGAP,RALBP1 STARD8 ARAP3 OCRL ARHGAP29 ARAP1 ARAP2 ARHGAP28 ARHGAP27 GMIP ARHGAP26 ARHGAP25 ARHGAP24 ARHGAP33 ARHGAP32 DEPDC1B ARHGAP31 ARHGAP30 BARGIN PIK3R2 ARHGAP39 ARHGAP36 ARHGAP35 ARHGAP45 ARHGAP44 ARHGAP42 ARHGAP40 SH3BP1 RACGAP1 STARD13 MYO9A MYO9B ARHGAP12 BCR ARHGAP10 PIK3R1 DLC1 ARHGAP11B ARHGAP8 ARHGAP11A ARHGAP9 FAM13A FAM13B ARHGAP19 ARHGAP18 ARHGAP1 ARHGAP17 ARHGAP6 ARHGAP15 ARHGAP4 ARHGAP5 ABR ARHGAP23 ARHGAP22 SYDE2 ARHGAP21 SYDE1 INPP5B ARHGAP20 TAGAP CHN2 OPHN1 CHN1 SRGAP3 SRGAP2 SRGAP1 
14.039245,0.69774586,8.895782,9.205968,RhoGEF,ARHGEF33 ECT2L ARHGEF38 ARHGEF37 ARHGEF39 VAV1 VAV2 VAV3 OBSCN SPATA13 ARHGEF4 ARHGEF5 ARHGEF2 ARHGEF3 SOS2 NGEF ARHGEF9 ARHGEF6 ARHGEF7 SOS1 RASGRF1 ARHGEF1 RASGRF2 ARHGEF10L FGD1 KALRN FGD2 FGD3 FGD4 PREX2 FGD5 FGD6 MCF2L PREX1 PLEKHG4B ECT2 ARHGEF40 ARHGEF12 PLEKHG4 FARP2 ARHGEF11 PLEKHG5 PLEKHG2 PLEKHG3 ARHGEF16 MCF2 ARHGEF15 PLEKHG6 ARHGEF18 ARHGEF17 PLEKHG7 ARHGEF19 FARP1 TIAM1 BCR TIAM2 DNMBP ALS2 NET1 PLEKHG1 ARHGEF10 ARHGEF25 TRIO ARHGEF26 ITSN1 ITSN2 ARHGEF28 AKAP13 ABR MCF2L2 
14.5371065,0.37710544,7.4871564,9.999487,Rhodanese,DUSP5 DUSP6 USP8 MOCS3 DUSP4 TSTD2 DUSP1 DUSP2 TSTD3 TSTD1 MPST CDC25A DUSP16 DUSP9 CDC25B DUSP7 STYXL1 DUSP8 CDC25C DUSP10 TBCK TST TBC1D23 CEP41 
14.629552,0.9224559,7.414003,10.52386,Ribosomal L7Ae,RPL30 GADD45B GADD45A SECISBP2L SECISBP2 GADD45G RPS12 SNU13 RPL7A NHP2 RPP38 
14.783093,1.2979227,7.478094,9.760137,Ricin B lectin,GALNT13 GALNT8 CRYBG1 GALNT12 GALNT7 GALNT6 CRYBG3 GALNT15 GALNT5 GALNT14 CRYBG2 GALNT4 GALNT17 GALNT3 GALNT16 GALNT2 GALNT1 GALNT18 GALNT11 GALNT10 MRC1 GALNTL6 GALNT9 
14.032073,0.38713512,7.7804875,10.387647,RnaseA,RNASE12 RNASE11 RNASE10 RNASE7 RNASE6 EDDM3A EDDM3B RNASE4 RNASE13 RNASE3 RNASE2 RNASE1 RNASE9 RNASE8 ANG 
14.513132,0.28575578,7.649217,9.657429,S1,PNPT1 SUPT6H DHX8 PDCD11 SRBD1 POLR2G ZCCHC17 EIF2S1 
14.91144,2.1410575,7.7514668,10.00673,S8 pro-domain,PCSK2 PCSK1 FURIN PCSK7 PCSK6 PCSK5 PCSK4 
14.460796,0.47539192,7.918096,10.346383,SAM 1,EPHA6 EPHA5 EPHA8 EPHA7 SFMBT1 SFMBT2 SAMD4B ARAP1 KAZN ARAP2 DDHD2 BFAR SAMD4A BICC1 SHANK1 ANKS6 ANKS4B EPHA2 EPHA1 SHANK3 SHANK2 SAMD7 SAMD8 L3MBTL4 L3MBTL3 ANKS3 INPPL1 CASKIN1 CASKIN2 PPFIA2 PPFIA1 SAMD1 MAP3K20 ANKS1B SAMD13 SASH1 SAMD3 ANKS1A PPFIA4 PPFIA3 SAMD5 PHC1 PHC3 PHC2 KIF24 CNKSR3 CNKSR2 CNKSR1 PPFIBP2 SEC23IP EPHA10 USH1G PPFIBP1 CNK3/IPCEF1 SCML1 SCML2 SCMH1 SCML4 EPHB1 EPHB3 EPHB2 EPHB4 
14.479477,2.11395,9.127101,9.494528,SAM 2,STARD13 ARAP3 KAZN TP73 PPFIBP2 STIM1 STIM2 DLC1 SARM1 LCP2 EPHA4 EPHA3 DGKH EPHB6 SAMD9 DGKD TNKS WDSUB1 TNKS2 SAMSN1 LRSAM1 PPP1R9A PPFIBP1 SAMHD1 SAMD15 ASZ1 PPFIA2 SAMD10 PPFIA1 SASH1 SAMD14 ANKS1A PPFIA4 SAMD11 PPFIA3 SASH3 SAMD12 TP63 
14.295392,1.2726287,7.6709414,9.871469,SAM PNT,SPDEF ELF3 EHF ELF5 ERG ETS1 FLI1 ETS2 ETV6 GABPA ETV7 
14.793739,1.2464617,8.273647,10.095366,SCAN,ZNF287 ZSCAN5B ZNF165 ZSCAN5A ZNF483 ZNF75CP PEG3 ZSCAN5C ZNF75D MZF1 ZSCAN21 ZSCAN20 ZSCAN23 SCAND2P ZSCAN22 ZSCAN25 ZSCAN4 ZSCAN26 ZSCAN29 ZSCAN1 ZSCAN2 ZNF397 ZNF232 ZNF396 ZNF197 ZNF274 ZNF394 ZSCAN9 ZSCAN5DP ZSCAN10 ZSCAN12 SCAND1 ZSCAN16 ZSCAN18 ZNF500 ZNF18 ZNF263 ZFP69B ZNF215 ZNF213 ZNF496 ZBED9 ZNF174 ZNF24 ZSCAN30 ZKSCAN8 ZSCAN32 ZSCAN31 ZKSCAN7 ZKSCAN4 ZKSCAN3 ZNF449 ZKSCAN5 ZNF446 ZNF445 ZKSCAN2 ZNF202 ZNF444 ZKSCAN1 PGBD1 
14.450562,0.30160403,8.019182,10.378406,SH2,MATK TEC CLNK PTPN6 FRK SLA INPPL1 CRKL SH3BP2 GRB14 SH2B1 STAT6 GRAP2 GRB10 SH2B3 SH2B2 YES1 STAT5B SRMS CISH SH2D1A SH2D1B PTK6 PIK3R1 GRAP BTK GRB2 GRB7 GRAPL BLK TXK DAPP1 SLA2 TNS1 INPP5D ABL2 PLCG1 ABL1 PLCG2 SH2D7 TNS4 SH2D6 TNS3 STAT5A TNS2 LYN SH2D3A SH2D3C PTPN11 BMX VAV1 VAV2 VAV3 RASA1 FES FER LCP2 ITK BCAR3 SHC3 SHC4 SHC1 SH2D2A SHC2 PIK3R3 PIK3R2 SHB SHE SHD SOCS3 SHF SOCS4 SOCS1 SOCS2 STAP1 BLNK SOCS7 SOCS5 SOCS6 STAT1 SYK STAT2 STAT3 STAT4 HCK FGR ZAP70 LCK HSH2D CRK SRC SH2D4A SH2D4B CHN2 CHN1 CSK FYN NCK1 NCK2 JAK2 
14.493354,0.67530006,8.110751,10.5571375,SH3 1,ARHGEF37 MATK TEC ABI1 SPATA13 NCF1 STAM2 NGEF SKAP1 SKAP2 FRK SLA NCF1C NCF1B FNBP1L CRKL CD2AP SH3TC1 ASAP1 SH3TC2 NPHP1 GRAP2 OSTF1 YES1 STAC STAM PTK6 FCHSD2 DLG1 DNMBP DLG3 DLG4 NOXA1 GRAP BTK GRB2 GRAPL BLK DOCK5 ARHGAP9 NCF2 TRIO NCF4 ITSN1 TXK ITSN2 ARHGAP4 SLA2 EPS8 ABL2 PLCG1 ABL1 PLCG2 TP53BP2 SRGAP3 SH3GL1 SRGAP2 SRGAP1 LYN VAV1 AHI1 RASA1 ARHGEF4 ARHGEF9 ITK BCAR1 NOXO1 SPTA1 NCKIPSD SH3PXD2B SH3PXD2A SNX9 PACSIN2 PRMT2 SORBS1 SORBS3 SORBS2 HCK MYO1E FGR SH3RF3 LCK STAC3 SGSM3 HCLS1 CRK TRIP10 SRC PPP1R13B SH3YL1 SH3RF2 SH3RF1 EPS8L1 EPS8L2 EPS8L3 CSK FYN SH3D19 SPTAN1 NCK1 NCK2 
14.572442,0.3360735,8.516534,9.22389,SH3 2,OTOR ARHGEF38 ARHGEF37 MYO7B VAV2 VAV3 SHANK1 ARHGAP33 RIMBP3 RIMBP2 SHANK3 SHANK2 ARHGEF7 CRKL SH3PXD2B CASKIN1 SH3BP4 CASKIN2 TSPOAP1 SASH1 SASH3 MPP2 FYB1 MPP5 MIA MPP1 SORBS1 CASK MPP6 MPP7 TJP2 TJP1 DNMBP DLG2 MYO15B SH3D21 MYO15A STAC3 CRK TJP3 ITSN2 MIA2 ZDHHC6 MIA3 SAMSN1 SH3RF2 RUSC2 SH3D19 SH3GL3 RIMBP3C SH3GL2 RIMBP3B 
14.261025,0.5007105,7.6449375,10.213585,SH3 9,SH3GLB2 SH3GLB1 FNBP1 ARHGEF38 NEB PEX13 BAIAP2 ARHGAP26 MAPK8IP1 MAPK8IP2 ARHGAP32 ABI3 ABI2 RIMBP3 ARHGEF5 CASS4 RIMBP2 GAS7 DOCK1 ARHGEF6 SNX33 ASAP2 NEDD9 BAIAP2L1 CD2AP PSTPIP1 LASP1 FUT8 BAIAP2L2 ARHGAP42 SH3BP4 PACSIN3 MAP3K21 MAP3K9 UBASH3A TSPOAP1 UBASH3B PACSIN1 SRMS DBNL NEBL ARHGEF16 TNK2 SORBS1 ARHGEF19 SORBS3 SORBS2 FCHSD2 ARHGAP12 SH3RF3 MYO1F FCHSD1 DNMBP ARHGAP10 CTTN SNX18 STAC2 BIN1 MAP3K10 NOSTRIN MAP3K11 AMPH ARHGEF26 SH3KBP1 ITSN1 ITSN2 SH3RF2 SH3RF1 EFS PPP1R13L RUSC1 SH3D19 NCK1 RIMBP3C NCK2 RIMBP3B 
14.760592,1.071304,8.138373,10.49464,SIX1 SD,ANHX SIX5 SIX6 SIX3 SIX4 SIX1 SIX2 
14.187026,0.65864736,8.241936,10.330081,SLED,SCML2 SCMH1 SFMBT1 SFMBT2 SCML4 
14.855242,0.62009954,7.8740826,10.041568,SMC N,SMC4 SMC1B SMC1A SMC5 SMC2 SMC3 
14.202931,0.53832424,8.168962,9.324983,SMC hinge,SMCHD1 SMC4 SMC1B SMC1A SMC2 SMC3 
14.410825,0.6757382,7.9124293,9.314309,SOCS box,WSB1 WSB2 CISH SPSB4 SPSB2 SPSB1 ASB9 NEURL2 ASB7 ASB8 ASB5 ASB6 ASB3 ASB4 RAB40AL ASB1 ASB2 ASB14 ASB15 ASB12 ASB13 ASB18 ASB16 ASB17 SOCS3 SOCS4 RAB40A RAB40B SOCS1 SOCS2 RAB40C ASB10 ASB11 SOCS7 SOCS5 SOCS6 
14.083681,0.77497673,7.960502,9.500113,SPARC Ca bdg,SPARC SPOCK3 SMOC2 SMOC1 SPOCK1 SPOCK2 SPARCL1 
14.543481,2.3051288,7.8128343,9.990067,SPOC,DIDO1 PHF3 RBM15 SPOCD1 SPEN RBM15B 
14.291471,0.9508312,7.9515743,9.273838,SRCR,MSR1 CD163 CFI SCARA5 CD163L1 LGALS3BP CD5L LOXL4 SSC5D SSC4D PRSS12 LOXL2 LOXL3 MARCO CD5 CD6 DMBT1 HHIPL1 
14.302651,1.9299172,8.158099,10.143454,SRCR 2,TMPRSS4 TMPRSS5 TMPRSS2 TMPRSS3 TMPRSS13 TMPRSS15 CORIN 
14.067785,0.9520033,7.9089727,9.652173,SRF-TF,MEF2B MEF2A MEF2D MEF2C SRF 
14.174287,1.786246,8.555771,9.406204,START,STARD3 STARD4 STARD5 STARD6 STARD7 STARD13 STARD8 STARD10 ACOT11 STARD9 ACOT12 PCTP DLC1 COL4A3BP STAR 
14.241356,1.5160115,7.9894032,9.799451,STAS,SLC26A1 SLC26A3 SLC26A2 SLC26A9 SLC26A10 SLC26A8 SLC26A11 SLC26A5 SLC26A4 SLC26A7 SLC26A6 
14.535696,1.8829368,8.020895,10.030609,STAT bind,STAT5B STAT1 STAT2 STAT3 STAT4 STAT6 STAT5A 
14.579664,1.7145027,8.051558,9.313985,STAT int,STAT5B STAT1 STAT2 STAT3 STAT4 STAT6 STAT5A 
14.097527,1.0179857,8.994473,9.1289835,SWIB,SMARCD1 SMARCD2 SMARCD3 MDM4 MDM2 
14.579369,1.1510084,8.04538,9.777082,SWIRM,SMARCC1 SMARCC2 TADA2A KDM1A KDM1B MYSM1 
14.410889,0.8508829,8.121754,10.154022,S 100,S100G S100A3 S100A2 S100A1 S100B HRNR FLG2 CRNN S100Z S100A7 S100A6 S100P S100A5 TCHHL1 S100A4 S100A9 S100A8 FLG S100A7L2 TCHH S100A7A RPTN S100A14 S100A13 S100A16 S100A10 S100A12 S100A11 
14.50293,1.7059466,8.4073515,9.072731,Scramblase,PLSCR2 PLSCR1 PLSCR4 PLSCR3 PLSCR5 
14.213292,0.93368024,7.9503098,9.942259,Sec23 BS,SEC24A SEC23B SEC24C SEC24B SEC23A SEC24D 
14.690176,1.1738306,8.325595,9.222644,Sec23 helical,SEC24A SEC23B SEC24C SEC24B SEC23A SEC24D 
13.945877,0.8173873,7.899301,9.515784,Sec23 trunk,SEC24A SEC23B SEC24C SEC24B SEC23A SEC24D 
14.157618,0.9980515,8.007749,10.132872,Sec7,ARFGEF2 PSD ARFGEF1 IQSEC3 GBF1 IQSEC2 IQSEC1 CYTH4 CYTH3 PSD3 PSD2 PSD4 FBXO8 CYTH2 CYTH1 
14.08823,0.011685136,8.443417,8.929479,Septin,SEPT10 SEPT11 SEPT12 SEPT1 SEPT2 SEPT14 SEPT5 SEPT6 SEPT3 SEPT4 SEPT9 SEPT7 SEPT8 
14.100784,2.151555,8.067575,9.777999,Serpin,SERPINB4 SERPINB5 SERPINB2 SERPINB3 SERPINB1 SERPINF2 SERPIND1 SERPINB8 SERPINB9 AGT SERPINB6 SERPINB7 HMSD SERPING1 SERPINI1 SERPINI2 SERPINB11 SERPINA12 SERPINA3 SERPINB12 SERPINA4 SERPINB13 SERPINA1 SERPINA2 SERPINC1 SERPINE3 SERPINE1 SERPINA10 SERPINE2 SERPINB10 SERPINA11 SERPINA9 SERPINA7 SERPINA5 SERPINA13P SERPINA6 SERPINF1 SERPINH1 
14.131231,0.803408,9.129616,9.563607,Sortilin-Vps10,SORT1 SORCS2 SORCS1 SORL1 SORCS3 
14.616845,1.5982531,8.673201,9.461052,Sortilin C,SORT1 SORCS2 SORCS1 SORL1 SORCS3 
14.250173,0.5903469,8.245465,9.992998,Spectrin,SPTBN4 SPTBN5 MACF1 ACTN4 TRIO DST ACTN3 ACTN2 ACTN1 SYNE1 SPTB KALRN SYNE3 SYNE2 DRP2 SPTA1 MCF2L DMD SPTAN1 UTRN SPTBN1 SPTBN2 
14.132232,0.97774374,7.8206434,9.370399,Sulfotransfer 1,HS3ST1 HS3ST3B1 CHST7 WSCD1 HS3ST6 HS3ST4 HS3ST5 HS3ST2 SULT2B1 SULT1B1 CHST1 CHST2 CHST5 SULT6B1 CHST6 CHST3 CHST4 HS3ST3A1 NDST3 SULT2A1 SULT1C4 SULT1A2 SULT1A1 NDST2 SULT1C3 SULT1C2 NDST1 DSEL SULT1E1 NDST4 SULT4A1 SULT1A4 SULT1A3 
14.370384,1.1297345,8.135568,9.998079,Sulfotransfer 2,CHST9 CHST8 CHST12 UST CHST13 CHST10 CHST11 CHST14 HS6ST1 HS6ST2 HS2ST1 HS6ST3 
14.118762,1.180455,8.010897,9.651234,Sushi,GABBR1 SEZ6L VCAN CFHR1 CFHR3 CFHR2 CR1L CFHR5 CFHR4 PAPPA2 FBLN7 MASP1 C4BPA C4BPB SEZ6 SRPX2 SUSD4 SUSD6 PAMR1 CR1 CR2 SUSD1 SUSD3 SUSD2 PAPPA SELE BCAN SELP IL2RA SELL F13B MASP2 CD46 CFB SRPX C1R CFH C1S NCAN SEZ6L2 C2 ACAN C6 TPO C7 APOH SVEP1 CSMD3 CSMD2 CSMD1 CD55 
14.404909,0.9073873,8.203897,9.339619,Syntaxin,STX16 STX19 STX4 STX3 STX2 STX1B STX1A STX11 
14.488357,1.3807167,7.999424,9.612016,T-box,TBX2 EOMES TBX1 MGA TBR1 TBX6 TBX5 TBX19 TBX4 TBXT TBX3 TBX18 TBX15 TBX22 TBX21 TBX10 TBX20 
14.488552,1.3340738,8.201357,9.3791485,TED complement,PZP OVOS1 OVOS2 A2ML1 C4B_2 C4A C3 C3P1 C4B C5 CPAMD8 CD109 A2M 
14.109564,1.5636418,8.528662,9.865702,TFIIS C,ZNRD1 TCEA3 TCEA2 TCEA1 POLR2I POLR3K 
14.158954,1.6803054,8.230493,9.331137,TFIIS M,DIDO1 PHF3 SPOCD1 TCEA3 TCEANC TCEA2 TCEA1 
13.893116,1.1530454,8.556363,9.105238,TFR dimer,FOLH1 TFRC FOLH1B NAALAD2 NAALADL1 
13.596597,2.0068538,8.165872,9.24788,TGF beta,TGFB1 GDF11 LEFTY2 TGFB3 TGFB2 LEFTY1 GDF15 PSPN GDF1 BMP8B GDF3 INHBA GDF2 GDF5 INHBC INHBB BMP8A INHBE GDF7 GDF6 BMP7 GDF9 BMP6 GDF10 BMP5 BMP4 BMP3 BMP2 ARTN GDNF MSTN NODAL INHA BMP10 BMP15 NRTN AMH 
13.826306,2.0214686,8.773016,9.303062,THAP,THAP5 THAP4 THAP7 THAP6 THAP9 THAP8 THAP1 THAP10 THAP3 THAP11 THAP2 THAP12 
13.965861,2.1500957,8.164111,9.241063,TIG,PLXNC1 PLXND1 EBF1 EBF2 EBF3 EBF4 MST1R PKHD1 CAMTA1 PLXNA3 PLXNA2 PLXNB3 CAMTA2 PLXNB2 MET PLXNA1 PKHD1L1 PLXNB1 EXOC2 PLXNA4 
14.39921,1.1659813,8.118331,9.711748,TIL,MUC5B VWF MUC19 ZAN MUC5AC FCGBP OTOGL MUC2 BMPER SSPO OTOG MUC6 TECTA 
13.727245,1.7683043,8.207876,9.63081,TLD,OXR1 NCOA7 TLDC2 TLDC1 TBC1D24 IFI44 
14.384695,1.7117269,8.297142,10.0807,TMC,TMC2 TMC1 TMC8 TMC7 TMC6 TMC5 TMC4 TMC3 
14.328558,1.4202406,8.590539,9.467218,TNF,EDA TNFSF15 TNFSF13 CD70 TNFSF14 TNF FASLG TNFSF13B TNFSF11 LTB TNFSF12 LTA TNFSF9 TNFSF10 TNFSF8 CD40LG 
14.099769,1.3839095,8.324333,9.4819565,TNFR c6,NGFR TNFRSF6B CD40 TNFRSF11A TNFRSF19 TNFRSF10D TNFRSF10C TNFRSF10B TNFRSF10A TNFRSF11B EDA2R TNFRSF1A TNFRSF1B TNFRSF21 LTBR FAS TNFRSF8 TNFRSF9 CD27 TNFRSF4 TNFRSF25 TNFRSF14 
13.676386,1.7528266,8.694589,9.520055,TRAM LAG1 CLN8,CERS4 CERS5 TRAM2 CERS6 TRAM1 FAM57B FAM57A CLN8 TMEM136 TLCD1 TMEM56 TRAM1L1 TLCD2 CERS1 CERS2 CERS3 
14.090779,0.83753455,8.294403,9.406469,TSP 1,SBSPON ADAMTS20 CILP SEMA5B SEMA5A C8A ADAMTS13 C8B ADAMTS12 ADAMTS10 CTGF ADAMTS17 ADAMTS16 ADAMTS15 ADAMTS14 ADAMTS19 ADAMTS18 HMCN1 UNC5B UNC5C UNC5D ADGRB3 ADGRB1 ADGRB2 SSPO SPON2 SPON1 PAPLN THBS1 THSD1 ISM2 CFP WISP1 THBS2 ISM1 THSD4 ADAMTSL2 ADAMTS5 ADAMTSL1 ADAMTS6 ADAMTS3 C6 ADAMTS4 C7 ADAMTS1 CILP2 ADAMTSL5 ADAMTS2 C9 ADAMTSL4 ADAMTSL3 THSD7A THSD7B ADAMTS9 ADAMTS7 ADAMTS8 
13.613814,1.9351829,8.304529,9.744144,TUDOR,AKAP1 TDRKH SND1 RNF17 TDRD9 TDRD7 TDRD6 TDRD5 TDRD3 TDRD1 TDRD12 TDRD10 TDRD15 STK31 
14.076995,1.830284,8.424428,9.482105,Tap-RNA bind,NXF1 NXF2 NXF3 NXF5 NXF2B 
14.284407,0.9422574,9.052253,9.428606,ThiF,MOCS3 UBA7 UBA6 UBA5 UBA3 UBA2 NAE1 UBA1 ATG7 SAE1 
13.871781,0.8683352,8.324724,9.502405,Thiolase C,HADHB SCP2 ACAT1 ACAA2 ACAA1 ACAT2 
14.124793,1.5747153,8.664298,9.432925,Thiolase N,HADHB SCP2 ACAT1 ACAA2 ACAA1 ACAT2 
13.856546,0.56948173,8.934397,9.351934,Thioredoxin,PDIA4 PDIA3 PDIA2 TXNL1 GLRX3 DNAJC16 PDIA6 PDIA5 ERP44 TMX4 TMX3 TMX2 NME8 DNAJC10 TMX1 NME9 P4HB TXN2 TXNDC11 TXN TXNDC15 TXNDC16 TXNDC5 QSOX1 QSOX2 PDILT TXNDC2 TXNDC9 TXNDC8 
14.264829,1.6137178,8.808584,9.383824,Thyroglobulin 1,IGFBP2 IGFBP1 CD74 NID1 IGFBP6 IGFBP5 IGFBP4 IGFBP3 TACSTD2 NID2 TG EPCAM SPOCK3 SMOC2 SMOC1 SPOCK1 SPOCK2 
13.859857,1.172226,8.174119,9.765984,Transglut C,TGM2 TGM1 EPB42 F13A1 TGM7 TGM6 TGM5 TGM4 TGM3 
13.97048,1.2591976,8.257762,9.7727165,Transglut N,TGM2 TGM1 EPB42 F13A1 TGM7 TGM6 TGM5 TGM4 TGM3 
13.909013,0.88319707,8.423289,9.669258,Transket pyr,BCKDHB DHTKD1 TKTL2 TKTL1 OGDHL PDHB TKT OGDH 
14.169229,1.4684064,8.698128,9.562409,Transketolase C,BCKDHB TKTL2 TKTL1 PDHB TKT 
13.88991,1.9424038,8.611123,9.741755,Trefoil,MGAM SI MGAM2 GAA TFF3 TFF2 TFF1 ZP4 
14.183186,1.1282678,8.398563,9.97512,Trypsin,F11 F10 CMA1 F12 CELA1 PRSS58 TMPRSS12 TMPRSS13 PRSS56 PRSS57 PRSS54 TMPRSS15 PRSS55 PRSS2 PRSS1 TPSB2 MASP1 HP PRSS47 PRSS48 PRSS45 MST1L PRSS43 PRSS44 PRSS53 PRSS50 PRSS51 PRSS8 C1RL PAMR1 PRSS3 ELANE HABP2 TMPRSS11B CELA2A CELA2B TMPRSS11A TPSG1 ST14 HGF TMPRSS11F TMPRSS11D TMPRSS11E PROC PRTN3 LPA CFB CELA3A CFD CELA3B CFI HPN HPR PLAU PLAT C2 TPSAB1 PRSS29P MST1 KLK14 KLK15 AZU1 PRSS12 KLK10 KLK11 KLK12 ACR KLK13 PRSS46P CTRL KLKB1 CTRC TMPRSS9 KLK2 TMPRSS6 KLK1 TMPRSS7 TMPRSS4 TMPRSS5 KLK6 TMPRSS2 KLK5 PROZ TMPRSS3 KLK4 KLK3 KLK9 KLK8 KLK7 CTSG HGFAC OVCH2 OVCH1 GZMB GZMA CTRB2 PRSS38 PRSS36 PRSS3P2 PRSS37 F2 GZMH PRSS35 PRSS33 PRSS41 F7 PRSS42 GZMK F9 GZMM CTRB1 MASP2 C1R C1S TPSD1 PRSS27 PLG PRSS23 PRSS21 PRSS22 CORIN 
13.734422,1.872822,9.149652,9.580052,Tub,TUB TULP4 TULP3 TULP2 TULP1 
14.154765,1.1943113,8.50852,10.051516,Tubulin,TUBAL3 TUBB TUBB1 TUBD1 TUBE1 TUBG2 TUBA1A TUBB2A TUBA3C TUBG1 TUBB4B TUBA4B TUBB4A TUBA4A TUBA8 TUBB8 TUBA3E TUBA1C TUBA3D TUBB2B TUBB6 TUBA1B TUBB3 
13.984629,1.4664696,8.494867,9.524268,Tubulin C,TUBAL3 TUBB TUBB1 TUBE1 TUBG2 TUBA1A TUBB2A TUBA3C TUBG1 TUBB4B TUBB4A TUBA4A TUBA8 TUBB8 TUBA3E TUBA1C TUBA3D TUBB2B TUBB6 TUBA1B TUBB3 
14.364934,1.5031964,8.547654,10.099024,Tudor 2,KDM4A KDM4B PHF20L1 KDM4C MTF2 PHF1 PHF19 
13.815631,1.0379815,8.459857,9.705222,U-box,UBOX5 PRPF19 RBBP6 WDSUB1 UBE4A UBE4B STUB1 
13.896314,1.0860343,8.531443,9.508551,UBA,USP5 RHBDD3 VPS13D RAD23B HUWE1 RAD23A UBAC1 UBAC2 TDRD3 LATS1 UBE2K TNRC6C UBXN1 USP13 CBL NUB1 UBQLN2 MARK1 UBQLN1 UBASH3B MARK4 MARK3 UBQLN4 MARK2 UBQLN3 
13.779565,1.5992252,8.297118,9.341577,UBX,UBXN1 FAF1 UBXN2B UBXN2A FAF2 ASPSCR1 NSFL1C UBXN11 UBXN10 UBXN8 UBXN4 UBXN7 UBXN6 
14.079443,1.6057614,8.680531,9.483617,UPA,UNC5B UNC5C UNC5CL UNC5A UNC5D 
13.572616,1.476451,8.392284,9.916163,UPAR LY6,CD177 PINLYP LY6L PSCA TEX101 LYPD3 LYPD4 LYPD5 PLAUR LYPD8 SLURP2 SLURP1 LY6E SPACA4 LY6D CD59 LY6H GPIHBP1 
14.002638,1.6931435,8.723636,9.710628,UQ con,UBE2H UBE2I UBE2C UBE2F AKTIP UBE2E2 UBE2E3 UBE2A UBE2G2 UBE2E1 UBE2B UBE2G1 UBE2QL1 UBE2W CDC34 UBE2Z UBE2S UBE2T UBE2U UBE2R2 UBE2O BIRC6 UBE2V1 UBE2V2 UBE2K UBE2M UBE2N UBE2D3 UBE2D4 UBE2D1 UBE2D2 UBE2L5 UBE2L6 UBE2J1 UBE2L3 UBE2J2 UBE2DNL UBE2Q2 UBE2Q1 UBE2NL 
13.887107,0.9077653,8.428608,9.958779,Uteroglobin,SCGB1C1 SCGB1D2 SCGB1D1 SCGB1A1 SCGB1D4 SCGB1C2 SCGB2A2 SCGB2A1 SCGB2B2 SCGB3A2 
13.563593,1.6744671,8.757507,10.726743,V-set,CADM4 CADM2 TRDV3 CADM3 IGHV3-11 TRAV12-3 TRDV1 CADM1 TRAV12-2 IGKV5-2 IGHV3-13 TRDV2 PSG2 TRAV12-1 PSG1 IGHV3-15 PSG4 PSG3 FCAMR CD2 PSG9 CD7 PSG6 PSG5 PSG8 PSG7 IGKV6D-21 IGKV1D-8 MXRA8 IGLV8-61 IGHV3-20 IGHV4-4 IGHV3-21 IGHV3-23 IGLV3-1 IGHV2-70D VPREB3 IGLV3-9 IGKV1-17 VPREB1 IGKV1-16 IGKV1-13 SLAMF7 PTGFRN SLAMF6 IGKV1-12 LY6G6F IGKV6-21 MCAM TRAV13-2 TRAV13-1 IGHV2-26 IGHV1-58 BCAN BCAM IGKV2D-29 TREML4 IGKV4-1 SCN2B IGKV2D-28 IGKV2D-26 HEPACAM HHLA2 IGKV2D-30 TAPBPL IGHV1-69 F11R TRAV23DV6 CD79B IGLV2-8 BTN2A3P IGLV9-49 IGHV1-69D ERMAP SCN1B SIGLEC16 SIGLEC15 BTN3A2 SIGLEC14 BTN3A1 SIGLEC12 IGKV2D-40 SIGLEC11 SIGLEC10 IGLV7-46 IGLV7-43 BTN3A3 TRBV25-1 NCR2 CEACAM4 IGLV2-23 NCR3 CEACAM3 CEACAM1 SIGLEC1 CEACAM8 CEACAM7 TRAV1-1 CEACAM6 TRAV1-2 CEACAM5 SIGLEC5 SIGLEC9 SIGLEC8 TRAV9-1 SIGLEC7 TRAV9-2 SIGLEC6 IGSF8 IGHV6-1 IGHV7-4-1 IGSF6 IGHV3-43D TRBV6-1 IGSF3 TRBV6-4 IGHV1-45 TRBV6-5 IGHV1-46 BTNL10 TRBV6-2 TRBV6-3 TRBV6-8 TRBV6-9 IGSF21 TRBV6-6 TRBV30 MPZL1 CTLA4 HAVCR2 HAVCR1 MPZL2 CD33 MPZL3 TRGV4 TRGV5 TRGV2 TRBV24-1 TRGV3 IGHV3-64D TRGV8 TRGV9 TRBV28 IGHV1-18 TRBV27 IGLV3-16 IGLV3-10 IGLV3-12 TRAV8-6 CD48 TRAV8-1 IGLV3-19 TRAV8-2 TRAV8-3 TRAV8-4 TRBV19 TRBV18 NCAN PIGR TRBV7-4 IGHV1-24 TRBV13 TRBV7-2 TRBV7-7 TRBV12-3 TRBV7-8 TRBV14 TRBV12-4 VSIR TRBV12-5 TRBV7-6 TRBV16 IGLV3-25 IGLV3-27 IGKV1D-43 TRBV7-9 IGLV3-21 IGLV3-22 TRAV41 TRAV40 GPA33 ICOSLG BTNL9 TRAV39 CD300A IGKV1-9 MOG IGKV1-8 CRTAM BTN1A1 IGKV1-6 BTNL2 TRAV34 BTNL3 IGKV1D-39 IGKV1D-33 TRAV35 BTNL8 TRAV30 JAML CD300E IGKV1-5 CD300C PDCD1 IGKV3-20 CD300H CD86 TRBV11-1 TRBV11-2 TRBV11-3 VTCN1 CD83 TRBV4-2 TRBV4-3 CD80 TRBV4-1 TRAV21 TRAV20 PVR TRAV22 TRAV25 TRAV24 TRAV27 MPZ CEACAM21 JAM2 JAM3 IGHV5-51 TRAV14DV4 IGHV3-72 IGKV2-40 TRAV18 IGHV3-73 TRAV17 IGHV3-74 TRAV19 TRAV5 BTN2A2 TRAV4 BTN2A1 TRAV7 IGHV1-69-2 TRAV6 IGKV1D-16 TRAV10 CD8B2 IGKV1D-17 IGLV1-40 IGKV1D-12 TRAV16 IGKV1D-13 IGSF11 FAM187A CD8B IGLV1-36 CD8A ESAM IGKV3D-7 IGKV2-30 CD276 TRBV10-1 IGHV4-30-2 TRBV10-2 FCMR CD274 IGHV1-8 TRBV10-3 IGHV1-2 TRBV5-1 SIRPG IGHV1-3 TRBV5-5 IGHV4-38-2 TRBV5-6 IGHV4-59 TRBV5-4 IGLV1-51 VSIG10 PSG11 IGHV4-30-4 TRBV5-8 IGLV1-44 IGLV2-11 IGLV6-57 IGLV1-47 IGLV2-14 SIRPA IGKV3-15 IGLV2-18 SIRPD IGKV3-11 IGHV4-61 TRBV9 IGHV3-53 PILRA TRBV29-1 PILRB IGHV4-28 VCAN TMIGD2 VSTM2L SCN4B VSTM2B VSTM2A IGHV2-5 HAPLN1 IGHV4-31 IGHV3-64 IGHV4-34 IGHV3-66 IGKV3D-11 IGHV4-39 HAPLN4 TREM1 TREM2 HAPLN2 SIRPB2 IGLV4-60 TRAV29DV5 HAPLN3 SIRPB1 IGKV3D-15 IGKV2-29 IGKV2-28 CD300LB CD300LD IGKV2-24 TRAV3 CD300LF TRAV2 CD300LG SCN3B CXADR CEACAM19 IGHV3-30 TIMD4 IGHV3-33 TRBV20-1 IGKV3D-20 IGLV5-39 NPHS1 IGLV5-37 IGLV4-69 IGKV1-27 NECTIN1 IGHV3-30-3 TRAV26-1 CD226 TRAV26-2 IGHV3-30-5 TRAV36DV7 NECTIN4 IGLV10-54 NECTIN3 CD101 IGHV2-70 NECTIN2 IGHV3-43 TRBV3-1 IGHV3-48 IGLV5-52 IGHV3-49 ACAN VSIG2 CLMP IGLV4-3 IGKV1-39 IGLV5-45 VSIG1 VSIG4 TRBV2 IGKV1-33 TRAV38-1 IGHV5-10-1 TIGIT IGHV3-7 TRAV38-2DV8 VSIG8 VSTM4 IGHV3-9 
13.974555,1.7090244,8.863807,9.596243,VHP,ABLIM1 ABLIM2 SVIL DMTN ABLIM3 AVIL VILL VIL1 
13.935849,1.6299175,8.672651,9.804231,VHS,TOM1L2 GGA3 GGA2 HGS TOM1L1 TOM1 STAM STAM2 GGA1 
13.621041,1.4253535,8.614916,10.041784,VWA,ITGA1 PARP4 COL28A1 VWF CACNA2D2 CACHD1 CACNA2D1 ITGA2 ITGA10 COL6A1 ITGAE ITGAD ITGA11 COL6A3 ANTXRL COL7A1 COL6A2 VWA1 MATN2 COL21A1 COL6A5 MATN1 COL22A1 VWA2 COL20A1 COL6A6 MATN4 MATN3 CFB ITIH6 ITIH5 VIT ITIH4 ITIH3 COL14A1 COL12A1 ITIH2 ITGAM ANTXR2 ITGAL ITIH1 C2 COCH ANTXR1 ITGAX SVEP1 CLCA4 
13.891098,1.339321,8.586587,9.925572,VWA 2,INTS14 PIPSL PSMD4 INTS6 CLCA1 INTS6L 
13.939426,1.4425173,8.655879,9.868298,VWA 3,CACNA2D4 VWA3A CACNA2D3 VWA5B1 VWA3B VWA5B2 VWA5A 
13.628669,0.6241713,8.594573,9.894527,Vps4 C,SPAST VCP VPS4A VPS4B KATNAL1 FIGNL1 FIGN 
13.921818,1.3859404,8.848935,9.755946,Vps5,SNX5 SNX2 SNX1 SNX32 SNX6 
13.736694,1.4760152,8.669661,9.631059,WAP,WFDC12 WFDC8 WFIKKN2 WFIKKN1 ANOS1 WFDC1 WFDC2 WFDC5 WFDC6 WFDC3 SLPI PI3 EPPIN UMODL1 WFDC10A 
13.84615,1.3008094,8.702084,9.810727,WASH WAHD,WASH6P WASH4P WASH3P WASH2P WASHC1 
13.803781,1.6067989,8.765676,9.855393,WH1,SPRED3 SPRED2 SPRED1 HOMER2 HOMER3 HOMER1 WAS WASL EVL VASP ENAH 
13.8493595,1.1205401,8.976795,9.9223175,WHEP-TRS,WARS MARS HARS EPRS GARS 
13.8317,1.2656839,8.995848,9.727054,WSC,PKD1 WSCD1 WSCD2 KREMEN2 KREMEN1 
13.691545,0.9053856,8.691807,9.996097,WW,WWTR1 MAGI2 WWOX MAGI1 FNBP4 SMURF2 PCIF1 SMURF1 MAGI3 WWP1 WWP2 PRPF40B PRPF40A PLEKHA5 ARHGAP27 ITCH HECW2 NEDD4 WAC GAS7 UTRN PIN1 YAP1 TCERG1 STXBP4 WWC1 WWC2 WBP4 HECW1 NEDD4L SAV1 DRP2 PIN1P1 BAG3 APBB1 APBB2 DMD SETD2 
13.822053,1.0451949,8.536555,9.9255905,Xlink,HAPLN1 NCAN TNFAIP6 LYVE1 HAPLN4 HAPLN2 HAPLN3 ACAN VCAN BCAN STAB1 STAB2 SUSD5 CD44 
13.738375,1.2286311,8.935397,10.053556,YTH,YTHDF1 YTHDF2 YTHDF3 YTHDC1 YTHDC2 
13.680965,1.3403575,8.670284,9.8504305,Y phosphatase,PTPRN2 PTPN18 PTPN1 PTPN2 PTPN11 PTPN12 PTPN13 PTPN14 PTPRE PTP4A2 PTPRF PTPRC PTPRD PTPRA PTPRB PTPN20 PTPN9 PTPN7 PTPN5 PTPN6 PTPN3 PTPN4 PTPRU PTPRS PTPRT PTPRQ PTPRR PTPRO PTPN21 PTPRM PTPRN PTPN22 PTPN23 PTPRK PTPRJ PTPRG PTPRH PTPRZ1 
13.520318,1.1584667,9.17356,10.06116,Yip1,YIPF1 YIPF2 YIPF4 YIPF5 YIPF6 YIPF7 
13.700203,1.382508,8.800681,10.061047,Yippee-Mis18,MIS18A CRBN YPEL2 YPEL1 OIP5 YPEL5 YPEL4 YPEL3 
13.372956,1.4924376,9.178309,10.230847,ZZ,CREBBP ZSWIM2 DTNA DTNB DYTN MIB1 MIB2 DRP2 ZZEF1 ZZZ3 HERC2 NBR1 EP300 DMD SQSTM1 UTRN KCMF1 
13.60272,0.9557217,9.146797,9.96305,adh short,WWOX HSDL1 CBR3 CBR1 HSDL2 DHRS1 DHRS3 HSD11B1L QDPR DHRS7 DHRS9 BDH1 RDH5 DHRS13 DHRS11 DHRS12 HPGD RDH8 HSD17B4 DHRS7B HSD17B6 HSD17B7 HSD17B13 HSD17B12 HSD17B11 SDR9C7 HSD17B10 HSD11B2 DHRSX KDSR RDH13 SPR HSD17B1 RDH12 HSD17B2 DHRS7C RDH11 RDH10 HSD17B3 RDH16 DHRS4L2 RDH14 SDR16C5 HSD11B1 
13.705633,1.146713,9.099632,9.823382,cEGF,CD93 LRP1B MATN2 GAS6 FBN1 MATN4 FBN2 FBN3 NID1 LRP2 LRP1 LTBP3 LRP4 FBLN2 FBLN1 NID2 LTBP1 FBLN5 EFEMP1 SCUBE3 THBD SCUBE1 SCUBE2 EFEMP2 ADGRE1 HMCN1 HMCN2 
13.48911,0.8504381,8.667667,10.162696,cNMP binding,KCNH3 KCNH5 KCNH6 KCNH7 KCNH8 CNBD2 PRKAR1B PRKAR1A CNBD1 CNGB3 RAPGEF3 PNPLA6 PNPLA7 RAPGEF6 HCN1 RAPGEF4 HCN3 CNGB1 HCN2 HCN4 SLC9C1 SLC9C2 PRKAR2B PRKAR2A CNGA2 CNGA3 CNGA4 KCNH1 PRKG2 KCNH2 CNGA1 PRKG1 
13.427572,1.3536242,8.74896,9.927962,cobW,CBWD6 CBWD5 CBWD3 CBWD2 CBWD1 
13.469922,1.1242155,8.891402,10.045198,dDENN,DENND2D DENND1C ST5 DENND4C DENND2A DENND4B DENND1B DENND2C DENND1A DENND5B DENND4A DENND5A 
13.408834,1.4526681,8.959077,10.1038265,dsrm,STAU1 STAU2 DHX9 EIF2AK2 STRBP ADARB1 ADARB2 ADAR ILF3 TARBP2 DUS2 ADAD2 DROSHA ADAD1 PRKRA DGCR8 
13.654984,1.3196411,9.129608,10.031067,fn2,IGF2R MMP2 SEL1L F12 FN1 LY75 ELSPBP1 MMP9 BSPH1 MRC1 MRC2 PLA2R1 HGFAC 
13.356692,1.1248035,9.061283,10.111102,fn3,CDON EPHA6 EPHA5 EPHA8 EPHA7 LRRN4 CNTN6 LRRN3 LIFR MID1 FNDC8 L1CAM LRFN4 LRFN3 FNDC4 OBSCN FNDC5 AXL LRFN2 LRFN1 IL31RA FNDC1 CNTN2 TEK CNTN3 CNTN4 COL20A1 CNTN5 IL6ST EPHA2 EPHA1 EPHA4 CNTN1 EPHA3 CNTFR CSF3R TNXB VSIG10L2 TNXA COL12A1 ANOS1 TNC MPL IL27RA PRTG TNN TNR ABI3BP FSD1 FSD2 DSCAM IL12RB2 IL12RB1 SDK1 SDK2 ANKFN1 IL7R MYOM1 MYOM2 EPHA10 PHYHIPL LRIT1 MYOM3 MYLK CMYA5 ROS1 TRIM67 MYBPC2 MYBPC3 FN1 USH2A IGFN1 MERTK MYBPC1 OSMR PTPRF CRLF1 PTPRC PTPRD PTPRB COL7A1 VWA1 PTPRU IGSF9 PTPRS PTPRT PTPRQ COL14A1 NCAM1 PTPRO EBI3 PTPRM PTPRK PTPRJ KALRN PTPRG PTPRH TRIM9 GHR IGSF22 BOC CHL1 NCAM2 DCC TRIM42 TIE1 FNDC3A MYBPH FNDC3B SORL1 EPOR NFASC NPHS1 IGDCC3 IGDCC4 TRIM36 TYRO3 DSCAML1 SNED1 ROBO3 EPHB6 ROBO4 ITGB4 TTN ROBO1 ROBO2 EGFLAM PTPRZ1 MYBPHL EPHB1 NRCAM NEO1 EPHB3 EPHB2 EPHB4 
13.413067,1.5913079,9.048274,10.024134,hEGF,JAG1 JAG2 DLK2 GAS6 FBN2 SNED1 NOTCH3 FBN3 CRB2 NOTCH4 CRB1 NOTCH1 NOTCH2 MEGF6 MEGF11 MEGF10 LTBP3 LTBP4 CELSR2 DLL1 DLL3 WIF1 DNER SLIT2 SLIT1 SVEP1 EDIL3 EYS 
13.304987,1.2393124,8.643977,10.290214,ig,PDGFRB FCRL3 IL1R2 FCRL4 SEMA4D LILRB1 VCAM1 LILRB4 MERTK LILRB5 CD4 CEACAM1 MFAP3 IGHD SIGLEC6 CD200 PTPRM KIR2DL1 KIR2DL2 THY1 KIR2DL3 KIR2DL4 BOC CHL1 EMB CEACAM21 KDR IGLON5 KIR2DL5A IGHA2 CD33 KIR2DL5B CXADR NTRK3 KIR2DS1 KIR2DS2 MCAM KIR2DS3 KIR2DS4 TIE1 KIR2DS5 KIR3DL1 KIR3DL2 KIR3DL3 NFASC KIT IL1RAPL2 FGFR1 IL1RAPL1 IGSF1 CSF1R FLT1 KIR3DS1 FLT3 SEMA3E SEMA3B AMIGO2 NTM SEMA3G LILRA2 AGER LILRA4 VSIG10 MYOM3 LILRA6 CD79A FCGR1A BTLA IL6R KIR3DX1 
13.621767,1.0513082,8.909853,9.899436,p450,CYP3A43 CYP4A11 CYP7B1 CYP39A1 CYP26A1 CYP2G1P CYP2C9 CYP2U1 CYP27C1 CYP2C8 CYP24A1 CYP11B2 CYP11B1 CYP20A1 CYP1A2 CYP1A1 CYP4Z2P CYP3A4 CYP4F22 CYP7A1 CYP3A5 CYP3A7 CYP4X1 CYP26B1 CYP2D7 CYP2D6 CYP1B1 PTGIS CYP51A1 CYP4F2 CYP4F3 CYP4B1 CYP4F11 CYP4F8 CYP8B1 CYP4F12 CYP2W1 CYP27A1 CYP2A7 CYP2A6 CYP26C1 CYP2S1 TBXAS1 CYP21A2 CYP2E1 CYP4A22 CYP46A1 CYP2C19 CYP19A1 CYP2C18 CYP17A1 CYP4Z1 CYP27B1 CYP2B6 CYP2A13 CYP4V2 CYP2R1 CYP11A1 CYP2F1 CYP2J2 
13.302404,1.1948084,8.592985,10.05848,rve,ERVK-6 ERVK-11 HERVK_113 ERVK-7 ERVK-10 ERVK-8 ERVK-25 ERVK-19 ERVK-18 
13.339595,0.6880336,9.102651,9.929806,tRNA-synt 2,DARS NARS2 KARS NARS DARS2 
13.3242235,0.8428177,8.766533,10.211877,tRNA-synt 2b,SARS2 TARSL2 SARS PARS2 TARS EPRS GARS TARS2 
13.221464,1.3009013,8.823744,10.254583,tRNA SAD,TARSL2 AARS2 AARSD1 TARS TARS2 AARS 
13.460128,1.6362234,9.174255,10.265153,tRNA anti-codon,DARS NARS2 KARS STN1 NARS NABP2 RPA1 DARS2 
13.18962,1.3743892,9.010906,10.180977,uDENN,DENND2D DENND1C DENND4C DENND2A DENND4B DENND1B DENND2C DENND1A MADD ST5 DENND5B DENND4A DENND5A SBF2 SBF1 
13.501359,1.0181513,9.073753,10.470619,ubiquitin,UBL4B UBL4A TMUB2 TMUB1 RAD23B ISG15 RAD23A UBLCP1 UBQLNL FAU UBA52 SF3A1 MIDN PRKN UHRF2 ZFAND4 UHRF1 UBFD1 NEDD8 HERPUD1 OASL HERPUD2 UBL7 UBL5 BAG6 UBC UBB BAG1 IQUB DDI2 UBD DDI1 UBQLN2 UBTD2 UBQLN1 ELOB SACS ANKUB1 RPS27A UBQLN4 UBTD1 UBQLN3 
13.463174,0.83720094,9.205464,10.064459,zf-3CxxC,RTP5 RTP3 RTP4 RTP1 RTP2 ZAR1L ZAR1 
13.719741,0.85131294,8.591916,10.244969,zf-BED,ZBED3 ZBED2 ZBED1 ZBED6 ZBED5 ZBED4 
13.418187,1.3660947,9.024413,10.327897,zf-B box,TRIM61 TRIM62 TRIM63 TRIM60 MID1 MID2 PML TRIM14 TRIM58 TRIM59 TRIM15 TRIM16 TRIM17 TRIM54 TRIM10 TRIM55 TRIM11 TRIM56 TRIM13 TRIM50 TRIM52 MEFV TRIM2 TRIM9 TRIM7 ZBBX TRIM5 TRIM6 TRIM3 TRIM4 TRIM47 TRIM48 TRIM49 TRIM49C TRIM49B TRIM44 TRIM45 TRIM46 TRIM41 TRIM42 TRIM75P RNF207 TRIM36 TRIM37 TRIM38 TRIM39 TRIM33 TRIM34 TRIM35 TRIM72 TRIM73 TRIM74 TRIM31 TRIM71 TRIM29 TRIM26 TRIM27 TRIM49D1 TRIM28 TRIM21 TRIM65 TRIM66 TRIM22 TRIM49D2 TRIM23 TRIM67 TRIM24 TRIM68 
13.524832,1.2645216,8.712006,10.315238,zf-C2H2,ZNF287 ZNF165 ZNF705G ZNF285 ZNF284 ZNF705E ZNF283 ZNF705F ZNF282 ZNF281 ZNF160 ZNF705D ZNF705A ZNF705B ZSCAN21 ZSCAN20 ZSCAN23 ZSCAN22 ZSCAN25 ZSCAN26 ZSCAN29 ZNF157 ZNF398 ZNF397 ZNF276 ZNF155 ZNF396 ZNF275 ZNF154 ZNF274 ZNF394 ZNF273 ZNF391 ZSCAN10 ZSCAN12 ZSCAN16 ZNF148 ZNF268 ZNF267 ZNF146 KLF11 ZNF266 ZNF18 KLF12 ZNF19 KLF13 ZBTB7A ZNF143 ZNF264 KLF14 ZNF384 ZNF142 ZNF263 ZNF141 ZNF383 ZNF382 ZNF140 ZNF260 KLF10 ZNF10 ZNF12 KLF15 ZNF14 KLF16 KLF17 ZNF16 ZNF17 KLF18 ZNF37A ZNF702P ZFAT SNAI2 SNAI3 SNAI1 ZNF138 ZNF136 ZNF257 ZNF256 ZNF135 ZNF497 ZNF134 ZNF496 ZNF254 ZNF133 ZNF253 ZNF132 ZBTB8A ZNF251 ZNF493 ZNF250 ZNF492 ZNF491 ZNF490 ZNF22 ZNF23 ZNF24 ZNF25 ZNF26 ZNF28 ZXDA ZXDB ZXDC ZNF20 ZBTB7C ZNF248 ZBTB7B ZNF367 ZNF487 ZNF366 ZNF124 ZNF486 ZNF485 ZSCAN5B ZNF121 ZNF484 ZSCAN5A ZNF483 ZNF362 ZSCAN5C ZNF480 ZNF32 ZNF34 ZNF35 ZEB1 ZEB2 MTF1 ZNF30 ZNF833P ZNF239 ZNF117 ZNF358 ZNF479 ZNF599 ZNF236 ZNF114 ZNF235 ZNF234 ZNF597 ZNF233 ZNF596 ZNF112 ZNF595 ZNF232 ZNF594 ZNF473 ZNF230 ZNF592 ZNF350 ZNF471 ZNF470 PRDM16 ZNF43 PRDM15 ZNF44 PRDM14 ZNF45 PRDM13 CTCF PRDM12 ZNF48 PRDM10 MYNN MECOM ZNF41 ZNF229 ZNF107 ZNF227 ZNF469 ZNF226 ZNF468 ZNF347 ZNF589 ZNF467 ZNF225 ZNF224 ZNF587 ZNF345 ZNF586 ZNF223 ZNF343 ZNF222 ZNF101 ZNF584 ZNF221 ZNF100 ZNF583 ZNF341 ZNF461 ZNF582 ZNF460 ZNF581 ZNF580 ZNF56 ZNF57 ZNF33B ZNF33A ZNF219 ZNF217 ZNF337 ZNF579 GZF1 ZNF215 ZNF578 ZNF699 ZNF214 ZNF577 ZNF213 ZNF697 ZNF576 ZNF334 ZNF696 ZNF212 ZNF575 ZNF454 ZNF333 ZNF574 ZNF211 ZNF695 ZNF331 ZNF573 ZNF572 ZNF571 ZNF692 ZNF691 ZNF570 ZNF66 GLI2 ZNF69 GLI1 GLI4 GLI3 ZSCAN30 ZSCAN32 ZSCAN31 PLAGL2 PLAGL1 ZNF329 ZNF208 ZNF449 ZNF569 ZNF205 ZNF689 ZNF568 ZNF688 ZNF446 ZNF567 ZNF566 ZNF445 ZNF324 ZNF687 ZIK1 ZNF202 ZNF444 ZNF565 ZNF322 ZNF564 ZNF443 ZNF684 ZNF200 ZNF563 ZNF442 ZNF562 ZNF683 ZNF441 ZNF320 ZBTB18 ZNF440 ZNF561 ZNF682 ZNF681 ZNF560 ZNF680 ZBTB14 ZBTB17 ZBTB16 ZBTB11 ZBTB12 HINFP HIC2 HIC1 WT1 ZNF319 ZNF439 ZNF317 ZNF559 ZNF679 ZNF558 ZNF316 ZNF799 ZNF557 ZNF678 ZNF436 ZFP28 ZNF556 ZNF677 ZNF555 ZNF676 ZNF433 ZNF675 ZNF554 ZNF432 ZNF311 ZNF674 ZNF431 ZNF552 ZNF672 ZNF551 ZNF793 ZNF430 ZNF792 ZNF671 ZNF550 ZNF670 ZNF791 ZBTB26 ZNF790 ZBTB25 ZBTB21 ZBTB24 ZBTB20 YY2 YY1 ZFP37 ZNF840P ZFP30 ZNF876P ZNF429 ZNF549 ZNF669 ZNF548 ZIM2 ZNF789 ZNF668 ZNF547 ZNF426 ZNF546 ZNF667 ZNF304 ZNF425 ZNF787 ZNF423 ZNF786 ZNF665 ZNF302 ZNF544 ZNF543 ZNF785 ZNF664 ZIM3 ZNF784 ZNF300 ZNF420 ZNF541 ZNF662 ZNF540 ZNF782 ZNF781 ZNF660 ZNF658B GTF3A VEZF1 ZFP69B SCRT2 SCRT1 ZFP42 ZFP41 ZNF419 ZNF418 ZNF417 ZNF416 ZNF658 ZNF778 ZNF536 ZNF415 ZNF777 ZNF655 ZNF776 ZNF534 ZNF775 ZNF654 ZNF653 ZNF774 ZNF652 ZNF773 ZNF410 ZNF530 ZNF772 ZNF771 ZNF770 ZNF891 MAZ RLF ZFP62 GLIS1 GLIS2 GLIS3 ZFP57 SALL1 SALL2 SALL3 ZKSCAN8 SALL4 ZKSCAN7 ZNF408 ZNF529 ZNF407 ZNF528 ZNF649 ZKSCAN4 ZNF648 ZNF527 ZKSCAN3 ZNF768 ZNF526 ZNF646 ZNF525 ZNF404 ZNF888 ZKSCAN5 ZNF524 ZNF766 ZNF765 ZNF764 ZKSCAN2 ZNF521 ZNF763 ZKSCAN1 ZNF641 ZNF883 CTCFL ZNF761 ZNF880 PEG3 ZNF75D ZNF75A SP1 ZFP69 SP3 ZFP64 SP2 BCL6 ZNF519 SP5 SP4 ZNF517 SP7 ZNF516 ZNF879 SP6 ZNF878 SP9 ZNF514 SP8 ZNF513 ZNF512 ZNF510 ZNF630 BNC2 ZFP82 ZNF629 ZNF628 ZNF507 ZNF749 ZNF506 ZNF627 ZNF626 E4F1 ZNF746 ZNF625 RREB1 ZNF624 ZNF502 ZNF623 ZNF865 ZNF501 ZNF500 ZNF621 ZNF620 ZNF740 ZNF860 ZBTB37 ZBTB39 ZBTB38 KLF1 ZBTB32 ZFP92 ZBTB34 KLF5 KLF4 KLF3 ZFP91 KLF2 ZFP90 KLF9 KLF8 KLF7 KLF6 ZNF619 ZNF737 ZNF616 INSM1 ZNF615 ZNF736 ZNF614 ZNF735 ZNF613 INSM2 ZNF732 ZNF611 ZNF853 ZNF610 ZNF852 ZNF730 ZNF850 ZBTB48 PLAG1 ZBTB47 ZBTB49 ZBTB44 ZBTB43 ZBTB45 ZBTB40 ZBTB42 ZBTB41 REPIN1 ZNF729 ZNF607 ZNF728 ZNF606 ZNF727 ZNF605 ZNF726 ZNF846 ZNF845 ZNF724 ZNF844 ZNF723 ZNF721 ZNF600 ZNF841 ZFP2 ZFP1 ZFP3 ZNF542P ZNF718 ZNF717 ZNF837 ZNF716 ZNF836 ZNF714 ZNF835 ZNF713 ZNF711 ZNF710 ZNF831 ZNF324B ZNF709 ZNF829 ZNF708 ZNF707 ZNF827 ZNF823 ZNF701 ZNF700 EGR1 EGR2 EGR3 EGR4 BCL11B BCL11A ZNF726P1 OVOL2 OVOL1 OVOL3 ZFPM1 ZNF816 ZNF814 ZNF813 RBAK GFI1 ZBTB2 IKZF1 IKZF2 ZBTB6 IKZF3 IKZF4 ZBTB3 ZNF808 ZNF806 ZNF805 HIVEP2 HIVEP1 ZNF800 HIVEP3 FEZF2 FEZF1 PATZ1 ZNF587B ZNF780B ZNF780A HKR1 ZNF137P ZNF355P ZNF585A ZNF585B ZFX ZFY ZNF2 ZNF354B ZNF354A ZNF354C ZFP14 OSR2 OSR1 ZNF76 ZNF77 ZNF79 ZNF70 GFI1B MZF1 ZNF71 ZNF73 ZNF74 FIZ1 ZSCAN4 ZSCAN2 PRDM9 PRDM8 PRDM5 ZSCAN9 PRDM4 PRDM6 PRDM1 ZNF3 PRDM2 ZNF7 ZNF8 ZNF80 ZNF81 ZNF83 ZNF84 ZNF85 ZNF98 ZNF99 ZNF90 ZNF91 ZNF92 ZNF93 ZNF818P ZFHX4 ZFHX3 ZNF75CP BCL6B ZNF197 ZNF195 ZSCAN5DP ZNF286A ZNF286B ZNF189 ZNF184 ZNF182 ZNF181 ZNF180 ZIC5 ZNF177 ZNF296 ZNF175 ZNF174 ZNF292 ZIC3 ZIC4 ZIC1 ZIC2 ZNF826P ZNF169 
14.005161,0.33932015,8.729787,10.353594,zf-C3HC4,TRIM40 TRIM64 RNF170 TRAF2 IRF2BP1 PEX2 TRAF5 TRAF4 MKRN1 RNF207 MKRN2 MKRN3 LNX1 RNF187 TRIM77 TRIM64B DTX1 DTX2 BRCA1 DTX4 SH3RF1 RNF213 MKRN4P TRIM65 RAG1 TRIM67 RNF112 
13.331514,1.2374763,9.168522,10.349281,zf-C4,ESRRB ESRRA VDR PPARA NR1H3 NR1H2 NR2F2 NR1D1 NR1H4 NR2F1 ESRRG NR1D2 NR2F6 ESR1 ESR2 NR5A2 NR6A1 NR4A3 AR NR5A1 NR4A2 RARB PPARG RARA PGR PPARD THRB NR1I2 THRA RARG NR1I3 NR2E1 HNF4G NR2E3 NR2C1 RORB RORC NR3C2 NR3C1 NR2C2 RORA NR4A1 RXRA RXRB HNF4A RXRG 
13.257693,0.97408104,8.987387,10.412396,zf-C5HC2,KDM5B KDM5C KDM5D JARID2 KDM5A 
13.389066,1.0735319,8.894535,10.128687,zf-CCHC,ERVK-6 ERVK-7 ERVK-5 ZCRB1 CPSF4 ERVK-8 CNBP ERVK-9 ERVK-19 LIN28A LIN28B ERVK-10 SF1 ZCCHC3 ZCCHC2 ZCCHC14 ZCCHC9 ZCCHC8 ZCCHC13 HERVK_113 ZCCHC7 TUT7 TUT4 RBM4B RTL3 RBM4 ERVK-21 ERVK-24 
13.150639,0.9455174,8.748003,10.281323,zf-CW,ZCWPW2 MORC4 KDM1B ZCWPW1 MORC2 MORC3 MORC1 
13.726846,0.22357368,8.815307,10.538288,zf-CXXC,KDM2A KDM2B KMT2B MBD1 KMT2A FBXL19 CXXC1 CXXC4 TET1 CXXC5 DNMT1 
13.586378,0.95029867,8.754031,10.3943405,zf-Di19,RNF114 ZEB1 RNF125 RNF138 ZEB2 RNF166 KCMF1 
14.712117,0.28230268,9.153982,10.443952,zf-FCS,ZMYM1 ZMYM2 ZMYM3 ZMYM4 ZMYM5 ZMYM6 
13.329302,0.71353036,8.818559,10.351895,zf-GRF,NEIL3 ERI2 APEX2 TOP3A ZGRF1 TTF2 ZCCHC4 
13.466968,0.75316566,9.145959,10.241345,zf-HIT,ZNHIT1 ZNHIT3 ZNHIT2 DDX59 ZNHIT6 INO80B 
13.595536,0.7286686,8.956461,10.569252,zf-MIZ,PIAS4 ZMIZ1 ZMIZ2 PIAS1 PIAS3 PIAS2 
13.327816,0.9351926,8.842212,10.616657,zf-MYND,EGLN1 ZMYND19 CBFA2T3 MSS51 USP19 CBFA2T2 TDRD1 DEAF1 SMYD3 SMYD2 ZMYND10 SMYD4 PDCD2 ZMYND12 RUNX1T1 SMYD1 ANKMY2 ANKMY1 ZMYND15 
13.287714,1.1948826,8.977623,10.46563,zf-MYST,KAT5 KAT6B KAT6A KAT8 KAT7 
13.643083,0.5548733,8.84577,10.570332,zf-RING 2,RNF43 BRAP RNF44 SCAF11 AMFR PJA1 PJA2 RNF103 RNF223 RNF149 RNF148 RNF225 RNF183 RAPSN RNF182 RNF145 RNF32 RNF38 MYCBP2 RCHY1 RNF6 PHRF1 RNF4 RNF115 RNF150 RNF111 RNF24 TTC3 SYVN1 TRAIP RNF126 RFWD3 RNF128 RLIM RNF165 DZIP3 RNF167 RNF122 RNF10 ZSWIM2 RNF11 RNF13 RNF181 LTN1 ZNRF1 ZNRF2 ZNRF3 RNF215 ZNRF4 RNF139 RNF130 RNF133 
13.37444,0.64455366,8.882856,10.66175,zf-RING 5,RNF212 NHLRC1 RNF152 TRIM28 CCNB1IP1 
13.271916,0.78701574,8.954128,10.496696,zf-RING 9,RUBCN PLEKHM3 PLEKHM1 RUBCNL DEF8 
13.427855,0.5985072,8.975385,10.761501,zf-RING UBOX,TRIM63 RC3H1 RC3H2 MID1 MID2 RNF224 RNF227 TRAF7 TRIM36 TRIM59 TRIM15 RBCK1 TRIM17 TRIM32 TRIM54 TRIM33 TRIM55 TRIM56 RNF222 TRIM13 TRIM72 RNF32 TRIM50 TRIM73 TRIM74 TRIM2 SH3RF2 RNF114 RMND5A TRIM5 TRIM6 TRIM3 TRIM47 TRIM22 TRIM23 TRIM45 TRIM46 LONRF1 
13.441089,1.0305266,8.94988,10.628799,zf-RanBP,RANBP2 ZRANB2 FUS TAF15 ZRANB3 ZRANB1 NUP153 EWSR1 RBM5 CAPN15 RYBP NEIL3 MDM4 RBM10 YAF2 MDM2 
13.363046,0.52255255,9.127212,10.598981,zf-Sec23 Sec24,SEC24A SEC23B SEC24C SEC24B SEC23A SEC24D 
13.325533,0.71868247,8.779072,10.731288,zf-Tim10 DDP,TIMM8B TIMM9 TIMM8A TIMM10B TIMM13 TIMM10 
14.295197,-0.15066293,6.566062,9.03165,zf-UBP,BRAP HDAC6 USP16 USP49 USP39 USP33 USP5 USP44 USP22 USP45 USP13 USP3 USP51 USP20 
